EVENT_NAME: CENTRAL_ITALY
EVENT_ID: EMSC-20160824_0000006
EVENT_DATE_YYYYMMDD: 20160824
EVENT_TIME_HHMMSS: 013632
EVENT_LATITUDE_DEGREE: 42.6983
EVENT_LONGITUDE_DEGREE: 13.2335
EVENT_DEPTH_KM: 8.1
HYPOCENTER_REFERENCE: INGV-CNT_Seismic_Bulletin
MAGNITUDE_W: 6.0
MAGNITUDE_W_REFERENCE: INGV-webservice
MAGNITUDE_L: 6.0
MAGNITUDE_L_REFERENCE: INGV-CNT_Seismic_Bulletin
FOCAL_MECHANISM: NF
NETWORK: IT
STATION_CODE: MTR
STATION_NAME: MONTEREALE
STATION_LATITUDE_DEGREE: 42.524021
STATION_LONGITUDE_DEGREE: 13.244796
STATION_ELEVATION_M: 975
LOCATION: 
SENSOR_DEPTH_M: 0.0
VS30_M/S: 
SITE_CLASSIFICATION_EC8: B*
MORPHOLOGIC_CLASSIFICATION: R
EPICENTRAL_DISTANCE_KM: 19.4
EARTHQUAKE_BACKAZIMUTH_DEGREE: 357.3
DATE_TIME_FIRST_SAMPLE_YYYYMMDD_HHMMSS: 20160824_013630.795
DATE_TIME_FIRST_SAMPLE_PRECISION: milliseconds
SAMPLING_INTERVAL_S: 0.020000
NDATA: 105
DURATION_S: 
STREAM: HGN
UNITS: cm/s^2
INSTRUMENT: sensor = Unknown [Unknown] | digitizer = Unknown [Unknown]
INSTRUMENT_ANALOG/DIGITAL: D
INSTRUMENTAL_FREQUENCY_HZ: 
INSTRUMENTAL_DAMPING: 
FULL_SCALE_G: 
N_BIT_DIGITAL_CONVERTER: 
PGA_CM/S^2: -68.260331
TIME_PGA_S: 11.760000
BASELINE_CORRECTION: BASELINE REMOVED
FILTER_TYPE: BUTTERWORTH
FILTER_ORDER: 2
LOW_CUT_FREQUENCY_HZ: 0.050
HIGH_CUT_FREQUENCY_HZ: 15.000
LATE/NORMAL_TRIGGERED: NT
DATABASE_VERSION: DYNA 1.0
HEADER_FORMAT: DYNA 1.2
DATA_TYPE: ACCELERATION RESPONSE SPECTRUM
PROCESSING: manual (Paolucci et al., 2011)
DATA_TIMESTAMP_YYYYMMDD_HHMMSS: 20191119_160111.228
DATA_LICENSE: CC-BY3_0-IT (http://creativecommons.org/licenses/by/3.0/deed.en)
DATA_CITATION: Luzi L, Puglia R, Russo E & ORFEUS WG5 (2016). Engineering Strong Motion Database. Istituto Nazionale di Geofisica e Vulcanologia, Observatories & Research Facilities for European Seismology. doi: 10.13127/ESM
DATA_CREATOR: ESM working group
ORIGINAL_DATA_MEDIATOR_CITATION: Ufficio Rischio Sismico e Vulcanico del Dipartimento della Protezione Civile (http://www.protezionecivile.gov.it/)
ORIGINAL_DATA_MEDIATOR: http://www.mot1.it/randownload/
ORIGINAL_DATA_CREATOR_CITATION: Italian Strong Motion Network, Italian Civil Protection Department http://www.protezionecivile.gov.it
ORIGINAL_DATA_CREATOR: network: IT (Italian Strong Motion Network); owner: Dipartimento Della Protezione Civile
USER1: /home/dyna/processing-itaca/processing.py /var/www/processing//tmp/rodolfo//IT.MTR..HGE.D.20160824.013632.X.ACC.ASC /var/www/processing//tmp/rodolfo//IT.MTR..HGN.D.20160824.013632.X.ACC.ASC /var/www/processing//tmp/rodolfo//IT.MTR..HGZ.D.20160824.013632.X.ACC.ASC --tmp /var/www/processing//tmp/rodolfo/ --le 0.050 --he 15 --ln 0.050 --hn 15 --lz 0.050 --hz 15 --fo 2 --ca 0 --cz 58.2 --ta 5 --tz 5 --mf 1 --rf 0.020 --tr NT
USER2: 
USER3: 
USER4: 
USER5: 
    0.010000    69.723045
    0.020000    69.969254
    0.022000    73.377823
    0.025000    79.884399
    0.029000    73.066513
    0.030000    71.751045
    0.032000    67.962776
    0.035000    67.061104
    0.036000    67.312027
    0.040000    68.832870
    0.042000    69.760735
    0.044000    70.758194
    0.045000    71.372025
    0.046000    72.079926
    0.048000    73.674171
    0.050000    75.653587
    0.055000    84.084099
    0.060000    91.259209
    0.065000    88.286888
    0.067000   103.918312
    0.070000   127.123711
    0.075000   147.572464
    0.080000   124.927429
    0.085000   120.146408
    0.090000   114.461708
    0.095000   121.349930
    0.100000   161.303345
    0.110000   147.001160
    0.120000   117.664253
    0.130000   126.511200
    0.133000   115.244675
    0.140000   100.057007
    0.150000   119.581032
    0.160000   132.751404
    0.170000   143.852921
    0.180000   139.692047
    0.190000   136.518799
    0.200000   133.857391
    0.220000   140.690018
    0.240000   150.010117
    0.250000   161.506638
    0.260000   163.491074
    0.280000   162.432953
    0.290000   153.668884
    0.300000   147.132492
    0.320000   119.585114
    0.340000   112.006210
    0.350000   114.772606
    0.360000   115.521523
    0.380000   121.633789
    0.400000   127.049355
    0.420000   133.066406
    0.440000   137.680389
    0.450000   137.356339
    0.460000   134.464111
    0.480000   120.278481
    0.500000   119.158417
    0.550000   123.673401
    0.600000   120.568207
    0.650000   152.630020
    0.667000   159.789673
    0.700000   153.144501
    0.750000   126.663429
    0.800000   117.458427
    0.850000   103.941444
    0.900000    87.504082
    0.950000    98.422989
    1.000000    95.423401
    1.100000    61.150154
    1.200000    47.955757
    1.300000    55.236168
    1.400000    66.967537
    1.500000    68.313850
    1.600000    62.993599
    1.700000    52.011181
    1.800000    42.773026
    1.900000    34.803108
    2.000000    31.289623
    2.200000    28.439447
    2.400000    25.953487
    2.500000    26.250948
    2.600000    27.288317
    2.800000    31.805683
    3.000000    32.511257
    3.200000    30.640942
    3.400000    30.039049
    3.500000    28.907461
    3.600000    27.424978
    3.800000    25.222570
    4.000000    22.257753
    4.200000    19.029833
    4.400000    16.390036
    4.600000    14.827870
    4.800000    13.638375
    5.000000    12.307130
    5.500000     8.895702
    6.000000     6.917856
    6.500000     5.405287
    7.000000     4.223155
    7.500000     3.325039
    8.000000     2.651970
    8.500000     2.159004
    9.000000     1.802882
    9.500000     1.539135
   10.000000     1.361935
