EVENT_NAME: CENTRAL_ITALY
EVENT_ID: EMSC-20160824_0000006
EVENT_DATE_YYYYMMDD: 20160824
EVENT_TIME_HHMMSS: 013632
EVENT_LATITUDE_DEGREE: 42.6983
EVENT_LONGITUDE_DEGREE: 13.2335
EVENT_DEPTH_KM: 8.1
HYPOCENTER_REFERENCE: INGV-CNT_Seismic_Bulletin
MAGNITUDE_W: 6.0
MAGNITUDE_W_REFERENCE: INGV-webservice
MAGNITUDE_L: 6.0
MAGNITUDE_L_REFERENCE: INGV-CNT_Seismic_Bulletin
FOCAL_MECHANISM: NF
NETWORK: IT
STATION_CODE: MTR
STATION_NAME: MONTEREALE
STATION_LATITUDE_DEGREE: 42.524021
STATION_LONGITUDE_DEGREE: 13.244796
STATION_ELEVATION_M: 975
LOCATION: 
SENSOR_DEPTH_M: 0.0
VS30_M/S: 
SITE_CLASSIFICATION_EC8: B*
MORPHOLOGIC_CLASSIFICATION: R
EPICENTRAL_DISTANCE_KM: 19.4
EARTHQUAKE_BACKAZIMUTH_DEGREE: 357.3
DATE_TIME_FIRST_SAMPLE_YYYYMMDD_HHMMSS: 20160824_013630.795
DATE_TIME_FIRST_SAMPLE_PRECISION: milliseconds
SAMPLING_INTERVAL_S: 0.020000
NDATA: 2250
DURATION_S: 45.000
STREAM: HGE
UNITS: cm/s^2
INSTRUMENT: sensor = Unknown [Unknown] | digitizer = Unknown [Unknown]
INSTRUMENT_ANALOG/DIGITAL: D
INSTRUMENTAL_FREQUENCY_HZ: 
INSTRUMENTAL_DAMPING: 
FULL_SCALE_G: 
N_BIT_DIGITAL_CONVERTER: 
PGA_CM/S^2: 74.918378
TIME_PGA_S: 10.440000
BASELINE_CORRECTION: BASELINE REMOVED
FILTER_TYPE: BUTTERWORTH
FILTER_ORDER: 2
LOW_CUT_FREQUENCY_HZ: 0.050
HIGH_CUT_FREQUENCY_HZ: 15.000
LATE/NORMAL_TRIGGERED: NT
DATABASE_VERSION: DYNA 1.0
HEADER_FORMAT: DYNA 1.2
DATA_TYPE: ACCELERATION
PROCESSING: manual (Paolucci et al., 2011)
DATA_TIMESTAMP_YYYYMMDD_HHMMSS: 20191119_160111.228
DATA_LICENSE: CC-BY3_0-IT (http://creativecommons.org/licenses/by/3.0/deed.en)
DATA_CITATION: Luzi L, Puglia R, Russo E & ORFEUS WG5 (2016). Engineering Strong Motion Database. Istituto Nazionale di Geofisica e Vulcanologia, Observatories & Research Facilities for European Seismology. doi: 10.13127/ESM
DATA_CREATOR: ESM working group
ORIGINAL_DATA_MEDIATOR_CITATION: Ufficio Rischio Sismico e Vulcanico del Dipartimento della Protezione Civile (http://www.protezionecivile.gov.it/)
ORIGINAL_DATA_MEDIATOR: http://www.mot1.it/randownload/
ORIGINAL_DATA_CREATOR_CITATION: Italian Strong Motion Network, Italian Civil Protection Department http://www.protezionecivile.gov.it
ORIGINAL_DATA_CREATOR: network: IT (Italian Strong Motion Network); owner: Dipartimento Della Protezione Civile
USER1: /home/dyna/processing-itaca/processing.py /var/www/processing//tmp/rodolfo//IT.MTR..HGE.D.20160824.013632.X.ACC.ASC /var/www/processing//tmp/rodolfo//IT.MTR..HGN.D.20160824.013632.X.ACC.ASC /var/www/processing//tmp/rodolfo//IT.MTR..HGZ.D.20160824.013632.X.ACC.ASC --tmp /var/www/processing//tmp/rodolfo/ --le 0.050 --he 15 --ln 0.050 --hn 15 --lz 0.050 --hz 15 --fo 2 --ca 0 --cz 58.2 --ta 5 --tz 5 --mf 1 --rf 0.020 --tr NT
USER2: 
USER3: 
USER4: 
USER5: 
# -------- FOURIER SPECTRA [g] ----------
      0.00000000       0.00008559
      0.01220703       0.00008066
      0.02441406       0.00010701
      0.03662109       0.00008302
      0.04882812       0.00033974
      0.06103516       0.00028651
      0.07324219       0.00049910
      0.08544922       0.00092280
      0.09765625       0.00076661
      0.10986328       0.00090615
      0.12207031       0.00062315
      0.13427734       0.00148353
      0.14648438       0.00230660
      0.15869141       0.00361470
      0.17089844       0.00550875
      0.18310547       0.00625354
      0.19531250       0.00742279
      0.20751953       0.00777048
      0.21972656       0.00653088
      0.23193359       0.00528666
      0.24414062       0.00104038
      0.25634766       0.00866845
      0.26855469       0.01248243
      0.28076172       0.00790574
      0.29296875       0.00341762
      0.30517578       0.00579217
      0.31738281       0.00441705
      0.32958984       0.00462889
      0.34179688       0.01150349
      0.35400391       0.02037274
      0.36621094       0.02596426
      0.37841797       0.02935769
      0.39062500       0.03065284
      0.40283203       0.02652822
      0.41503906       0.02358831
      0.42724609       0.02939061
      0.43945312       0.03153977
      0.45166016       0.02999835
      0.46386719       0.03712721
      0.47607422       0.04087337
      0.48828125       0.03300966
      0.50048828       0.02404799
      0.51269531       0.02518183
      0.52490234       0.03691267
      0.53710938       0.04265783
      0.54931641       0.03428969
      0.56152344       0.02359661
      0.57373047       0.01447588
      0.58593750       0.01709094
      0.59814453       0.02988559
      0.61035156       0.02610928
      0.62255859       0.01539312
      0.63476562       0.01763740
      0.64697266       0.01866421
      0.65917969       0.02487886
      0.67138672       0.02413208
      0.68359375       0.01744660
      0.69580078       0.03065591
      0.70800781       0.03536445
      0.72021484       0.02341170
      0.73242188       0.01814839
      0.74462891       0.01716633
      0.75683594       0.00242333
      0.76904297       0.01736297
      0.78125000       0.02720211
      0.79345703       0.02497905
      0.80566406       0.01095608
      0.81787109       0.01942566
      0.83007812       0.03799425
      0.84228516       0.03901407
      0.85449219       0.03183977
      0.86669922       0.03157100
      0.87890625       0.04823536
      0.89111328       0.07016102
      0.90332031       0.07221686
      0.91552734       0.05915663
      0.92773438       0.05304689
      0.93994141       0.04485207
      0.95214844       0.03043219
      0.96435547       0.02132579
      0.97656250       0.01093711
      0.98876953       0.01013403
      1.00097656       0.01741930
      1.01318359       0.01900132
      1.02539062       0.01380774
      1.03759766       0.00384926
      1.04980469       0.00118656
      1.06201172       0.00692293
      1.07421875       0.01757406
      1.08642578       0.02182863
      1.09863281       0.02490052
      1.11083984       0.02756138
      1.12304688       0.02549458
      1.13525391       0.03133255
      1.14746094       0.03625522
      1.15966797       0.03504777
      1.17187500       0.03496879
      1.18408203       0.03109499
      1.19628906       0.02928966
      1.20849609       0.03446416
      1.22070312       0.03790938
      1.23291016       0.04107919
      1.24511719       0.04235979
      1.25732422       0.03806376
      1.26953125       0.02981564
      1.28173828       0.02648067
      1.29394531       0.02909264
      1.30615234       0.02501269
      1.31835938       0.01485268
      1.33056641       0.01126080
      1.34277344       0.00982046
      1.35498047       0.00943174
      1.36718750       0.01964314
      1.37939453       0.02392859
      1.39160156       0.02185854
      1.40380859       0.02633198
      1.41601562       0.03145628
      1.42822266       0.03223357
      1.44042969       0.03234597
      1.45263672       0.02958315
      1.46484375       0.02586074
      1.47705078       0.02355334
      1.48925781       0.01956698
      1.50146484       0.01458383
      1.51367188       0.00701371
      1.52587891       0.00586376
      1.53808594       0.01360189
      1.55029297       0.01533261
      1.56250000       0.01218201
      1.57470703       0.01088622
      1.58691406       0.01424879
      1.59912109       0.01490324
      1.61132812       0.01765428
      1.62353516       0.02295985
      1.63574219       0.02420093
      1.64794922       0.02402304
      1.66015625       0.02378055
      1.67236328       0.02369988
      1.68457031       0.02488876
      1.69677734       0.02497924
      1.70898438       0.02588486
      1.72119141       0.02495608
      1.73339844       0.02025420
      1.74560547       0.02011483
      1.75781250       0.02391329
      1.77001953       0.02817858
      1.78222656       0.03077251
      1.79443359       0.02741847
      1.80664062       0.02075802
      1.81884766       0.01516525
      1.83105469       0.01210477
      1.84326172       0.01344722
      1.85546875       0.01260464
      1.86767578       0.00743356
      1.87988281       0.00284343
      1.89208984       0.00214026
      1.90429688       0.00469952
      1.91650391       0.00766327
      1.92871094       0.00829663
      1.94091797       0.00743357
      1.95312500       0.00605276
      1.96533203       0.00679129
      1.97753906       0.01359018
      1.98974609       0.01767209
      2.00195312       0.01743194
      2.01416016       0.01955391
      2.02636719       0.02093164
      2.03857422       0.01691317
      2.05078125       0.01290761
      2.06298828       0.01231167
      2.07519531       0.01294767
      2.08740234       0.01218604
      2.09960938       0.00594649
      2.11181641       0.00454690
      2.12402344       0.01421723
      2.13623047       0.01911051
      2.14843750       0.01776020
      2.16064453       0.01452042
      2.17285156       0.01746182
      2.18505859       0.02101400
      2.19726562       0.02123500
      2.20947266       0.01988693
      2.22167969       0.01818679
      2.23388672       0.01864615
      2.24609375       0.01956003
      2.25830078       0.01924619
      2.27050781       0.02050978
      2.28271484       0.02023518
      2.29492188       0.01535852
      2.30712891       0.00977039
      2.31933594       0.00824179
      2.33154297       0.00812321
      2.34375000       0.00616948
      2.35595703       0.00308243
      2.36816406       0.00364745
      2.38037109       0.00354418
      2.39257812       0.00069829
      2.40478516       0.00281308
      2.41699219       0.00505523
      2.42919922       0.00771239
      2.44140625       0.01018296
      2.45361328       0.01072656
      2.46582031       0.00976279
      2.47802734       0.00849786
      2.49023438       0.00729457
      2.50244141       0.00663059
      2.51464844       0.00666703
      2.52685547       0.00645409
      2.53906250       0.00556214
      2.55126953       0.00457519
      2.56347656       0.00373239
      2.57568359       0.00259719
      2.58789062       0.00202885
      2.60009766       0.00458868
      2.61230469       0.00743164
      2.62451172       0.00860238
      2.63671875       0.00977730
      2.64892578       0.01216513
      2.66113281       0.01318944
      2.67333984       0.01223421
      2.68554688       0.01082991
      2.69775391       0.01165202
      2.70996094       0.01405354
      2.72216797       0.01527112
      2.73437500       0.01779401
      2.74658203       0.01998741
      2.75878906       0.01996981
      2.77099609       0.02306682
      2.78320312       0.02555979
      2.79541016       0.02319159
      2.80761719       0.02213097
      2.81982422       0.02369466
      2.83203125       0.02454964
      2.84423828       0.02448633
      2.85644531       0.02239180
      2.86865234       0.02078561
      2.88085938       0.01982314
      2.89306641       0.01682094
      2.90527344       0.01473658
      2.91748047       0.01330241
      2.92968750       0.01025233
      2.94189453       0.00846003
      2.95410156       0.01130872
      2.96630859       0.01459085
      2.97851562       0.01366429
      2.99072266       0.01117617
      3.00292969       0.01033974
      3.01513672       0.00868168
      3.02734375       0.00767893
      3.03955078       0.00884666
      3.05175781       0.01159938
      3.06396484       0.01128172
      3.07617188       0.00629545
      3.08837891       0.00659386
      3.10058594       0.00999434
      3.11279297       0.01276108
      3.12500000       0.01500018
      3.13720703       0.01418469
      3.14941406       0.01305267
      3.16162109       0.01160069
      3.17382812       0.00806451
      3.18603516       0.00764969
      3.19824219       0.00825669
      3.21044922       0.00629015
      3.22265625       0.00466685
      3.23486328       0.00461402
      3.24707031       0.00386429
      3.25927734       0.00427960
      3.27148438       0.00688693
      3.28369141       0.00668255
      3.29589844       0.00325747
      3.30810547       0.00375244
      3.32031250       0.00577892
      3.33251953       0.00555380
      3.34472656       0.00385106
      3.35693359       0.00175087
      3.36914062       0.00281609
      3.38134766       0.00263620
      3.39355469       0.00298830
      3.40576172       0.00714634
      3.41796875       0.00971880
      3.43017578       0.01182049
      3.44238281       0.01556514
      3.45458984       0.01752615
      3.46679688       0.01666360
      3.47900391       0.01656157
      3.49121094       0.01672476
      3.50341797       0.01412324
      3.51562500       0.01001930
      3.52783203       0.00758011
      3.54003906       0.00792024
      3.55224609       0.00881666
      3.56445312       0.00804014
      3.57666016       0.00596135
      3.58886719       0.00459211
      3.60107422       0.00449710
      3.61328125       0.00438216
      3.62548828       0.00508807
      3.63769531       0.00733345
      3.64990234       0.00892097
      3.66210938       0.00884084
      3.67431641       0.00780086
      3.68652344       0.00655662
      3.69873047       0.00574067
      3.71093750       0.00590335
      3.72314453       0.00615488
      3.73535156       0.00602907
      3.74755859       0.00629766
      3.75976562       0.00638651
      3.77197266       0.00469247
      3.78417969       0.00211963
      3.79638672       0.00279334
      3.80859375       0.00212680
      3.82080078       0.00257427
      3.83300781       0.00636732
      3.84521484       0.00766989
      3.85742188       0.00690118
      3.86962891       0.00641420
      3.88183594       0.00512746
      3.89404297       0.00231172
      3.90625000       0.00071806
      3.91845703       0.00031096
      3.93066406       0.00268415
      3.94287109       0.00492999
      3.95507812       0.00581931
      3.96728516       0.00657239
      3.97949219       0.00685510
      3.99169922       0.00538218
      4.00390625       0.00364340
      4.01611328       0.00328837
      4.02832031       0.00235574
      4.04052734       0.00143468
      4.05273438       0.00314060
      4.06494141       0.00444435
      4.07714844       0.00428112
      4.08935547       0.00398495
      4.10156250       0.00422918
      4.11376953       0.00340698
      4.12597656       0.00249362
      4.13818359       0.00210712
      4.15039062       0.00160395
      4.16259766       0.00293843
      4.17480469       0.00367638
      4.18701172       0.00420691
      4.19921875       0.00486187
      4.21142578       0.00454552
      4.22363281       0.00408833
      4.23583984       0.00486029
      4.24804688       0.00652903
      4.26025391       0.00711069
      4.27246094       0.00517919
      4.28466797       0.00316732
      4.29687500       0.00534477
      4.30908203       0.00633418
      4.32128906       0.00467566
      4.33349609       0.00297077
      4.34570312       0.00354601
      4.35791016       0.00356924
      4.37011719       0.00282834
      4.38232422       0.00266841
      4.39453125       0.00349557
      4.40673828       0.00474782
      4.41894531       0.00563691
      4.43115234       0.00547689
      4.44335938       0.00423983
      4.45556641       0.00325046
      4.46777344       0.00359866
      4.47998047       0.00362293
      4.49218750       0.00286926
      4.50439453       0.00294370
      4.51660156       0.00414508
      4.52880859       0.00423063
      4.54101562       0.00316303
      4.55322266       0.00529655
      4.56542969       0.00761688
      4.57763672       0.00763533
      4.58984375       0.00768438
      4.60205078       0.00904218
      4.61425781       0.00953079
      4.62646484       0.00894543
      4.63867188       0.00886959
      4.65087891       0.00866276
      4.66308594       0.00777106
      4.67529297       0.00760186
      4.68750000       0.00803326
      4.69970703       0.01061838
      4.71191406       0.01272188
      4.72412109       0.01184018
      4.73632812       0.01152040
      4.74853516       0.01131795
      4.76074219       0.01007776
      4.77294922       0.01106515
      4.78515625       0.01098560
      4.79736328       0.01023575
      4.80957031       0.01049105
      4.82177734       0.00772635
      4.83398438       0.00363794
      4.84619141       0.00449243
      4.85839844       0.00510575
      4.87060547       0.00431184
      4.88281250       0.00337734
      4.89501953       0.00468583
      4.90722656       0.00551276
      4.91943359       0.00458614
      4.93164062       0.00461457
      4.94384766       0.00517979
      4.95605469       0.00469273
      4.96826172       0.00401821
      4.98046875       0.00349278
      4.99267578       0.00185824
      5.00488281       0.00171555
      5.01708984       0.00440190
      5.02929688       0.00594179
      5.04150391       0.00733114
      5.05371094       0.00832668
      5.06591797       0.00811659
      5.07812500       0.00854210
      5.09033203       0.00901934
      5.10253906       0.00793965
      5.11474609       0.00846689
      5.12695312       0.00973104
      5.13916016       0.00806060
      5.15136719       0.00577109
      5.16357422       0.00527708
      5.17578125       0.00347148
      5.18798828       0.00153856
      5.20019531       0.00128637
      5.21240234       0.00282704
      5.22460938       0.00520959
      5.23681641       0.00627520
      5.24902344       0.00767166
      5.26123047       0.00907580
      5.27343750       0.00930878
      5.28564453       0.00951501
      5.29785156       0.00958787
      5.31005859       0.00935518
      5.32226562       0.00901605
      5.33447266       0.00696842
      5.34667969       0.00376445
      5.35888672       0.00354258
      5.37109375       0.00446153
      5.38330078       0.00508538
      5.39550781       0.00575075
      5.40771484       0.00668296
      5.41992188       0.00843203
      5.43212891       0.00922425
      5.44433594       0.00873428
      5.45654297       0.00923588
      5.46875000       0.01001862
      5.48095703       0.00889359
      5.49316406       0.00676019
      5.50537109       0.00542225
      5.51757812       0.00403129
      5.52978516       0.00158762
      5.54199219       0.00174837
      5.55419922       0.00482491
      5.56640625       0.00580987
      5.57861328       0.00414919
      5.59082031       0.00403728
      5.60302734       0.00590400
      5.61523438       0.00600579
      5.62744141       0.00571016
      5.63964844       0.00530089
      5.65185547       0.00333436
      5.66406250       0.00096794
      5.67626953       0.00142155
      5.68847656       0.00436601
      5.70068359       0.00763771
      5.71289062       0.00861806
      5.72509766       0.00736830
      5.73730469       0.00753226
      5.74951172       0.00850175
      5.76171875       0.00717151
      5.77392578       0.00457163
      5.78613281       0.00257742
      5.79833984       0.00209252
      5.81054688       0.00402534
      5.82275391       0.00472502
      5.83496094       0.00517624
      5.84716797       0.00666801
      5.85937500       0.00641879
      5.87158203       0.00422340
      5.88378906       0.00436787
      5.89599609       0.00654642
      5.90820312       0.00742860
      5.92041016       0.00686654
      5.93261719       0.00610471
      5.94482422       0.00580160
      5.95703125       0.00507077
      5.96923828       0.00303710
      5.98144531       0.00114165
      5.99365234       0.00388746
      6.00585938       0.00488183
      6.01806641       0.00490285
      6.03027344       0.00636797
      6.04248047       0.00669268
      6.05468750       0.00569501
      6.06689453       0.00644096
      6.07910156       0.00719187
      6.09130859       0.00661195
      6.10351562       0.00616442
      6.11572266       0.00572429
      6.12792969       0.00494205
      6.14013672       0.00462061
      6.15234375       0.00351650
      6.16455078       0.00050400
      6.17675781       0.00333141
