EVENT_NAME: CENTRAL_ITALY
EVENT_ID: EMSC-20160824_0000006
EVENT_DATE_YYYYMMDD: 20160824
EVENT_TIME_HHMMSS: 013632
EVENT_LATITUDE_DEGREE: 42.6983
EVENT_LONGITUDE_DEGREE: 13.2335
EVENT_DEPTH_KM: 8.1
HYPOCENTER_REFERENCE: INGV-CNT_Seismic_Bulletin
MAGNITUDE_W: 6.0
MAGNITUDE_W_REFERENCE: INGV-webservice
MAGNITUDE_L: 6.0
MAGNITUDE_L_REFERENCE: INGV-CNT_Seismic_Bulletin
FOCAL_MECHANISM: NF
NETWORK: IT
STATION_CODE: MTR
STATION_NAME: MONTEREALE
STATION_LATITUDE_DEGREE: 42.524021
STATION_LONGITUDE_DEGREE: 13.244796
STATION_ELEVATION_M: 975
LOCATION: 
SENSOR_DEPTH_M: 0.0
VS30_M/S: 
SITE_CLASSIFICATION_EC8: B*
MORPHOLOGIC_CLASSIFICATION: R
EPICENTRAL_DISTANCE_KM: 19.4
EARTHQUAKE_BACKAZIMUTH_DEGREE: 357.3
DATE_TIME_FIRST_SAMPLE_YYYYMMDD_HHMMSS: 20160824_013630.795
DATE_TIME_FIRST_SAMPLE_PRECISION: milliseconds
SAMPLING_INTERVAL_S: 0.020000
NDATA: 105
DURATION_S: 
STREAM: HGZ
UNITS: cm
INSTRUMENT: sensor = Unknown [Unknown] | digitizer = Unknown [Unknown]
INSTRUMENT_ANALOG/DIGITAL: D
INSTRUMENTAL_FREQUENCY_HZ: 
INSTRUMENTAL_DAMPING: 
FULL_SCALE_G: 
N_BIT_DIGITAL_CONVERTER: 
PGD_CM: 2.008317
TIME_PGD_S: 14.340000
BASELINE_CORRECTION: BASELINE REMOVED
FILTER_TYPE: BUTTERWORTH
FILTER_ORDER: 2
LOW_CUT_FREQUENCY_HZ: 0.050
HIGH_CUT_FREQUENCY_HZ: 15.000
LATE/NORMAL_TRIGGERED: NT
DATABASE_VERSION: DYNA 1.0
HEADER_FORMAT: DYNA 1.2
DATA_TYPE: DISPLACEMENT RESPONSE SPECTRUM
PROCESSING: manual (Paolucci et al., 2011)
DATA_TIMESTAMP_YYYYMMDD_HHMMSS: 20191119_160111.228
DATA_LICENSE: CC-BY3_0-IT (http://creativecommons.org/licenses/by/3.0/deed.en)
DATA_CITATION: Luzi L, Puglia R, Russo E & ORFEUS WG5 (2016). Engineering Strong Motion Database. Istituto Nazionale di Geofisica e Vulcanologia, Observatories & Research Facilities for European Seismology. doi: 10.13127/ESM
DATA_CREATOR: ESM working group
ORIGINAL_DATA_MEDIATOR_CITATION: Ufficio Rischio Sismico e Vulcanico del Dipartimento della Protezione Civile (http://www.protezionecivile.gov.it/)
ORIGINAL_DATA_MEDIATOR: http://www.mot1.it/randownload/
ORIGINAL_DATA_CREATOR_CITATION: Italian Strong Motion Network, Italian Civil Protection Department http://www.protezionecivile.gov.it
ORIGINAL_DATA_CREATOR: network: IT (Italian Strong Motion Network); owner: Dipartimento Della Protezione Civile
USER1: /home/dyna/processing-itaca/processing.py /var/www/processing//tmp/rodolfo//IT.MTR..HGE.D.20160824.013632.X.ACC.ASC /var/www/processing//tmp/rodolfo//IT.MTR..HGN.D.20160824.013632.X.ACC.ASC /var/www/processing//tmp/rodolfo//IT.MTR..HGZ.D.20160824.013632.X.ACC.ASC --tmp /var/www/processing//tmp/rodolfo/ --le 0.050 --he 15 --ln 0.050 --hn 15 --lz 0.050 --hz 15 --fo 2 --ca 0 --cz 58.2 --ta 5 --tz 5 --mf 1 --rf 0.020 --tr NT
USER2: 
USER3: 
USER4: 
USER5: 
    0.010000     0.000086
    0.020000     0.000344
    0.022000     0.000434
    0.025000     0.000589
    0.029000     0.000748
    0.030000     0.000793
    0.032000     0.000887
    0.035000     0.001051
    0.036000     0.001112
    0.040000     0.001381
    0.042000     0.001534
    0.044000     0.001706
    0.045000     0.001797
    0.046000     0.001892
    0.048000     0.002095
    0.050000     0.002317
    0.055000     0.002969
    0.060000     0.003675
    0.065000     0.004351
    0.067000     0.004484
    0.070000     0.005534
    0.075000     0.006802
    0.080000     0.009224
    0.085000     0.013770
    0.090000     0.016738
    0.095000     0.018088
    0.100000     0.017764
    0.110000     0.019111
    0.120000     0.024353
    0.130000     0.024603
    0.133000     0.026613
    0.140000     0.029139
    0.150000     0.040419
    0.160000     0.047804
    0.170000     0.050560
    0.180000     0.062399
    0.190000     0.070593
    0.200000     0.080490
    0.220000     0.110715
    0.240000     0.109982
    0.250000     0.120980
    0.260000     0.156682
    0.280000     0.164218
    0.290000     0.177374
    0.300000     0.167190
    0.320000     0.154541
    0.340000     0.170131
    0.350000     0.180024
    0.360000     0.229026
    0.380000     0.303250
    0.400000     0.281390
    0.420000     0.264565
    0.440000     0.320873
    0.450000     0.352250
    0.460000     0.365808
    0.480000     0.362907
    0.500000     0.389473
    0.550000     0.533225
    0.600000     0.766236
    0.650000     0.972202
    0.667000     0.980393
    0.700000     0.870709
    0.750000     0.755173
    0.800000     0.726054
    0.850000     0.834917
    0.900000     1.125510
    0.950000     1.468371
    1.000000     1.749630
    1.100000     2.022302
    1.200000     1.815958
    1.300000     1.596934
    1.400000     1.420331
    1.500000     1.728257
    1.600000     2.589178
    1.700000     3.204660
    1.800000     3.336108
    1.900000     3.577101
    2.000000     3.618850
    2.200000     3.439364
    2.400000     3.656101
    2.500000     4.021207
    2.600000     4.479226
    2.800000     5.280122
    3.000000     5.727094
    3.200000     5.832534
    3.400000     5.959130
    3.500000     5.883955
    3.600000     5.721339
    3.800000     5.212680
    4.000000     4.734877
    4.200000     4.495873
    4.400000     4.199041
    4.600000     3.893841
    4.800000     3.608865
    5.000000     3.362506
    5.500000     2.938881
    6.000000     2.735331
    6.500000     2.659106
    7.000000     2.637669
    7.500000     2.631222
    8.000000     2.622040
    8.500000     2.604738
    9.000000     2.578666
    9.500000     2.545942
   10.000000     2.509118
