EVENT_NAME: CENTRAL_ITALY
EVENT_ID: EMSC-20160824_0000006
EVENT_DATE_YYYYMMDD: 20160824
EVENT_TIME_HHMMSS: 013632
EVENT_LATITUDE_DEGREE: 42.6983
EVENT_LONGITUDE_DEGREE: 13.2335
EVENT_DEPTH_KM: 8.1
HYPOCENTER_REFERENCE: INGV-CNT_Seismic_Bulletin
MAGNITUDE_W: 6.0
MAGNITUDE_W_REFERENCE: INGV-webservice
MAGNITUDE_L: 6.0
MAGNITUDE_L_REFERENCE: INGV-CNT_Seismic_Bulletin
FOCAL_MECHANISM: NF
NETWORK: IT
STATION_CODE: MTR
STATION_NAME: MONTEREALE
STATION_LATITUDE_DEGREE: 42.524021
STATION_LONGITUDE_DEGREE: 13.244796
STATION_ELEVATION_M: 975
LOCATION: 
SENSOR_DEPTH_M: 0.0
VS30_M/S: 
SITE_CLASSIFICATION_EC8: B*
MORPHOLOGIC_CLASSIFICATION: R
EPICENTRAL_DISTANCE_KM: 19.4
EARTHQUAKE_BACKAZIMUTH_DEGREE: 357.3
DATE_TIME_FIRST_SAMPLE_YYYYMMDD_HHMMSS: 20160824_013630.795
DATE_TIME_FIRST_SAMPLE_PRECISION: milliseconds
SAMPLING_INTERVAL_S: 0.020000
NDATA: 105
DURATION_S: 
STREAM: HGN
UNITS: cm/s
INSTRUMENT: sensor = Unknown [Unknown] | digitizer = Unknown [Unknown]
INSTRUMENT_ANALOG/DIGITAL: D
INSTRUMENTAL_FREQUENCY_HZ: 
INSTRUMENTAL_DAMPING: 
FULL_SCALE_G: 
N_BIT_DIGITAL_CONVERTER: 
PGV_CM/S: 8.684011
TIME_PGV_S: 10.160000
BASELINE_CORRECTION: BASELINE REMOVED
FILTER_TYPE: BUTTERWORTH
FILTER_ORDER: 2
LOW_CUT_FREQUENCY_HZ: 0.050
HIGH_CUT_FREQUENCY_HZ: 15.000
LATE/NORMAL_TRIGGERED: NT
DATABASE_VERSION: DYNA 1.0
HEADER_FORMAT: DYNA 1.2
DATA_TYPE: PSEUDO-VELOCITY RESPONSE SPECTRUM
PROCESSING: manual (Paolucci et al., 2011)
DATA_TIMESTAMP_YYYYMMDD_HHMMSS: 20191119_160111.228
DATA_LICENSE: CC-BY3_0-IT (http://creativecommons.org/licenses/by/3.0/deed.en)
DATA_CITATION: Luzi L, Puglia R, Russo E & ORFEUS WG5 (2016). Engineering Strong Motion Database. Istituto Nazionale di Geofisica e Vulcanologia, Observatories & Research Facilities for European Seismology. doi: 10.13127/ESM
DATA_CREATOR: ESM working group
ORIGINAL_DATA_MEDIATOR_CITATION: Ufficio Rischio Sismico e Vulcanico del Dipartimento della Protezione Civile (http://www.protezionecivile.gov.it/)
ORIGINAL_DATA_MEDIATOR: http://www.mot1.it/randownload/
ORIGINAL_DATA_CREATOR_CITATION: Italian Strong Motion Network, Italian Civil Protection Department http://www.protezionecivile.gov.it
ORIGINAL_DATA_CREATOR: network: IT (Italian Strong Motion Network); owner: Dipartimento Della Protezione Civile
USER1: /home/dyna/processing-itaca/processing.py /var/www/processing//tmp/rodolfo//IT.MTR..HGE.D.20160824.013632.X.ACC.ASC /var/www/processing//tmp/rodolfo//IT.MTR..HGN.D.20160824.013632.X.ACC.ASC /var/www/processing//tmp/rodolfo//IT.MTR..HGZ.D.20160824.013632.X.ACC.ASC --tmp /var/www/processing//tmp/rodolfo/ --le 0.050 --he 15 --ln 0.050 --hn 15 --lz 0.050 --hz 15 --fo 2 --ca 0 --cz 58.2 --ta 5 --tz 5 --mf 1 --rf 0.020 --tr NT
USER2: 
USER3: 
USER4: 
USER5: 
    0.010000     0.110978
    0.020000     0.222907
    0.022000     0.257388
    0.025000     0.317348
    0.029000     0.335864
    0.030000     0.341144
    0.032000     0.346238
    0.035000     0.373083
    0.036000     0.385512
    0.040000     0.438009
    0.042000     0.466470
    0.044000     0.496059
    0.045000     0.511410
    0.046000     0.527225
    0.048000     0.561768
    0.050000     0.601031
    0.055000     0.733591
    0.060000     0.870919
    0.065000     0.910688
    0.067000     1.105239
    0.070000     1.428632
    0.075000     1.753217
    0.080000     1.595841
    0.085000     1.637349
    0.090000     1.632675
    0.095000     1.822645
    0.100000     2.536757
    0.110000     2.589407
    0.120000     2.268405
    0.130000     2.609256
    0.133000     2.407181
    0.140000     2.225702
    0.150000     2.853930
    0.160000     3.357847
    0.170000     3.901469
    0.180000     4.008095
    0.190000     4.084654
    0.200000     4.303226
    0.220000     4.885844
    0.240000     5.742973
    0.250000     6.488955
    0.260000     6.837715
    0.280000     7.113284
    0.290000     6.976904
    0.300000     6.953220
    0.320000     6.064175
    0.340000     6.029743
    0.350000     6.329426
    0.360000     6.623562
    0.380000     7.314979
    0.400000     8.024148
    0.420000     8.834785
    0.440000     9.637207
    0.450000     9.740108
    0.460000     9.787946
    0.480000     9.190587
    0.500000     9.435687
    0.550000    10.814864
    0.600000    11.481385
    0.650000    15.763425
    0.667000    16.828285
    0.700000    16.934679
    0.750000    15.019213
    0.800000    14.815138
    0.850000    13.937277
    0.900000    12.437422
    0.950000    14.827758
    1.000000    15.131989
    1.100000    10.650013
    1.200000     9.105310
    1.300000    11.373828
    1.400000    14.862847
    1.500000    16.232393
    1.600000    15.959087
    1.700000    13.987780
    1.800000    12.191386
    1.900000    10.464481
    2.000000     9.899934
    2.200000     9.902521
    2.400000     9.867610
    2.500000    10.387650
    2.600000    11.240099
    2.800000    14.058585
    3.000000    15.427970
    3.200000    15.513798
    3.400000    16.158802
    3.500000    15.995434
    3.600000    15.571157
    3.800000    15.150782
    4.000000    14.071621
    4.200000    12.681115
    4.400000    11.434208
    4.600000    10.765429
    4.800000    10.311410
    5.000000     9.667581
    5.500000     7.660604
    6.000000     6.434990
    6.500000     5.398648
    7.000000     4.500256
    7.500000     3.758022
    8.000000     3.161444
    8.500000     2.690723
    9.000000     2.323857
    9.500000     2.090119
   10.000000     1.929483
