EVENT_NAME: CENTRAL_ITALY
EVENT_ID: EMSC-20160824_0000006
EVENT_DATE_YYYYMMDD: 20160824
EVENT_TIME_HHMMSS: 013632
EVENT_LATITUDE_DEGREE: 42.6983
EVENT_LONGITUDE_DEGREE: 13.2335
EVENT_DEPTH_KM: 8.1
HYPOCENTER_REFERENCE: INGV-CNT_Seismic_Bulletin
MAGNITUDE_W: 6.0
MAGNITUDE_W_REFERENCE: INGV-webservice
MAGNITUDE_L: 6.0
MAGNITUDE_L_REFERENCE: INGV-CNT_Seismic_Bulletin
FOCAL_MECHANISM: NF
NETWORK: IT
STATION_CODE: MTR
STATION_NAME: MONTEREALE
STATION_LATITUDE_DEGREE: 42.524021
STATION_LONGITUDE_DEGREE: 13.244796
STATION_ELEVATION_M: 975
LOCATION: 
SENSOR_DEPTH_M: 0.0
VS30_M/S: 
SITE_CLASSIFICATION_EC8: B*
MORPHOLOGIC_CLASSIFICATION: R
EPICENTRAL_DISTANCE_KM: 19.4
EARTHQUAKE_BACKAZIMUTH_DEGREE: 357.3
DATE_TIME_FIRST_SAMPLE_YYYYMMDD_HHMMSS: 20160824_013630.795
DATE_TIME_FIRST_SAMPLE_PRECISION: milliseconds
SAMPLING_INTERVAL_S: 0.020000
NDATA: 105
DURATION_S: 
STREAM: HGZ
UNITS: cm/s
INSTRUMENT: sensor = Unknown [Unknown] | digitizer = Unknown [Unknown]
INSTRUMENT_ANALOG/DIGITAL: D
INSTRUMENTAL_FREQUENCY_HZ: 
INSTRUMENTAL_DAMPING: 
FULL_SCALE_G: 
N_BIT_DIGITAL_CONVERTER: 
PGV_CM/S: 6.643900
TIME_PGV_S: 14.040000
BASELINE_CORRECTION: BASELINE REMOVED
FILTER_TYPE: BUTTERWORTH
FILTER_ORDER: 2
LOW_CUT_FREQUENCY_HZ: 0.050
HIGH_CUT_FREQUENCY_HZ: 15.000
LATE/NORMAL_TRIGGERED: NT
DATABASE_VERSION: DYNA 1.0
HEADER_FORMAT: DYNA 1.2
DATA_TYPE: PSEUDO-VELOCITY RESPONSE SPECTRUM
PROCESSING: manual (Paolucci et al., 2011)
DATA_TIMESTAMP_YYYYMMDD_HHMMSS: 20191119_160111.228
DATA_LICENSE: CC-BY3_0-IT (http://creativecommons.org/licenses/by/3.0/deed.en)
DATA_CITATION: Luzi L, Puglia R, Russo E & ORFEUS WG5 (2016). Engineering Strong Motion Database. Istituto Nazionale di Geofisica e Vulcanologia, Observatories & Research Facilities for European Seismology. doi: 10.13127/ESM
DATA_CREATOR: ESM working group
ORIGINAL_DATA_MEDIATOR_CITATION: Ufficio Rischio Sismico e Vulcanico del Dipartimento della Protezione Civile (http://www.protezionecivile.gov.it/)
ORIGINAL_DATA_MEDIATOR: http://www.mot1.it/randownload/
ORIGINAL_DATA_CREATOR_CITATION: Italian Strong Motion Network, Italian Civil Protection Department http://www.protezionecivile.gov.it
ORIGINAL_DATA_CREATOR: network: IT (Italian Strong Motion Network); owner: Dipartimento Della Protezione Civile
USER1: /home/dyna/processing-itaca/processing.py /var/www/processing//tmp/rodolfo//IT.MTR..HGE.D.20160824.013632.X.ACC.ASC /var/www/processing//tmp/rodolfo//IT.MTR..HGN.D.20160824.013632.X.ACC.ASC /var/www/processing//tmp/rodolfo//IT.MTR..HGZ.D.20160824.013632.X.ACC.ASC --tmp /var/www/processing//tmp/rodolfo/ --le 0.050 --he 15 --ln 0.050 --hn 15 --lz 0.050 --hz 15 --fo 2 --ca 0 --cz 58.2 --ta 5 --tz 5 --mf 1 --rf 0.020 --tr NT
USER2: 
USER3: 
USER4: 
USER5: 
    0.010000     0.053947
    0.020000     0.108155
    0.022000     0.123872
    0.025000     0.148119
    0.029000     0.162145
    0.030000     0.166035
    0.032000     0.174115
    0.035000     0.188712
    0.036000     0.194053
    0.040000     0.216997
    0.042000     0.229511
    0.044000     0.243626
    0.045000     0.250941
    0.046000     0.258450
    0.048000     0.274176
    0.050000     0.291182
    0.055000     0.339165
    0.060000     0.384818
    0.065000     0.420544
    0.067000     0.420501
    0.070000     0.496762
    0.075000     0.569847
    0.080000     0.724490
    0.085000     1.017904
    0.090000     1.168512
    0.095000     1.196306
    0.100000     1.116133
    0.110000     1.091645
    0.120000     1.275141
    0.130000     1.189141
    0.133000     1.257256
    0.140000     1.307767
    0.150000     1.693078
    0.160000     1.877264
    0.170000     1.868686
    0.180000     2.178129
    0.190000     2.334484
    0.200000     2.528653
    0.220000     3.162006
    0.240000     2.879320
    0.250000     3.040564
    0.260000     3.786400
    0.280000     3.685050
    0.290000     3.843002
    0.300000     3.501615
    0.320000     3.034411
    0.340000     3.144009
    0.350000     3.231786
    0.360000     3.997255
    0.380000     5.014152
    0.400000     4.420056
    0.420000     3.957877
    0.440000     4.582054
    0.450000     4.918333
    0.460000     4.996608
    0.480000     4.750446
    0.500000     4.894261
    0.550000     6.091549
    0.600000     8.024001
    0.650000     9.397736
    0.667000     9.235369
    0.700000     7.815467
    0.750000     6.326522
    0.800000     5.702418
    0.850000     6.171694
    0.900000     7.857543
    0.950000     9.711631
    1.000000    10.993249
    1.100000    11.551360
    1.200000     9.508335
    1.300000     7.718334
    1.400000     6.374431
    1.500000     7.239306
    1.600000    10.167679
    1.700000    11.844397
    1.800000    11.645214
    1.900000    11.829259
    2.000000    11.368954
    2.200000     9.822801
    2.400000     9.571649
    2.500000    10.106397
    2.600000    10.824540
    2.800000    11.848567
    3.000000    11.994797
    3.200000    11.452153
    3.400000    11.012446
    3.500000    10.562850
    3.600000     9.985620
    3.800000     8.619009
    4.000000     7.437527
    4.200000     6.725811
    4.400000     5.996216
    4.600000     5.318635
    4.800000     4.723993
    5.000000     4.225450
    5.500000     3.357370
    6.000000     2.864432
    6.500000     2.570408
    7.000000     2.367566
    7.500000     2.204327
    8.000000     2.059346
    8.500000     1.925418
    9.000000     1.800249
    9.500000     1.683855
   10.000000     1.576525
