EVENT_NAME: CENTRAL_ITALY
EVENT_ID: EMSC-20160824_0000006
EVENT_DATE_YYYYMMDD: 20160824
EVENT_TIME_HHMMSS: 013632
EVENT_LATITUDE_DEGREE: 42.6983
EVENT_LONGITUDE_DEGREE: 13.2335
EVENT_DEPTH_KM: 8.1
HYPOCENTER_REFERENCE: INGV-CNT_Seismic_Bulletin
MAGNITUDE_W: 6.0
MAGNITUDE_W_REFERENCE: INGV-webservice
MAGNITUDE_L: 6.0
MAGNITUDE_L_REFERENCE: INGV-CNT_Seismic_Bulletin
FOCAL_MECHANISM: NF
NETWORK: IT
STATION_CODE: MTR
STATION_NAME: MONTEREALE
STATION_LATITUDE_DEGREE: 42.524021
STATION_LONGITUDE_DEGREE: 13.244796
STATION_ELEVATION_M: 975
LOCATION: 
SENSOR_DEPTH_M: 0.0
VS30_M/S: 
SITE_CLASSIFICATION_EC8: B*
MORPHOLOGIC_CLASSIFICATION: R
EPICENTRAL_DISTANCE_KM: 19.4
EARTHQUAKE_BACKAZIMUTH_DEGREE: 357.3
DATE_TIME_FIRST_SAMPLE_YYYYMMDD_HHMMSS: 20160824_013630.795
DATE_TIME_FIRST_SAMPLE_PRECISION: milliseconds
SAMPLING_INTERVAL_S: 0.020000
NDATA: 2250
DURATION_S: 45.000
STREAM: HGE
UNITS: cm
INSTRUMENT: sensor = Unknown [Unknown] | digitizer = Unknown [Unknown]
INSTRUMENT_ANALOG/DIGITAL: D
INSTRUMENTAL_FREQUENCY_HZ: 
INSTRUMENTAL_DAMPING: 
FULL_SCALE_G: 
N_BIT_DIGITAL_CONVERTER: 
PGD_CM: -2.942301
TIME_PGD_S: 10.540000
BASELINE_CORRECTION: BASELINE REMOVED
FILTER_TYPE: BUTTERWORTH
FILTER_ORDER: 2
LOW_CUT_FREQUENCY_HZ: 0.050
HIGH_CUT_FREQUENCY_HZ: 15.000
LATE/NORMAL_TRIGGERED: NT
DATABASE_VERSION: DYNA 1.0
HEADER_FORMAT: DYNA 1.2
DATA_TYPE: DISPLACEMENT
PROCESSING: manual (Paolucci et al., 2011)
DATA_TIMESTAMP_YYYYMMDD_HHMMSS: 20191119_160111.228
DATA_LICENSE: CC-BY3_0-IT (http://creativecommons.org/licenses/by/3.0/deed.en)
DATA_CITATION: Luzi L, Puglia R, Russo E & ORFEUS WG5 (2016). Engineering Strong Motion Database. Istituto Nazionale di Geofisica e Vulcanologia, Observatories & Research Facilities for European Seismology. doi: 10.13127/ESM
DATA_CREATOR: ESM working group
ORIGINAL_DATA_MEDIATOR_CITATION: Ufficio Rischio Sismico e Vulcanico del Dipartimento della Protezione Civile (http://www.protezionecivile.gov.it/)
ORIGINAL_DATA_MEDIATOR: http://www.mot1.it/randownload/
ORIGINAL_DATA_CREATOR_CITATION: Italian Strong Motion Network, Italian Civil Protection Department http://www.protezionecivile.gov.it
ORIGINAL_DATA_CREATOR: network: IT (Italian Strong Motion Network); owner: Dipartimento Della Protezione Civile
USER1: /home/dyna/processing-itaca/processing.py /var/www/processing//tmp/rodolfo//IT.MTR..HGE.D.20160824.013632.X.ACC.ASC /var/www/processing//tmp/rodolfo//IT.MTR..HGN.D.20160824.013632.X.ACC.ASC /var/www/processing//tmp/rodolfo//IT.MTR..HGZ.D.20160824.013632.X.ACC.ASC --tmp /var/www/processing//tmp/rodolfo/ --le 0.050 --he 15 --ln 0.050 --hn 15 --lz 0.050 --hz 15 --fo 2 --ca 0 --cz 58.2 --ta 5 --tz 5 --mf 1 --rf 0.020 --tr NT
USER2: 
USER3: 
USER4: 
USER5: 
0.000000e+00
7.895768e-07
3.155270e-06
7.091618e-06
1.259199e-05
1.964864e-05
2.825275e-05
3.839455e-05
5.006337e-05
6.324777e-05
7.793561e-05
9.411425e-05
1.117706e-04
1.308913e-04
1.514630e-04
1.734721e-04
1.969058e-04
2.217513e-04
2.479966e-04
2.756304e-04
3.046423e-04
3.350236e-04
3.667670e-04
3.998666e-04
4.343186e-04
4.701212e-04
5.072750e-04
5.457824e-04
5.856492e-04
6.268837e-04
6.694938e-04
7.134907e-04
7.588933e-04
8.057242e-04
8.540077e-04
9.037704e-04
9.550426e-04
1.007862e-03
1.062269e-03
1.118295e-03
1.175983e-03
1.235386e-03
1.296545e-03
1.359522e-03
1.424415e-03
1.491293e-03
1.560195e-03
1.631198e-03
1.704378e-03
1.779789e-03
1.857520e-03
1.937687e-03
2.020363e-03
2.105608e-03
2.193534e-03
2.284279e-03
2.377972e-03
2.474774e-03
2.574810e-03
2.678107e-03
2.784716e-03
2.894769e-03
3.008429e-03
3.125875e-03
3.247204e-03
3.372370e-03
3.501375e-03
3.634356e-03
3.771406e-03
3.912591e-03
4.058159e-03
4.208351e-03
4.363078e-03
4.522186e-03
4.685700e-03
4.853502e-03
5.025418e-03
5.201593e-03
5.382118e-03
5.566812e-03
5.755651e-03
5.948653e-03
6.145676e-03
6.346827e-03
6.552225e-03
6.761589e-03
6.974790e-03
7.191973e-03
7.412987e-03
7.637676e-03
7.866122e-03
8.098135e-03
8.333252e-03
8.571040e-03
8.811239e-03
9.054114e-03
9.300109e-03
9.549054e-03
9.800403e-03
1.005377e-02
1.030878e-02
1.056501e-02
1.082215e-02
1.107988e-02
1.133766e-02
1.159532e-02
1.185319e-02
1.211096e-02
1.236763e-02
1.262275e-02
1.287622e-02
1.312767e-02
1.337663e-02
1.362519e-02
1.387556e-02
1.412788e-02
1.438257e-02
1.463968e-02
1.489908e-02
1.516080e-02
1.542497e-02
1.569176e-02
1.596146e-02
1.623418e-02
1.650939e-02
1.678652e-02
1.706581e-02
1.734775e-02
1.763222e-02
1.791889e-02
1.820764e-02
1.849879e-02
1.879301e-02
1.909053e-02
1.939096e-02
1.969429e-02
2.000066e-02
2.030957e-02
2.062081e-02
2.093509e-02
2.125290e-02
2.157374e-02
2.189717e-02
2.222337e-02
2.255277e-02
2.288577e-02
2.322230e-02
2.356181e-02
2.390407e-02
2.424923e-02
2.459734e-02
2.494848e-02
2.530317e-02
2.566183e-02
2.602426e-02
2.639006e-02
2.675941e-02
2.713243e-02
2.750875e-02
2.788807e-02
2.826990e-02
2.865392e-02
2.904111e-02
2.943247e-02
2.982711e-02
3.022392e-02
3.062314e-02
3.102518e-02
3.143013e-02
3.183824e-02
3.224967e-02
3.266406e-02
3.308100e-02
3.350047e-02
3.392271e-02
3.434795e-02
3.477630e-02
3.520764e-02
3.564218e-02
3.608009e-02
3.652093e-02
3.696477e-02
3.741257e-02
3.786432e-02
3.831913e-02
3.877695e-02
3.923792e-02
3.970173e-02
4.016877e-02
4.064001e-02
4.111562e-02
4.159512e-02
4.207799e-02
4.256391e-02
4.305304e-02
4.354622e-02
4.404391e-02
4.454537e-02
4.504996e-02
4.555820e-02
4.607037e-02
4.658593e-02
4.710471e-02
4.762714e-02
4.815378e-02
4.868507e-02
4.922071e-02
4.976014e-02
5.030359e-02
5.085139e-02
5.140313e-02
5.195857e-02
5.251814e-02
5.308201e-02
5.364996e-02
5.422196e-02
5.479826e-02
5.537876e-02
5.596294e-02
5.655073e-02
5.714266e-02
5.773892e-02
5.833897e-02
5.894240e-02
5.954955e-02
6.016090e-02
6.077654e-02
6.139646e-02
6.202086e-02
6.264962e-02
6.328244e-02
6.391947e-02
6.456120e-02
6.520771e-02
6.585878e-02
6.651428e-02
6.717419e-02
6.783857e-02
6.850777e-02
6.918184e-02
6.986022e-02
7.054273e-02
7.122999e-02
7.192225e-02
7.261902e-02
7.332009e-02
7.402564e-02
7.473556e-02
7.544995e-02
7.616938e-02
7.689381e-02
7.762270e-02
7.835599e-02
7.909415e-02
7.983749e-02
8.058606e-02
8.133988e-02
8.209905e-02
8.286320e-02
8.363180e-02
8.440497e-02
8.518281e-02
8.596488e-02
8.675110e-02
8.754182e-02
8.833698e-02
8.913663e-02
8.994118e-02
9.075067e-02
9.156483e-02
9.238359e-02
9.320695e-02
9.403461e-02
9.486629e-02
9.570212e-02
9.654253e-02
9.738770e-02
9.823757e-02
9.909216e-02
9.995156e-02
1.008157e-01
1.016847e-01
1.025589e-01
1.034382e-01
1.043223e-01
1.052112e-01
1.061060e-01
1.070062e-01
1.079110e-01
1.088206e-01
1.097349e-01
1.106534e-01
1.115776e-01
1.125111e-01
1.134544e-01
1.143996e-01
1.153396e-01
1.162851e-01
1.172543e-01
1.182391e-01
1.192078e-01
1.201567e-01
1.211268e-01
1.221480e-01
1.231797e-01
1.241512e-01
1.250918e-01
1.261255e-01
1.272494e-01
1.282897e-01
1.292059e-01
1.301817e-01
1.313001e-01
1.324361e-01
1.335030e-01
1.345275e-01
1.355560e-01
1.366329e-01
1.377677e-01
1.389337e-01
1.401124e-01
1.412375e-01
1.422773e-01
1.434013e-01
1.446916e-01
1.459149e-01
1.470333e-01
1.483552e-01
1.498213e-01
1.510275e-01
1.520886e-01
1.534560e-01
1.550367e-01
1.565061e-01
1.579904e-01
1.595980e-01
1.611386e-01
1.626866e-01
1.644052e-01
1.661561e-01
1.679353e-01
1.697964e-01
1.715636e-01
1.734063e-01
1.755898e-01
1.776751e-01
1.794621e-01
1.816246e-01
1.841811e-01
1.863072e-01
1.881325e-01
1.903543e-01
1.926630e-01
1.948208e-01
1.975871e-01
2.008689e-01
2.035017e-01
2.054332e-01
2.073789e-01
2.094795e-01
2.123100e-01
2.162535e-01
2.195628e-01
2.208963e-01
2.219873e-01
2.245483e-01
2.278567e-01
2.310040e-01
2.339855e-01
2.366120e-01
2.386843e-01
2.404125e-01
2.423953e-01
2.457313e-01
2.504270e-01
2.541423e-01
2.553874e-01
2.562419e-01
2.586766e-01
2.612661e-01
2.627104e-01
2.643741e-01
2.668973e-01
2.689837e-01
2.703623e-01
2.719882e-01
2.740909e-01
2.760852e-01
2.776457e-01
2.799168e-01
2.842502e-01
2.887815e-01
2.908493e-01
2.926556e-01
2.977833e-01
3.049674e-01
3.115462e-01
3.175115e-01
3.231401e-01
3.288530e-01
3.359887e-01
3.437897e-01
3.505962e-01
3.580011e-01
3.678392e-01
3.782839e-01
3.873726e-01
3.962643e-01
4.068202e-01
4.189921e-01
4.315232e-01
4.434882e-01
4.545514e-01
4.652184e-01
4.768333e-01
4.896350e-01
5.020020e-01
5.128352e-01
5.228162e-01
5.331058e-01
5.439339e-01
5.539756e-01
5.620152e-01
5.701125e-01
5.816514e-01
5.949369e-01
6.049401e-01
6.127155e-01
6.240715e-01
6.390168e-01
6.529803e-01
6.649105e-01
6.755096e-01
6.846155e-01
6.936900e-01
7.031409e-01
7.102126e-01
7.147992e-01
7.208704e-01
7.299285e-01
7.389101e-01
7.451466e-01
7.494247e-01
7.535177e-01
7.578295e-01
7.624163e-01
7.675878e-01
7.735386e-01
7.809370e-01
7.900445e-01
7.999291e-01
8.109482e-01
8.244965e-01
8.389487e-01
8.511504e-01
8.612629e-01
8.713232e-01
8.822350e-01
8.951773e-01
9.108231e-01
9.266209e-01
9.403984e-01
9.538315e-01
9.673955e-01
9.779876e-01
9.848950e-01
9.906930e-01
9.966134e-01
1.003154e+00
1.010398e+00
1.016324e+00
1.021863e+00
1.031519e+00
1.043747e+00
1.052591e+00
1.058727e+00
1.066177e+00
1.073408e+00
1.078168e+00
1.083616e+00
1.091621e+00
1.098622e+00
1.103753e+00
1.109876e+00
1.114773e+00
1.113553e+00
1.106476e+00
1.096515e+00
1.085979e+00
1.075756e+00
1.063008e+00
1.045531e+00
1.026882e+00
1.008517e+00
9.838441e-01
9.483401e-01
9.063508e-01
8.616628e-01
8.118005e-01
7.548728e-01
6.910153e-01
6.189295e-01
5.401296e-01
4.586290e-01
3.719183e-01
2.727913e-01
1.592854e-01
3.507301e-02
-9.634542e-02
-2.349403e-01
-3.835473e-01
-5.436802e-01
-7.151195e-01
-9.004291e-01
-1.102758e+00
-1.319635e+00
-1.545011e+00
-1.773456e+00
-1.998023e+00
-2.208939e+00
-2.397023e+00
-2.556528e+00
-2.686065e+00
-2.787450e+00
-2.861964e+00
-2.910083e+00
-2.935227e+00
-2.942301e+00
-2.933087e+00
-2.907901e+00
-2.868360e+00
-2.814519e+00
-2.745017e+00
-2.663168e+00
-2.574720e+00
-2.478107e+00
-2.367559e+00
-2.244048e+00
-2.112284e+00
-1.973878e+00
-1.832184e+00
-1.694111e+00
-1.564014e+00
-1.444461e+00
-1.338311e+00
-1.243106e+00
-1.152393e+00
-1.066294e+00
-9.910856e-01
-9.285067e-01
-8.750591e-01
-8.298441e-01
-7.936770e-01
-7.613283e-01
-7.238762e-01
-6.790073e-01
-6.299417e-01
-5.778612e-01
-5.262676e-01
-4.829020e-01
-4.476647e-01
-4.135264e-01
-3.812500e-01
-3.553190e-01
-3.308343e-01
-2.991728e-01
-2.592632e-01
-2.175580e-01
-1.820827e-01
-1.553828e-01
-1.319756e-01
-1.040982e-01
-6.851673e-02
-2.873025e-02
9.587869e-03
4.568143e-02
8.123287e-02
1.145555e-01
1.437199e-01
1.666492e-01
1.767966e-01
1.698352e-01
1.491785e-01
1.181856e-01
7.783415e-02
3.241377e-02
-1.390992e-02
-6.129734e-02
-1.079427e-01
-1.481326e-01
-1.792330e-01
-2.035330e-01
-2.233546e-01
-2.374479e-01
-2.435015e-01
-2.422515e-01
-2.343584e-01
-2.209179e-01
-2.122725e-01
-2.210598e-01
-2.469673e-01
-2.838331e-01
-3.303198e-01
-3.836264e-01
-4.395075e-01
-4.987352e-01
-5.607536e-01
-6.204814e-01
-6.762119e-01
-7.285389e-01
-7.751791e-01
-8.165658e-01
-8.583702e-01
-9.015374e-01
-9.380324e-01
-9.629010e-01
-9.827861e-01
-1.005042e+00
-1.027939e+00
-1.048752e+00
-1.069788e+00
-1.093279e+00
-1.121206e+00
-1.156515e+00
-1.198250e+00
-1.243884e+00
-1.294848e+00
-1.350240e+00
-1.403628e+00
-1.453540e+00
-1.506383e+00
-1.565363e+00
-1.626333e+00
-1.685488e+00
-1.742293e+00
-1.794235e+00
-1.836926e+00
-1.870313e+00
-1.897425e+00
-1.916473e+00
-1.920435e+00
-1.905454e+00
-1.875663e+00
-1.836911e+00
-1.787989e+00
-1.723558e+00
-1.643162e+00
-1.549270e+00
-1.440624e+00
-1.316745e+00
-1.182976e+00
-1.043352e+00
-8.968399e-01
-7.453993e-01
-5.958931e-01
-4.524208e-01
-3.144693e-01
-1.802767e-01
-4.793113e-02
8.287003e-02
2.101232e-01
3.333243e-01
4.544472e-01
5.735266e-01
6.879900e-01
7.976254e-01
9.052683e-01
1.011104e+00
1.111385e+00
1.203779e+00
1.288706e+00
1.364766e+00
1.428438e+00
1.480475e+00
1.526145e+00
1.566091e+00
1.597077e+00
1.622217e+00
1.646009e+00
1.664404e+00
1.674309e+00
1.681651e+00
1.689905e+00
1.694748e+00
1.694777e+00
1.693499e+00
1.689268e+00
1.675920e+00
1.653343e+00
1.626127e+00
1.594505e+00
1.557412e+00
1.518639e+00
1.481551e+00
1.446056e+00
1.413752e+00
1.387621e+00
1.369435e+00
1.361648e+00
1.364536e+00
1.372631e+00
1.381478e+00
1.392778e+00
1.408615e+00
1.427742e+00
1.448992e+00
1.471636e+00
1.492233e+00
1.506359e+00
1.512620e+00
1.511577e+00
1.503293e+00
1.486979e+00
1.459881e+00
1.419342e+00
1.367510e+00
1.307828e+00
1.238452e+00
1.155614e+00
1.059675e+00
9.544720e-01
8.439907e-01
7.295068e-01
6.099406e-01
4.859282e-01
3.593513e-01
2.299689e-01
9.841526e-02
-3.166378e-02
-1.584425e-01
-2.832520e-01
-4.065277e-01
-5.265179e-01
-6.409415e-01
-7.484807e-01
-8.480052e-01
-9.368559e-01
-1.014118e+00
-1.083944e+00
-1.149763e+00
-1.209555e+00
-1.261836e+00
-1.308916e+00
-1.350676e+00
-1.383763e+00
-1.408337e+00
-1.427093e+00
-1.439298e+00
-1.444070e+00
-1.444198e+00
-1.439273e+00
-1.424131e+00
-1.399051e+00
-1.369972e+00
-1.338204e+00
-1.301847e+00
-1.263122e+00
-1.224593e+00
-1.185136e+00
-1.145417e+00
-1.108942e+00
-1.075132e+00
-1.040019e+00
-1.003651e+00
-9.680239e-01
-9.304590e-01
-8.873319e-01
-8.396708e-01
-7.894371e-01
-7.364082e-01
-6.812664e-01
-6.257788e-01
-5.696442e-01
-5.116886e-01
-4.528893e-01
-3.951163e-01
-3.396309e-01
-2.885483e-01
-2.435599e-01
-2.036291e-01
-1.684975e-01
-1.405317e-01
-1.197810e-01
-1.041700e-01
-9.488667e-02
-9.396482e-02
-1.000480e-01
-1.120529e-01
-1.310457e-01
-1.567426e-01
-1.874383e-01
-2.211415e-01
-2.542815e-01
-2.836271e-01
-3.093612e-01
-3.330978e-01
-3.550714e-01
-3.751925e-01
-3.950382e-01
-4.167771e-01
-4.397874e-01
-4.610454e-01
-4.795663e-01
-4.963243e-01
-5.106375e-01
-5.213459e-01
-5.288446e-01
-5.327228e-01
-5.310544e-01
-5.230285e-01
-5.092579e-01
-4.898090e-01
-4.635892e-01
-4.297913e-01
-3.897342e-01
-3.461870e-01
-3.005122e-01
-2.523854e-01
-2.024826e-01
-1.530625e-01
-1.057038e-01
-5.992122e-02
-1.400199e-02
3.298745e-02
8.009707e-02
1.255161e-01
1.671174e-01
2.018681e-01
2.281567e-01
2.482187e-01
2.640225e-01
2.738975e-01
2.774248e-01
2.773901e-01
2.746867e-01
2.689978e-01
2.633006e-01
2.617488e-01
2.661236e-01
2.752560e-01
2.854395e-01
2.941187e-01
3.028195e-01
3.136419e-01
3.255041e-01
3.348132e-01
3.382519e-01
3.358090e-01
3.303260e-01
3.237088e-01
3.161078e-01
3.074540e-01
2.972512e-01
2.844211e-01
2.675937e-01
2.449631e-01
2.157907e-01
1.819177e-01
1.466874e-01
1.132129e-01
8.270092e-02
5.333468e-02
2.182948e-02
-1.407962e-02
-5.457246e-02
-9.804890e-02
-1.427837e-01
-1.872396e-01
-2.285421e-01
-2.641947e-01
-2.949489e-01
-3.228702e-01
-3.486203e-01
-3.718545e-01
-3.921005e-01
-4.096924e-01
-4.254900e-01
-4.385212e-01
-4.472160e-01
-4.536757e-01
-4.620884e-01
-4.731478e-01
-4.845811e-01
-4.962395e-01
-5.096534e-01
-5.234358e-01
-5.349688e-01
-5.453134e-01
-5.566645e-01
-5.681305e-01
-5.782008e-01
-5.864130e-01
-5.916216e-01
-5.937558e-01
-5.948831e-01
-5.952000e-01
-5.924071e-01
-5.861576e-01
-5.789681e-01
-5.731311e-01
-5.689625e-01
-5.651197e-01
-5.603053e-01
-5.551693e-01
-5.519733e-01
-5.528266e-01
-5.578493e-01
-5.636667e-01
-5.661854e-01
-5.656093e-01
-5.641086e-01
-5.598998e-01
-5.493840e-01
-5.324455e-01
-5.106614e-01
-4.832459e-01
-4.487667e-01
-4.084726e-01
-3.645335e-01
-3.172493e-01
-2.670072e-01
-2.157702e-01
-1.635212e-01
-1.072321e-01
-4.596782e-02
1.730210e-02
7.986231e-02
1.405144e-01
1.977500e-01
2.511757e-01
3.024123e-01
3.517747e-01
3.975145e-01
4.392312e-01
4.780164e-01
5.134334e-01
5.440981e-01
5.709056e-01
5.970562e-01
6.251225e-01
6.548697e-01
6.830301e-01
7.057807e-01
7.225424e-01
7.353191e-01
7.443962e-01
7.491209e-01
7.516577e-01
7.541655e-01
7.545898e-01
7.507674e-01
7.452630e-01
7.409678e-01
7.357994e-01
7.267633e-01
7.150199e-01
7.025667e-01
6.888154e-01
6.731976e-01
6.560383e-01
6.367811e-01
6.159500e-01
5.967783e-01
5.816992e-01
5.693938e-01
5.566670e-01
5.426638e-01
5.303853e-01
5.229911e-01
5.208596e-01
5.233450e-01
5.298565e-01
5.398433e-01
5.545092e-01
5.759254e-01
6.033125e-01
6.331792e-01
6.633738e-01
6.944612e-01
7.266501e-01
7.582427e-01
7.884362e-01
8.185604e-01
8.491666e-01
8.786932e-01
9.057243e-01
9.300531e-01
9.515552e-01
9.704782e-01
9.877425e-01
1.002691e+00
1.013238e+00
1.019567e+00
1.023450e+00
1.024137e+00
1.019542e+00
1.009849e+00
9.965338e-01
9.802457e-01
9.610462e-01
9.384743e-01
9.118198e-01
8.815164e-01
8.484923e-01
8.123856e-01
7.727185e-01
7.303001e-01
6.856140e-01
6.384383e-01
5.899045e-01
5.420878e-01
4.960657e-01
4.522450e-01
4.107642e-01
3.709475e-01
3.319757e-01
2.935452e-01
2.556949e-01
2.189754e-01
1.841641e-01
1.513568e-01
1.192477e-01
8.563392e-02
5.018757e-02
1.540050e-02
-1.677510e-02
-4.628264e-02
-7.294016e-02
-9.631136e-02
-1.165218e-01
-1.338262e-01
-1.483543e-01
-1.601828e-01
-1.698180e-01
-1.782296e-01
-1.853734e-01
-1.906148e-01
-1.952180e-01
-2.011168e-01
-2.073367e-01
-2.109948e-01
-2.112675e-01
-2.098469e-01
-2.083003e-01
-2.068151e-01
-2.051500e-01
-2.037935e-01
-2.037062e-01
-2.051286e-01
-2.080097e-01
-2.129576e-01
-2.194334e-01
-2.253055e-01
-2.304310e-01
-2.366673e-01
-2.443279e-01
-2.532834e-01
-2.647594e-01
-2.789539e-01
-2.947227e-01
-3.112490e-01
-3.272992e-01
-3.418640e-01
-3.559836e-01
-3.709986e-01
-3.866935e-01
-4.025347e-01
-4.182165e-01
-4.327216e-01
-4.449058e-01
-4.547744e-01
-4.627736e-01
-4.686441e-01
-4.719826e-01
-4.727906e-01
-4.713914e-01
-4.683659e-01
-4.634131e-01
-4.551942e-01
-4.436795e-01
-4.302279e-01
-4.152246e-01
-3.985268e-01
-3.805402e-01
-3.607528e-01
-3.382235e-01
-3.142035e-01
-2.909037e-01
-2.686452e-01
-2.473584e-01
-2.283927e-01
-2.121672e-01
-1.970379e-01
-1.816298e-01
-1.653707e-01
-1.476187e-01
-1.286654e-01
-1.095932e-01
-9.037571e-02
-7.045033e-02
-5.044880e-02
-3.173167e-02
-1.508874e-02
1.295983e-05
1.470754e-02
2.829608e-02
3.841380e-02
4.459538e-02
4.881371e-02
5.232429e-02
5.456066e-02
5.478323e-02
5.333537e-02
5.102969e-02
4.769674e-02
4.257903e-02
3.569959e-02
2.733926e-02
1.783911e-02
8.599379e-03
5.871860e-04
-7.252726e-03
-1.567669e-02
-2.365289e-02
-3.043893e-02
-3.630859e-02
-4.137105e-02
-4.581409e-02
-5.007608e-02
-5.374611e-02
-5.602939e-02
-5.711199e-02
-5.730790e-02
-5.634295e-02
-5.490585e-02
-5.445554e-02
-5.498718e-02
-5.563779e-02
-5.650460e-02
-5.745680e-02
-5.718267e-02
-5.509014e-02
-5.189538e-02
-4.799348e-02
-4.364704e-02
-3.979803e-02
-3.636075e-02
-3.203379e-02
-2.747445e-02
-2.480161e-02
-2.354118e-02
-2.212318e-02
-2.211101e-02
-2.578156e-02
-3.236793e-02
-4.053884e-02
-5.073178e-02
-6.300246e-02
-7.646355e-02
-9.139410e-02
-1.085649e-01
-1.269276e-01
-1.448537e-01
-1.625235e-01
-1.807158e-01
-1.991480e-01
-2.175610e-01
-2.360963e-01
-2.542842e-01
-2.714245e-01
-2.870891e-01
-3.007093e-01
-3.119055e-01
-3.209962e-01
-3.285354e-01
-3.343515e-01
-3.370723e-01
-3.354217e-01
-3.298641e-01
-3.216365e-01
-3.109448e-01
-2.975029e-01
-2.818993e-01
-2.654181e-01
-2.489534e-01
-2.325384e-01
-2.159116e-01
-1.992977e-01
-1.834122e-01
-1.689170e-01
-1.560560e-01
-1.443829e-01
-1.328032e-01
-1.206733e-01
-1.086307e-01
-9.746998e-02
-8.692700e-02
-7.617405e-02
-6.444385e-02
-5.114649e-02
-3.643692e-02
-2.123125e-02
-6.052111e-03
9.441409e-03
2.567013e-02
4.263038e-02
6.007683e-02
7.772127e-02
9.537029e-02
1.131415e-01
1.315675e-01
1.511515e-01
1.715895e-01
1.918505e-01
2.110851e-01
2.289264e-01
2.450330e-01
2.589607e-01
2.707245e-01
2.810181e-01
2.905529e-01
3.000700e-01
3.106898e-01
3.225609e-01
3.345412e-01
3.465219e-01
3.593442e-01
3.726682e-01
3.860641e-01
4.002832e-01
4.154167e-01
4.304723e-01
4.452085e-01
4.600177e-01
4.742759e-01
4.867500e-01
4.974647e-01
5.070738e-01
5.150378e-01
5.211064e-01
5.266509e-01
5.321904e-01
5.366677e-01
5.397701e-01
5.418499e-01
5.424919e-01
5.409208e-01
5.367098e-01
5.300187e-01
5.215197e-01
5.115701e-01
4.997575e-01
4.855143e-01
4.689452e-01
4.508825e-01
4.318716e-01
4.117239e-01
3.903550e-01
3.678840e-01
3.441657e-01
3.193791e-01
2.942574e-01
2.690646e-01
2.432618e-01
2.164984e-01
1.891642e-01
1.614272e-01
1.323916e-01
1.011228e-01
6.770846e-02
3.255553e-02
-4.015656e-03
-4.120036e-02
-7.843487e-02
-1.164279e-01
-1.560004e-01
-1.967586e-01
-2.380644e-01
-2.801575e-01
-3.233649e-01
-3.672878e-01
-4.113600e-01
-4.551368e-01
-4.979289e-01
-5.392478e-01
-5.791676e-01
-6.173401e-01
-6.526117e-01
-6.841717e-01
-7.119043e-01
-7.354961e-01
-7.543995e-01
-7.685189e-01
