EVENT_NAME: CENTRAL_ITALY
EVENT_ID: EMSC-20160824_0000006
EVENT_DATE_YYYYMMDD: 20160824
EVENT_TIME_HHMMSS: 013632
EVENT_LATITUDE_DEGREE: 42.6983
EVENT_LONGITUDE_DEGREE: 13.2335
EVENT_DEPTH_KM: 8.1
HYPOCENTER_REFERENCE: INGV-CNT_Seismic_Bulletin
MAGNITUDE_W: 6.0
MAGNITUDE_W_REFERENCE: INGV-webservice
MAGNITUDE_L: 6.0
MAGNITUDE_L_REFERENCE: INGV-CNT_Seismic_Bulletin
FOCAL_MECHANISM: NF
NETWORK: IT
STATION_CODE: MTR
STATION_NAME: MONTEREALE
STATION_LATITUDE_DEGREE: 42.524021
STATION_LONGITUDE_DEGREE: 13.244796
STATION_ELEVATION_M: 975
LOCATION: 
SENSOR_DEPTH_M: 0.0
VS30_M/S: 
SITE_CLASSIFICATION_EC8: B*
MORPHOLOGIC_CLASSIFICATION: R
EPICENTRAL_DISTANCE_KM: 19.4
EARTHQUAKE_BACKAZIMUTH_DEGREE: 357.3
DATE_TIME_FIRST_SAMPLE_YYYYMMDD_HHMMSS: 20160824_013630.795
DATE_TIME_FIRST_SAMPLE_PRECISION: milliseconds
SAMPLING_INTERVAL_S: 0.020000
NDATA: 2250
DURATION_S: 45.000
STREAM: HGZ
UNITS: cm/s^2
INSTRUMENT: sensor = Unknown [Unknown] | digitizer = Unknown [Unknown]
INSTRUMENT_ANALOG/DIGITAL: D
INSTRUMENTAL_FREQUENCY_HZ: 
INSTRUMENTAL_DAMPING: 
FULL_SCALE_G: 
N_BIT_DIGITAL_CONVERTER: 
PGA_CM/S^2: 33.383650
TIME_PGA_S: 9.900000
BASELINE_CORRECTION: BASELINE REMOVED
FILTER_TYPE: BUTTERWORTH
FILTER_ORDER: 2
LOW_CUT_FREQUENCY_HZ: 0.050
HIGH_CUT_FREQUENCY_HZ: 15.000
LATE/NORMAL_TRIGGERED: NT
DATABASE_VERSION: DYNA 1.0
HEADER_FORMAT: DYNA 1.2
DATA_TYPE: ACCELERATION
PROCESSING: manual (Paolucci et al., 2011)
DATA_TIMESTAMP_YYYYMMDD_HHMMSS: 20191119_160111.228
DATA_LICENSE: CC-BY3_0-IT (http://creativecommons.org/licenses/by/3.0/deed.en)
DATA_CITATION: Luzi L, Puglia R, Russo E & ORFEUS WG5 (2016). Engineering Strong Motion Database. Istituto Nazionale di Geofisica e Vulcanologia, Observatories & Research Facilities for European Seismology. doi: 10.13127/ESM
DATA_CREATOR: ESM working group
ORIGINAL_DATA_MEDIATOR_CITATION: Ufficio Rischio Sismico e Vulcanico del Dipartimento della Protezione Civile (http://www.protezionecivile.gov.it/)
ORIGINAL_DATA_MEDIATOR: http://www.mot1.it/randownload/
ORIGINAL_DATA_CREATOR_CITATION: Italian Strong Motion Network, Italian Civil Protection Department http://www.protezionecivile.gov.it
ORIGINAL_DATA_CREATOR: network: IT (Italian Strong Motion Network); owner: Dipartimento Della Protezione Civile
USER1: /home/dyna/processing-itaca/processing.py /var/www/processing//tmp/rodolfo//IT.MTR..HGE.D.20160824.013632.X.ACC.ASC /var/www/processing//tmp/rodolfo//IT.MTR..HGN.D.20160824.013632.X.ACC.ASC /var/www/processing//tmp/rodolfo//IT.MTR..HGZ.D.20160824.013632.X.ACC.ASC --tmp /var/www/processing//tmp/rodolfo/ --le 0.050 --he 15 --ln 0.050 --hn 15 --lz 0.050 --hz 15 --fo 2 --ca 0 --cz 58.2 --ta 5 --tz 5 --mf 1 --rf 0.020 --tr NT
USER2: 
USER3: 
USER4: 
USER5: 
0.000000
-0.012168
-0.024292
-0.024211
-0.024112
-0.023994
-0.023859
-0.023706
-0.023537
-0.023351
-0.023149
-0.022932
-0.022701
-0.022454
-0.022195
-0.021922
-0.021637
-0.021339
-0.021031
-0.020711
-0.020382
-0.020043
-0.019695
-0.019338
-0.018972
-0.018598
-0.018217
-0.017831
-0.017439
-0.017041
-0.016638
-0.016234
-0.015825
-0.015399
-0.014967
-0.014542
-0.014108
-0.013659
-0.013208
-0.012754
-0.012305
-0.011873
-0.011447
-0.011018
-0.010553
-0.010029
-0.009511
-0.009053
-0.008580
-0.008053
-0.007556
-0.007107
-0.006586
-0.005971
-0.005456
-0.005061
-0.004472
-0.003654
-0.003003
-0.002650
-0.002285
-0.001630
-0.000749
0.000076
0.000698
0.001152
0.001585
0.002334
0.003372
0.004025
0.004196
0.004750
0.005822
0.006522
0.006933
0.008065
0.009485
0.009778
0.009365
0.009847
0.011281
0.012739
0.013882
0.014636
0.015045
0.015120
0.014886
0.015444
0.017461
0.019081
0.018873
0.018310
0.018696
0.019490
0.020436
0.021597
0.022550
0.023201
0.023500
0.023701
0.024320
0.024138
0.023034
0.024169
0.027183
0.028051
0.027411
0.027549
0.027262
0.027069
0.028318
0.028512
0.027255
0.014537
0.003228
0.003660
0.003164
0.003457
0.003141
0.001405
0.000740
0.002587
0.003698
0.001697
-0.000168
0.000504
0.001620
0.002011
0.002423
0.002789
0.002482
0.001223
0.000135
0.000567
0.001918
0.003614
0.004956
0.003559
0.000424
-0.000058
0.001773
0.002724
0.003268
0.003785
0.002559
0.001070
0.002120
0.003774
0.003195
0.002325
0.002817
0.002377
0.001182
0.001709
0.002275
0.001435
0.001227
0.001037
0.000080
0.001024
0.002903
0.002177
0.000249
-0.000187
0.000191
0.000182
0.000230
0.001147
0.002173
0.002340
0.002484
0.002665
0.002053
0.001929
0.002562
0.001787
0.000512
0.001274
0.002183
0.000731
-0.000676
0.000652
0.002790
0.003106
0.002003
0.000622
-0.000494
-0.000658
-0.000165
-0.000061
-0.000382
-0.000595
-0.000323
0.000287
0.000400
0.000271
0.000537
-0.000124
-0.001604
-0.001054
0.000866
0.000466
-0.001462
-0.001368
0.000398
0.001234
0.000725
0.000135
0.000272
0.000766
0.000678
0.000093
0.000020
0.000259
0.000022
-0.000103
0.000094
0.000029
0.000370
0.001133
0.001255
0.001163
0.001060
0.000533
0.000396
0.000386
-0.000178
-0.000071
0.000417
0.000117
0.000488
0.001393
0.000408
-0.001335
-0.001288
-0.000135
0.000459
0.000014
-0.000639
-0.000262
0.000692
0.001194
0.000782
-0.000683
-0.000956
0.001062
0.001463
-0.000364
0.000074
0.002091
0.002075
0.001147
0.000627
-0.000396
-0.001243
-0.001140
-0.000802
-0.000304
0.000500
0.000808
0.000261
0.000109
0.001276
0.001855
0.000235
-0.001228
-0.000439
0.001142
0.001768
0.001199
0.000466
0.000718
0.001109
0.000841
0.000560
-0.000178
-0.001324
-0.001161
-0.000351
-0.000977
-0.001947
-0.000981
0.001050
0.001473
0.000120
-0.000806
-0.001572
-0.006374
-0.015868
-0.017114
0.003884
0.023371
-0.005446
-0.057633
-0.035932
0.067753
0.113598
0.013770
-0.080187
0.037131
0.218271
0.087927
-0.254621
-0.252860
0.133913
0.285237
-0.026660
-0.312205
-0.203013
0.110891
0.266289
0.152244
-0.060790
-0.251700
-0.376665
-0.218598
0.138253
0.118813
-0.267487
-0.314972
0.044577
0.073474
-0.415139
-0.483529
0.316281
0.776319
0.209157
-0.115623
0.488157
0.940647
0.689527
0.473574
0.637186
0.549816
0.017644
-0.037215
0.622886
0.785108
0.264954
0.459529
1.424990
1.620823
0.901715
0.784595
1.472589
1.512164
0.831552
0.468915
-0.228448
-1.718682
-1.834657
0.901785
4.290531
4.722111
1.277180
-2.466741
-1.891708
2.529435
5.276974
3.038704
-1.115829
-2.351596
-0.366015
1.720967
3.062696
5.003222
6.228913
4.215937
0.678686
-0.866449
-0.839239
-2.205882
-6.273079
-10.675083
-10.925494
-7.067226
-4.770254
-5.633889
-4.525195
-0.212058
1.729686
0.715269
2.404406
3.983814
-1.485860
-6.156442
-0.337516
5.803833
1.503516
-4.572916
-3.362619
0.598510
1.738308
0.494731
-0.789698
-0.704696
0.361740
1.370805
0.385201
-3.452605
-4.629102
0.558496
3.352380
-3.301751
-10.412873
-8.559324
-1.741868
3.722734
5.831311
3.694420
1.530071
4.682221
8.626706
6.452502
0.706171
-1.704084
1.616906
4.532903
-1.079881
-8.302518
-3.458840
6.731511
5.897745
-4.156741
-9.727775
-4.398002
4.916353
6.091957
-0.634850
-3.902624
-0.362256
4.895680
6.355218
-1.854899
-14.073072
-12.836486
1.118243
7.625777
2.070802
-2.380644
-0.849314
1.589252
2.291191
0.823912
-3.934880
-10.312371
-11.643063
-5.647946
-1.977608
-5.139619
-4.618905
2.372492
5.030719
1.211279
-1.576180
-2.278075
-4.264786
-5.080754
-1.970829
0.890793
1.746247
3.974362
5.112192
1.948378
-0.131609
1.149531
0.528975
0.158528
5.501647
6.937473
-4.420801
-13.237531
-6.708569
0.138710
-3.390360
-4.222526
1.590112
-0.413745
-10.298438
-10.977069
0.418634
10.301874
14.868964
21.623865
27.837404
21.187181
1.528281
-14.658196
-16.338941
-12.427542
-12.088610
-10.036651
-3.745356
5.528185
21.627766
33.383650
22.474410
3.826609
4.474994
15.749735
16.114307
8.012907
2.147824
1.513218
6.291872
11.218315
9.770576
6.831302
9.484665
10.931334
1.591348
-11.807432
-14.362913
-6.288278
-3.123066
-11.675495
-21.424584
-20.682403
-9.102449
2.663373
5.564678
5.115361
9.528997
16.177935
20.353794
16.993072
2.083997
-11.194803
-6.220373
5.452917
2.107233
-9.869410
-9.726339
1.880877
9.588146
7.448797
-0.693897
-7.584324
-9.522728
-9.348653
-4.659750
5.098911
6.364254
-2.311884
-3.609120
1.236046
-4.920961
-16.882061
-17.206500
-11.702523
-14.302279
-16.049130
-7.833224
-5.243637
-15.681881
-19.552252
-8.256961
3.228380
8.667186
11.486357
4.754895
-11.901596
-22.119573
-19.872550
-12.822023
-5.323719
-1.800251
-2.416111
-0.037698
2.163152
0.812521
6.197534
15.680259
15.490808
11.349299
11.232068
7.342700
-0.289887
-0.232365
8.387106
11.406619
0.128094
-10.856784
-5.882679
4.925291
4.293648
-6.746835
-12.004557
-3.056524
4.178340
-4.571234
-14.277669
-8.737410
3.171892
7.639434
4.909257
6.468377
19.574992
32.218898
29.999279
18.516263
6.937859
-5.239373
-14.081463
-13.873218
-11.126725
-15.612983
-25.333036
-27.685500
-15.515041
-0.619215
3.573548
3.915555
7.897060
6.065097
-5.752947
-16.265538
-17.102503
-12.326809
-11.620675
-15.859698
-14.585382
-5.760022
0.573630
1.664260
3.201864
6.888521
7.443663
0.062875
-6.812490
-1.198209
9.526745
12.549173
11.504070
12.663706
13.806210
13.039186
11.800952
12.843555
17.302543
20.864109
19.228556
14.840021
11.165316
6.832138
-0.100397
-7.228015
-8.969090
-4.714816
-3.325193
-10.080335
-16.443079
-15.002849
-12.517084
-16.245965
-20.373217
-15.174406
-1.226443
9.709432
9.307190
4.867768
5.865737
8.531377
7.998616
9.385235
14.118103
12.593860
4.481646
3.918185
10.056846
8.102261
2.059692
4.373711
11.169277
15.880292
19.109406
20.371592
17.581737
8.428862
-3.168819
-4.565156
3.815010
6.269968
3.411550
7.673116
12.381951
5.677321
-3.264203
-0.082479
11.709960
16.809333
9.912910
3.833164
8.685471
15.628378
16.318501
16.550030
17.320733
12.463720
8.722267
14.203550
17.221906
5.833771
-12.199171
-23.166471
-21.856636
-13.809045
-10.451617
-14.970418
-19.701024
-21.053793
-22.503657
-24.844247
-26.642362
-28.488880
-30.155289
-29.479951
-25.905627
-22.153200
-21.691846
-23.733425
-21.974347
-13.749441
-6.022198
-3.173684
-1.042092
0.359104
-2.094245
-3.585945
0.349282
5.950103
8.685244
6.716044
2.456834
2.450805
5.659395
4.678281
1.560614
1.881230
3.257135
4.076696
4.717797
1.067969
-5.971037
-8.296483
-5.712043
-5.756650
-10.766025
-16.672050
-17.230100
-10.835039
-6.396315
-9.314263
-11.156797
-6.295601
0.645312
5.169865
5.181078
1.866154
0.313909
0.455753
-3.306179
-9.053968
-7.194776
2.945772
9.315621
5.892101
1.392653
2.300155
4.554352
5.547465
6.434227
6.956718
7.866405
8.935992
7.758228
5.866781
5.954624
8.112815
13.064154
17.149446
13.224014
5.504385
4.989951
10.159793
11.440448
9.373699
11.548479
16.116534
14.425663
7.247453
3.492756
5.090341
5.691789
3.318605
2.210900
2.860670
2.433901
1.155294
0.241727
0.324242
1.730090
2.298213
1.404967
2.445640
4.043507
0.791528
-3.269045
-0.191426
4.500314
1.569055
-4.053195
-4.930771
-4.519012
-6.761123
-9.256774
-9.996235
-9.943560
-10.010693
-9.050708
-4.903202
1.084646
3.940016
2.921135
1.733875
0.166687
-2.187630
-0.559941
4.718369
6.995084
6.580004
8.066294
9.002340
5.397201
0.610732
-0.859000
-1.375394
-4.149483
-6.456373
-5.375955
-1.479973
3.417809
4.748025
0.610339
-1.538847
1.936648
2.226099
-3.694943
-5.946483
-2.227645
-1.843289
-6.759093
-10.674066
-11.364369
-9.861534
-7.513270
-6.475732
-6.318383
-5.517014
-5.051579
-5.711352
-7.441012
-8.820891
-5.326615
2.367916
5.508961
2.800995
2.866681
6.469312
5.959531
1.189819
-0.432877
3.384820
7.158874
7.003488
5.721800
5.143162
2.549252
-0.047721
2.271600
4.524598
0.779214
-2.022129
0.668554
1.174392
-2.418057
-3.074810
-1.332621
-3.568937
-8.213213
-8.892665
-7.178112
-9.139363
-12.037177
-9.338497
-3.877471
-2.071254
-3.557256
-4.293966
-2.978201
-2.097580
-3.499118
-5.009930
-4.335819
-2.669989
-1.998615
-2.098335
-1.652622
-0.127532
1.840725
2.822302
2.634751
2.703838
3.902604
6.387243
8.002594
5.103788
1.271600
4.222151
10.497513
11.164812
8.946220
10.100868
10.758869
7.678461
6.867922
10.707123
12.065879
7.428794
2.759770
2.549766
4.129490
4.643860
4.476933
4.619934
5.713475
7.149656
6.984777
4.556937
1.220388
-1.819335
-4.180402
-4.599980
-2.642176
-1.912656
-4.449787
-6.372655
-6.646340
-8.491528
-9.110027
-4.688176
-0.393397
-0.315275
-0.490891
1.101122
2.317942
1.489978
-1.966291
-4.145413
-1.129859
2.762551
3.896053
3.916171
1.946471
-0.827929
-0.129530
1.200441
-0.275418
-0.741904
0.552601
0.281703
0.121891
1.896187
2.758621
1.797024
0.630383
-0.935536
-2.965771
-3.324311
-0.493784
2.367743
0.408465
-3.863282
-4.878085
-5.412263
-8.956965
-11.084804
-9.189932
-6.554710
-5.785686
-6.884190
-7.069189
-4.210283
-1.885378
-2.436851
-1.409531
2.455757
4.767535
6.134162
8.706883
8.147206
3.940608
2.826758
5.815605
8.099526
7.290157
4.002217
1.753824
2.912068
3.861475
2.259887
1.536287
2.575717
2.742934
2.643429
2.108301
-1.844100
-5.342186
-2.247544
2.205836
0.984574
-1.661967
-1.184447
-1.227885
-3.792224
-5.453231
-4.430054
-2.263525
-1.073128
-2.417290
-5.906264
-8.811524
-8.151706
-4.020963
-0.880501
-2.596668
-7.714335
-12.094179
-12.544900
-8.913369
-5.686024
-6.995366
-10.075065
-9.656849
-5.932377
-2.593422
-1.145998
-0.978378
-1.523098
-2.515295
-3.143850
-2.044164
0.445748
2.083419
2.108424
1.387851
0.230963
-0.207044
1.927398
5.082809
5.572770
3.351610
1.746454
2.290625
3.081190
2.721789
2.618513
3.075737
2.426358
1.293567
1.574343
2.927529
4.115233
4.593721
4.117384
3.222168
3.405832
5.592086
8.523340
9.714073
8.332830
5.732307
3.979682
4.257807
4.944527
3.968932
2.705982
2.626667
2.834736
3.733791
5.235080
4.175949
0.858277
-0.280477
0.528244
0.082480
-0.464036
-0.007143
-1.102186
-3.344222
-2.911042
0.238752
2.630751
2.831540
2.132418
1.877541
2.229298
2.581293
2.186853
0.600573
-1.574013
-2.585212
-1.485194
0.038734
-0.589340
-3.167783
-4.878810
-4.374551
-2.859038
-1.472861
-0.539361
-0.106629
0.074165
0.086828
0.300375
1.451026
2.729912
2.742053
2.501235
3.196953
3.031902
0.841886
-1.180210
-1.524060
-1.066486
-0.636278
-0.702994
-1.294134
-1.674307
-1.861101
-2.155361
-1.582597
-0.135692
-0.371679
-3.212500
-5.598565
-5.781587
-5.536318
-4.845076
-2.099733
0.480562
0.041565
-1.137335
-0.330394
0.340045
-1.141097
-2.651529
-2.312874
-1.174795
-0.368751
0.114132
-0.011868
-0.728362
-0.371958
1.826485
3.468165
2.639279
0.960432
0.389405
0.416148
0.020982
-0.360095
0.210033
1.346627
1.289270
-0.251962
-0.959927
0.026009
0.820552
0.805686
0.593815
0.002811
0.075045
1.811785
2.452242
-0.206075
-2.714863
-1.519889
1.021484
1.152403
-0.398602
-0.996310
-0.956755
-1.912421
-2.837466
-2.042683
-0.486214
0.329314
0.093237
-0.984583
-1.540286
-0.767692
-0.274582
-0.876760
-1.577688
-1.848745
-1.290192
-0.416505
-1.240252
-3.593880
-4.862989
-4.042001
-2.546460
-2.230993
-3.266961
-3.773304
-2.726329
-1.211471
0.145160
1.874158
3.715692
4.312059
3.041577
1.638510
2.571742
4.928503
5.208075
3.439713
3.050285
3.866249
2.635147
0.256983
0.194674
1.672895
2.074018
2.046500
2.614309
2.353150
0.584317
-1.028985
-1.015112
0.317063
1.515908
1.396735
0.096295
-1.275402
-1.609253
-0.701413
0.065257
-0.765942
-2.269789
-2.566400
-2.185087
-2.815201
-3.604156
-2.614690
-1.029252
-1.328656
-2.438944
-1.660953
-0.072464
-0.787345
-2.803012
-2.336124
0.147025
0.678692
-1.177592
-2.368655
-1.689279
-0.278377
0.874152
1.446077
1.626527
1.785536
1.844223
1.677216
1.347151
0.833083
0.683739
1.394313
1.947050
1.574460
1.187403
1.244753
1.460352
2.200050
3.361749
3.958666
3.479933
2.033238
0.494045
0.113857
0.528588
0.469411
0.090581
-0.261821
-1.115657
-1.912880
-1.622106
-1.360078
-2.616590
-3.891767
-2.813373
-0.709846
-0.872253
-2.760693
-3.320124
-2.953047
-3.851906
-4.942955
-4.152376
-2.235763
-0.982956
-0.502370
0.181111
1.059313
1.312889
1.326742
1.853173
2.279467
2.417018
3.090495
4.051255
4.743703
5.424106
5.658899
4.935722
4.371923
5.103908
6.478324
7.078984
6.347403
5.034824
4.321763
4.226348
3.926662
3.834099
4.769781
5.541712
4.605093
2.645455
1.214405
0.959504
1.642447
2.028324
0.814811
-1.235085
-2.063950
-1.728213
-2.169428
-3.425063
-3.698242
-2.911547
-2.608930
-3.101469
-3.343567
-2.871600
-2.497213
-3.073359
-4.039236
-4.283306
-4.087480
-4.361651
-4.740865
-4.344339
-3.302189
-2.406949
-2.268870
-2.662907
-2.438627
-1.324734
-0.934294
-2.262884
-3.772969
-3.810499
-3.355918
-3.990604
-4.782589
-4.437760
-4.128326
-4.779415
-4.976233
-4.019243
-3.136825
-2.712206
-2.150516
-1.997816
-2.767748
-3.171215
-2.023168
-0.280554
0.336871
-0.127784
-0.247587
0.069585
-0.089480
-0.057704
1.017617
1.901419
1.603226
1.032324
1.057150
1.957006
3.742125
5.291135
5.413726
4.543775
3.628242
3.028088
2.900163
2.917719
2.606026
2.373818
2.552218
2.572347
2.162553
1.642633
1.265405
1.232284
1.377293
1.174676
0.799800
0.902584
1.420964
2.068517
2.794104
2.840479
1.637293
0.532109
0.906815
1.834496
1.924578
1.586004
1.796277
2.209834
1.913285
1.246190
1.145784
1.187950
0.473052
-0.425743
-0.670650
-0.806546
-1.457559
-2.217138
-2.715060
-2.933947
-2.442858
-1.297605
-0.942566
-1.957778
-2.652574
-2.187077
-2.178708
-3.347710
-4.003062
-2.899658
-0.944612
0.151943
-0.192397
-0.814621
-0.377423
0.640353
0.724246
-0.158453
-0.570977
0.087273
1.152068
1.883294
1.670379
0.490362
-0.522908
-0.607685
-0.313969
-0.024057
0.219906
-0.128990
-0.921465
-1.021810
-0.537211
-0.938400
-2.365154
-3.122458
-2.457518
-1.757461
-1.969750
-2.118198
-1.673501
-1.604296
-2.000717
-1.736636
-0.885906
-0.560654
-0.651907
-0.152671
0.812135
1.225405
1.113579
1.294326
1.448282
0.930985
0.672369
1.477795
2.251429
2.124827
1.980720
2.647557
3.529985
3.595952
2.941033
2.813593
3.708220
4.526716
4.489993
4.127666
3.896802
3.711654
3.425865
2.589176
0.924734
-0.676685
-1.002639
-0.302388
-0.085610
-0.895190
-1.603584
-1.635669
-1.827105
-2.442685
-2.936547
-3.191234
-2.969414
-2.048934
-1.301771
-1.605247
-2.576071
-3.130639
-2.799874
-2.498513
-2.965662
-3.334460
-3.020145
-2.773641
-2.868478
-2.769765
-2.378944
-1.908535
-1.223109
-0.164914
0.682322
0.459376
-0.199780
0.121796
0.759241
0.275119
-0.442982
-0.063418
0.939496
1.767317
2.076167
1.848371
1.770153
2.121036
2.333501
2.527306
3.160195
3.776575
3.830061
3.243839
2.319470
1.833401
1.652285
0.930426
0.598784
1.544965
1.940824
0.853791
0.093404
0.061748
-0.432418
-0.820898
-0.243279
0.299493
-0.035518
-0.650679
-0.909636
-0.995394
-1.174714
-0.960746
0.068489
1.060175
0.975547
0.005056
-1.217647
-2.174237
-2.179280
-1.354893
-0.673807
-0.272325
0.140234
0.091995
-0.363589
-0.416490
-0.502607
-1.453321
-2.190230
-1.462431
-0.154472
0.420040
0.202202
-0.594458
-1.819597
-2.686809
-2.564126
-1.951440
-1.537407
-1.206217
-0.767772
-0.770237
-1.665101
-2.609730
-2.308678
-1.021956
-0.235282
-0.295612
-0.215584
0.321818
0.798759
1.173359
1.437528
1.049118
0.282984
0.272646
1.025280
1.458048
1.272657
1.068734
0.986626
0.658995
0.289997
0.376143
0.666933
0.781365
1.057649
1.577269
1.570711
0.861584
0.478023
0.981829
1.745576
2.227720
2.366496
2.078536
1.696631
1.788307
2.007729
1.880090
1.892153
2.009568
1.418445
0.549410
0.382888
0.412539
-0.196244
-0.803058
-0.344717
0.755675
1.145123
0.668638
0.355103
0.519273
0.558566
0.265573
-0.164536
-0.832342
-1.499771
-1.329912
-0.567212
-0.641964
-1.476766
-1.503070
-0.884650
-1.229998
-2.437434
-3.064495
-2.800925
-2.338160
-2.002611
-1.846113
-2.130050
-2.751880
-2.847083
-1.845645
-0.285392
0.943077
1.353726
0.975945
0.296345
-0.232451
-0.448357
-0.289119
0.093284
0.509594
0.991454
1.305872
1.041074
0.370582
-0.249735
-0.672320
-0.701432
-0.121831
0.683590
1.131491
1.260512
1.373847
1.408192
1.335124
1.466239
1.727363
1.462631
0.613157
0.076079
0.202700
0.304759
0.152684
0.216863
0.413895
0.373926
0.343514
0.515624
0.500876
0.143142
-0.228875
-0.523673
-0.870859
-0.981793
-0.622156
-0.464632
-1.064895
-1.672145
-1.630492
-1.582474
-1.954658
-2.084052
-1.614982
-1.121701
-1.068383
-1.219592
-1.176384
-0.852223
-0.378367
0.038457
0.204062
-0.033345
-0.695002
-1.243836
-1.034357
-0.520703
-0.507347
-0.659667
-0.360355
0.243491
0.800685
1.030017
0.859766
0.786513
1.056716
1.118189
0.735075
0.437328
0.586660
0.966541
1.196594
1.180540
1.150560
1.197808
1.143642
1.042506
1.029134
0.813456
0.263936
-0.208965
-0.457992
-0.748709
-1.139691
-1.515991
-1.745784
-1.609665
-1.146816
-0.739534
-0.451325
0.036814
0.596300
0.605083
-0.082108
-0.758064
-0.660175
0.093011
0.766105
1.137834
1.527080
1.865647
1.805303
1.405743
0.993478
0.774705
0.748112
0.751550
0.742349
0.814149
0.868293
