EVENT_NAME: CENTRAL_ITALY
EVENT_ID: EMSC-20160824_0000006
EVENT_DATE_YYYYMMDD: 20160824
EVENT_TIME_HHMMSS: 013632
EVENT_LATITUDE_DEGREE: 42.6983
EVENT_LONGITUDE_DEGREE: 13.2335
EVENT_DEPTH_KM: 8.1
HYPOCENTER_REFERENCE: INGV-CNT_Seismic_Bulletin
MAGNITUDE_W: 6.0
MAGNITUDE_W_REFERENCE: INGV-webservice
MAGNITUDE_L: 6.0
MAGNITUDE_L_REFERENCE: INGV-CNT_Seismic_Bulletin
FOCAL_MECHANISM: NF
NETWORK: IT
STATION_CODE: MTR
STATION_NAME: MONTEREALE
STATION_LATITUDE_DEGREE: 42.524021
STATION_LONGITUDE_DEGREE: 13.244796
STATION_ELEVATION_M: 975
LOCATION: 
SENSOR_DEPTH_M: 0.0
VS30_M/S: 
SITE_CLASSIFICATION_EC8: B*
MORPHOLOGIC_CLASSIFICATION: R
EPICENTRAL_DISTANCE_KM: 19.4
EARTHQUAKE_BACKAZIMUTH_DEGREE: 357.3
DATE_TIME_FIRST_SAMPLE_YYYYMMDD_HHMMSS: 20160824_013630.795
DATE_TIME_FIRST_SAMPLE_PRECISION: milliseconds
SAMPLING_INTERVAL_S: 0.020000
NDATA: 2250
DURATION_S: 45.000
STREAM: HGE
UNITS: cm/s^2
INSTRUMENT: sensor = Unknown [Unknown] | digitizer = Unknown [Unknown]
INSTRUMENT_ANALOG/DIGITAL: D
INSTRUMENTAL_FREQUENCY_HZ: 
INSTRUMENTAL_DAMPING: 
FULL_SCALE_G: 
N_BIT_DIGITAL_CONVERTER: 
PGA_CM/S^2: 74.918378
TIME_PGA_S: 10.440000
BASELINE_CORRECTION: BASELINE REMOVED
FILTER_TYPE: BUTTERWORTH
FILTER_ORDER: 2
LOW_CUT_FREQUENCY_HZ: 0.050
HIGH_CUT_FREQUENCY_HZ: 15.000
LATE/NORMAL_TRIGGERED: NT
DATABASE_VERSION: DYNA 1.0
HEADER_FORMAT: DYNA 1.2
DATA_TYPE: ACCELERATION
PROCESSING: manual (Paolucci et al., 2011)
DATA_TIMESTAMP_YYYYMMDD_HHMMSS: 20191119_160111.228
DATA_LICENSE: CC-BY3_0-IT (http://creativecommons.org/licenses/by/3.0/deed.en)
DATA_CITATION: Luzi L, Puglia R, Russo E & ORFEUS WG5 (2016). Engineering Strong Motion Database. Istituto Nazionale di Geofisica e Vulcanologia, Observatories & Research Facilities for European Seismology. doi: 10.13127/ESM
DATA_CREATOR: ESM working group
ORIGINAL_DATA_MEDIATOR_CITATION: Ufficio Rischio Sismico e Vulcanico del Dipartimento della Protezione Civile (http://www.protezionecivile.gov.it/)
ORIGINAL_DATA_MEDIATOR: http://www.mot1.it/randownload/
ORIGINAL_DATA_CREATOR_CITATION: Italian Strong Motion Network, Italian Civil Protection Department http://www.protezionecivile.gov.it
ORIGINAL_DATA_CREATOR: network: IT (Italian Strong Motion Network); owner: Dipartimento Della Protezione Civile
USER1: /home/dyna/processing-itaca/processing.py /var/www/processing//tmp/rodolfo//IT.MTR..HGE.D.20160824.013632.X.ACC.ASC /var/www/processing//tmp/rodolfo//IT.MTR..HGN.D.20160824.013632.X.ACC.ASC /var/www/processing//tmp/rodolfo//IT.MTR..HGZ.D.20160824.013632.X.ACC.ASC --tmp /var/www/processing//tmp/rodolfo/ --le 0.050 --he 15 --ln 0.050 --hn 15 --lz 0.050 --hz 15 --fo 2 --ca 0 --cz 58.2 --ta 5 --tz 5 --mf 1 --rf 0.020 --tr NT
USER2: 
USER3: 
USER4: 
USER5: 
0.000000
0.001974
0.003940
0.003927
0.003910
0.003891
0.003869
0.003844
0.003818
0.003789
0.003759
0.003727
0.003694
0.003661
0.003627
0.003594
0.003561
0.003530
0.003499
0.003471
0.003446
0.003423
0.003405
0.003391
0.003381
0.003377
0.003378
0.003384
0.003398
0.003419
0.003439
0.003467
0.003514
0.003571
0.003631
0.003698
0.003774
0.003869
0.003968
0.004048
0.004155
0.004287
0.004390
0.004545
0.004791
0.004961
0.005063
0.005251
0.005443
0.005578
0.005800
0.006087
0.006276
0.006423
0.006702
0.007045
0.007373
0.007771
0.008084
0.008155
0.008278
0.008611
0.009017
0.009463
0.009709
0.009594
0.009595
0.009941
0.010173
0.010336
0.010959
0.011560
0.011336
0.010954
0.011014
0.010719
0.010286
0.010647
0.010875
0.010422
0.010364
0.010404
0.010056
0.010317
0.010618
0.009915
0.009594
0.009953
0.009580
0.009185
0.009393
0.008917
0.007761
0.006677
0.006029
0.006690
0.007798
0.007376
0.006011
0.005034
0.004122
0.003043
0.002279
0.001477
0.000131
-0.000314
0.000528
-0.000248
-0.002745
-0.003887
-0.004115
-0.005061
-0.006214
-0.001012
0.004537
0.004890
0.005905
0.006053
0.005724
0.005786
0.006145
0.006554
0.007246
0.007570
0.006249
0.004760
0.005417
0.006632
0.006327
0.005481
0.005203
0.006001
0.007698
0.008217
0.007290
0.007268
0.007574
0.006361
0.005809
0.007624
0.008804
0.007593
0.006474
0.006916
0.008012
0.008986
0.008824
0.007468
0.006855
0.007266
0.007351
0.007598
0.008858
0.009945
0.009414
0.008432
0.008851
0.009195
0.008260
0.007472
0.006304
0.005439
0.007951
0.010423
0.008192
0.005442
0.006002
0.007074
0.007266
0.007886
0.008295
0.007428
0.006368
0.006320
0.006902
0.007536
0.007748
0.007500
0.007982
0.008433
0.007318
0.007497
0.009915
0.009867
0.007644
0.007534
0.007884
0.007079
0.008096
0.010478
0.010937
0.009710
0.008451
0.007601
0.008033
0.010135
0.011271
0.009411
0.007840
0.009121
0.009843
0.008459
0.008026
0.009147
0.010540
0.011601
0.010897
0.009459
0.010044
0.010898
0.009838
0.009252
0.010301
0.010778
0.010190
0.010131
0.010747
0.010490
0.009222
0.009008
0.010339
0.010837
0.009487
0.008446
0.009285
0.010531
0.010686
0.010716
0.011198
0.010917
0.010125
0.010538
0.011750
0.011965
0.011365
0.011108
0.011017
0.011159
0.012049
0.012204
0.010756
0.010312
0.011900
0.012495
0.011246
0.010782
0.011199
0.010905
0.011198
0.012574
0.012525
0.011140
0.011002
0.012156
0.012987
0.013045
0.013128
0.013382
0.012462
0.011106
0.011421
0.011703
0.010545
0.010397
0.011236
0.011107
0.011230
0.012232
0.012367
0.011686
0.011484
0.011478
0.010788
0.010014
0.010402
0.011453
0.011875
0.011766
0.011810
0.011997
0.011900
0.012051
0.013018
0.012981
0.011621
0.012340
0.014477
0.013652
0.011538
0.011824
0.011851
0.010564
0.014168
0.023469
0.024338
0.004602
-0.012869
0.013689
0.059470
0.038649
-0.040039
-0.049453
0.052941
0.127783
0.026068
-0.150285
-0.077256
0.232556
0.225654
-0.209047
-0.310202
0.148989
0.356260
0.044461
-0.173176
-0.105714
0.009902
0.120858
0.144853
0.078186
0.031555
-0.133916
-0.213444
0.210821
0.415617
-0.167740
-0.261975
0.508723
0.360344
-0.649650
-0.362630
0.765676
0.533195
-0.278263
0.037438
0.307988
-0.167480
0.018628
0.426415
0.080924
0.070480
0.205083
-0.235090
0.188952
0.851930
-0.245460
-0.745669
0.938614
0.984971
-1.076015
-0.751858
0.991201
0.217139
-0.377098
1.521221
1.288692
-1.622351
-1.753423
0.035561
0.387220
1.824709
2.782661
-1.585728
-4.939372
-0.606158
3.674867
1.868462
-0.402659
-0.414327
-0.887905
-1.385251
-0.860175
0.636466
3.382833
3.399302
-2.450966
-6.175311
-0.976716
3.950397
0.387126
-2.862983
0.548616
2.148526
-1.091741
-1.769633
0.618155
1.191991
-0.270894
-1.084428
1.776277
5.155953
0.494639
-6.158592
-0.653921
8.303528
5.141002
-1.513135
-1.534045
-0.841380
0.210503
3.557101
1.663238
-2.486379
1.496248
6.082845
1.516586
-3.390192
-0.492347
4.160604
4.039716
0.898353
-1.415489
-2.254460
-0.990573
2.369700
2.967159
-1.086710
-3.834529
-2.130545
0.771521
1.346258
-1.966043
-5.005262
0.144210
8.604149
4.366362
-8.205629
-5.569505
8.951409
8.973278
-2.454622
-5.083092
-3.327891
-3.732852
-0.078413
0.940862
-5.948061
-6.212531
3.711177
7.467492
-0.191262
-6.862908
-4.895868
-0.462855
0.547114
0.687618
1.461451
1.948438
3.618863
4.272876
1.942812
2.836072
6.323057
2.259981
-5.626524
-5.222895
-0.130701
2.129005
5.076124
6.758847
0.379980
-5.050799
-0.861028
0.327389
-7.429838
-9.211972
-2.773242
0.306098
1.550950
1.757075
-3.294535
-0.965839
10.289228
6.432405
-8.460203
-6.768975
3.283298
-0.547065
-6.177945
1.720137
6.393057
-2.509702
-4.676205
2.480908
-3.064832
-15.292135
-14.645477
-7.207010
-1.436723
0.780389
-6.313786
-11.818508
-2.932705
0.710420
-15.769762
-27.077778
-16.212969
-6.747020
-12.935459
-17.663739
-17.324416
-20.570723
-16.785130
-6.752032
-13.024973
-31.040969
-35.947095
-26.766225
-18.015152
-17.941188
-25.030164
-28.814866
-28.266065
-34.675479
-42.548851
-36.369292
-21.248605
-7.671079
9.693548
34.127556
57.081107
71.447981
74.918378
70.381344
67.176848
65.987437
57.436008
45.177226
40.718204
39.931859
35.886561
35.749513
39.154403
30.866368
16.496049
20.412754
34.838644
32.408400
20.631166
16.604686
8.221151
-9.052462
-19.939589
-26.361542
-33.507725
-27.362482
-11.227562
-11.538376
-27.223600
-31.575017
-22.828139
-20.581675
-22.619434
-9.546304
12.758621
18.542084
10.491621
7.537351
-1.217224
-20.570161
-20.320546
-2.747758
-4.654458
-15.863655
-3.615925
17.942234
20.620252
4.488824
-15.574603
-21.938605
-8.231665
11.175648
19.259984
10.512556
-3.670906
-5.561381
-1.355319
-5.572051
-10.395472
-15.587904
-31.954561
-42.772045
-34.238426
-25.840329
-23.396461
-12.672299
-2.258255
-2.659332
1.855040
16.138855
22.723593
17.001104
11.196015
14.320655
20.099162
18.259240
16.607558
13.868600
-11.987779
-43.581804
-42.800471
-27.395685
-24.052224
-17.049742
-6.436528
-8.366212
-6.976870
5.726543
9.993277
8.508845
14.216692
13.134099
-1.044542
-3.406936
16.680527
29.066127
12.458744
-5.926802
-1.604018
5.211636
-0.557964
-6.138421
-11.087696
-18.458856
-16.061202
-9.749490
-13.324450
-11.069500
5.008513
8.692006
-7.330297
-15.339451
-4.976157
4.536480
5.876557
12.155542
23.130485
23.257936
15.685958
20.161970
37.715925
47.356143
37.024979
22.404281
25.422979
38.772920
39.911887
33.741500
36.883335
38.083993
24.724991
14.637744
17.218546
12.322163
-4.836169
-15.084613
-13.801984
-9.397055
-4.617847
-3.860937
-8.869992
-10.130062
-5.195542
-5.108866
-11.540047
-12.069741
-4.981377
-4.517837
-13.886790
-19.717111
-18.668307
-22.166743
-30.972155
-29.085119
-15.917986
-14.309639
-22.401749
-14.612874
-3.372943
-13.488652
-21.226876
-6.407046
2.279321
-8.527110
-12.036271
-3.266229
-7.383619
-22.790365
-23.075146
-11.596013
-11.014707
-13.677161
-4.200324
4.213179
3.979527
7.979195
15.434024
19.862060
25.994621
26.691401
13.015808
1.878598
6.134024
11.341447
8.225564
5.308035
3.484930
-5.116601
-16.178385
-19.662833
-18.261238
-18.101103
-20.075304
-26.958589
-33.602917
-28.234329
-19.623732
-24.234657
-33.656543
-32.751346
-23.159996
-13.196027
-10.006343
-12.705850
-11.115329
-6.411427
-7.013612
-5.428181
3.686495
8.250764
4.923175
3.834343
8.213920
13.916426
17.210980
20.036801
26.684289
28.972211
18.588308
10.018893
15.069282
18.773977
13.005685
13.299157
21.681455
21.281918
14.545553
16.378025
18.582730
11.611192
12.629061
25.546613
24.842960
9.996571
6.722041
11.474466
5.918775
-0.488812
2.319942
0.654625
-8.111663
-6.660451
3.257301
3.136682
-1.851537
4.844183
13.905518
11.334874
6.431684
6.988072
5.282083
0.864506
1.617493
4.552509
2.109236
-2.565694
-5.718826
-11.007185
-15.235558
-12.643977
-11.997938
-17.914466
-18.037806
-12.849296
-15.819137
-20.903703
-17.512459
-14.804483
-17.469588
-16.760522
-12.496656
-7.519054
1.408152
9.486143
9.028604
4.993656
4.407515
4.631438
0.688270
-4.732866
-3.178510
4.380863
6.842496
4.407312
6.112198
9.011762
8.024410
9.051210
13.866491
15.893799
14.361727
14.195591
16.927567
18.944915
15.648174
8.725313
5.318810
6.130071
4.440115
-1.206849
-5.153523
-3.940217
0.341590
2.675521
0.300444
-4.226588
-9.543978
-17.126758
-21.155240
-15.566551
-10.645396
-14.822100
-15.869260
-8.904735
-6.672091
-7.463464
-0.021052
10.363799
14.816388
11.893940
2.627807
-3.760923
0.054250
5.303912
2.599531
-6.382831
-14.675950
-14.703920
-7.600429
-2.835451
-2.459338
-2.632212
-3.872280
-6.568398
-9.993279
-14.507917
-16.354520
-11.751594
-3.393056
4.389253
7.406492
2.864290
-5.347398
-11.009758
-11.459349
-7.458983
-3.145898
0.697243
7.883357
14.125045
12.245831
7.082233
5.427949
6.290040
7.470235
6.635238
4.485849
6.915943
10.841034
5.587846
-4.882632
-6.616765
-0.934824
-0.562644
-4.388659
-0.921406
5.623794
2.970753
-2.516425
-0.286994
3.489196
4.645443
7.508628
7.686214
2.517362
2.025769
7.774509
8.641565
2.350107
-3.381352
-4.170956
-0.814490
2.428942
0.803930
-4.849844
-10.123430
-10.423288
-1.986982
8.246897
7.737039
2.311423
6.770345
15.767407
16.056818
12.113888
14.078542
17.659211
14.537259
9.112642
8.362641
7.394845
2.487037
2.530081
10.100312
12.438047
5.013999
-1.774280
-4.770225
-8.541280
-9.524981
-5.472396
-4.685760
-9.056398
-10.057565
-7.328893
-8.420702
-11.880424
-9.643241
-1.642225
4.789426
4.202247
-3.967236
-13.524398
-14.972264
-9.962421
-9.248998
-10.880970
-5.469999
-0.072223
-5.208849
-10.616663
-4.205274
3.023171
-2.182846
-9.669352
-6.768272
-1.774494
-3.245387
-4.666187
-3.853670
-5.244647
-3.935111
4.148868
10.231260
6.934412
-1.053505
-3.190981
4.311583
12.210955
13.156454
11.542535
10.065116
8.688248
11.697740
16.875840
14.927116
6.199120
0.819800
2.231889
2.753863
-1.490812
-3.497925
-0.173099
1.205019
-2.698857
-6.238995
-6.755678
-7.066827
-6.447657
-4.146589
-5.789944
-11.003263
-10.544182
-6.116460
-7.990817
-13.202774
-12.745520
-9.056703
-7.431607
-7.278223
-8.431234
-10.206405
-9.122281
-6.801817
-7.706332
-8.901154
-6.878160
-5.669336
-6.223888
-3.395444
1.792976
4.486375
5.503357
5.850052
4.160215
2.112023
1.353303
1.450662
2.827033
4.770350
5.010042
1.745417
-3.761628
-4.581402
1.648174
6.528688
6.670131
7.125073
8.215783
7.901785
7.265233
6.940870
6.748901
5.483141
3.059192
3.169413
4.755833
1.595574
-3.238825
-0.802807
6.404474
8.463488
4.233058
0.315354
-0.153696
0.449807
-0.771773
-3.172526
-3.774533
-3.646738
-5.166929
-3.819771
1.509222
1.866390
-2.776805
-3.560862
-3.237099
-6.301500
-6.795963
-3.935969
-1.893599
1.190109
3.713560
1.112952
-2.238534
-1.699578
-0.365911
0.398657
2.941709
5.802199
5.789000
4.673506
5.321589
6.330190
6.326326
5.517920
4.065593
4.818481
8.165238
8.239263
4.842549
3.879029
4.236372
3.221986
4.501814
6.855029
3.726659
-1.800587
-2.603125
-2.429429
-5.802724
-6.850480
-2.740223
0.696629
2.127617
3.732443
3.003063
0.297188
0.363368
1.769673
0.190378
-3.211010
-5.185494
-3.853068
-1.017800
-2.765109
-8.677057
-9.840340
-4.908108
-1.769415
-3.185494
-5.034507
-4.176076
-2.144549
-2.568173
-4.461901
-4.404330
-3.702228
-2.849533
0.651037
3.068844
0.430703
-1.460138
1.119416
2.975424
2.290915
2.018018
1.548546
0.452627
1.479890
3.466889
3.001690
2.216724
2.902152
1.180378
-2.466976
-2.454871
-0.297416
-0.540510
-0.213484
3.065832
4.546007
2.755547
1.767895
1.111313
-1.243559
-1.029317
2.224174
0.580970
-4.716247
-3.531041
0.393935
-3.514580
-9.206801
-7.289543
-3.961352
-5.055074
-5.194362
-2.976004
-3.673666
-5.600551
-2.979937
1.091795
0.640477
-1.306069
-0.599978
0.048052
-0.305505
0.868331
2.619022
3.689096
5.111248
6.059899
5.263781
3.878666
4.307891
7.738207
10.928332
9.767641
6.674912
6.160436
6.875345
5.404170
2.194170
-0.041189
-0.124430
0.529512
-0.032052
-1.821127
-3.475762
-4.085583
-2.969703
-0.233550
1.375649
-0.218278
-2.204746
-1.544342
0.524920
2.443127
3.917890
3.530542
1.240244
-0.066329
0.785954
1.838014
1.828810
1.215494
0.494975
0.011467
0.305341
1.637113
2.895191
2.134715
-0.442504
-2.565881
-3.483300
-4.336577
-5.447625
-5.409489
-3.675441
-1.897110
-0.044203
2.756697
3.128217
0.273104
0.000856
2.104138
1.254059
0.180062
2.057861
2.285847
-0.194615
-0.798514
0.182475
-1.377381
-4.460495
-4.398240
-2.764284
-4.112432
-4.738767
-1.310108
-0.012377
-2.655653
-3.437307
-2.556465
-3.594348
-5.533026
-6.599445
-6.200364
-4.519944
-3.626321
-4.657597
-6.076249
-5.814975
-3.733897
-2.370536
-2.841995
-3.053126
-2.755011
-3.118418
-2.670694
-0.837821
-0.177743
-1.524854
-2.401635
-1.427102
-1.006809
-3.246579
-5.583036
-5.363731
-4.346533
-3.545654
-1.533794
-0.124508
-1.896355
-3.948654
-2.964165
-1.369058
-1.968135
-2.786002
-1.788453
-0.373360
0.738262
2.462104
3.682779
3.497688
4.368592
7.251942
9.279205
9.568190
10.352276
11.720989
11.959946
11.630746
11.864155
11.824687
10.977097
9.860050
8.894071
8.889750
9.498024
8.510905
6.415729
6.068768
6.280135
3.949960
1.224010
1.806620
3.632353
3.043785
1.531481
1.733302
2.293209
1.606201
0.729757
0.108758
-1.054323
-2.156229
-2.158298
-1.756598
-2.156271
-3.463928
-5.067490
-6.374331
-7.384601
-8.187663
-7.956030
-6.902025
-7.172879
-8.544641
-8.436337
-7.603280
-8.381805
-9.083282
-7.073814
-3.841687
-2.456600
-2.944998
-3.140088
-2.616610
-2.435306
-2.000975
-0.252230
1.513735
1.312516
-0.551403
-1.790470
-1.297552
-0.842900
-1.649367
-2.283070
-2.396843
-2.759662
-1.963204
0.091517
0.508942
-0.548736
0.138542
2.764623
4.691402
4.770453
4.490064
5.445256
7.275606
9.110119
10.447236
10.394180
9.153800
8.461837
8.762811
8.245356
5.645853
2.782220
1.978193
2.210021
1.626184
0.814128
0.684210
1.112181
1.615052
1.250723
0.169551
0.110763
0.948832
0.269676
-2.134469
-3.554945
-3.018694
-2.471604
-2.750855
-2.674169
-2.089827
-1.821917
-2.005543
-2.916315
-4.429170
-5.073550
-4.852776
-5.413772
-6.175312
-5.586601
-4.410737
-3.397739
-2.105257
-1.545955
-2.482392
-2.831377
-1.594154
-0.991823
-1.960940
-2.884486
-2.821058
-1.926949
-0.896974
-1.134204
-2.503983
-2.775474
-1.418956
-0.561996
-1.404919
-2.552820
-2.172671
-0.681806
-0.291729
-1.534588
-2.201781
-0.734230
1.306703
1.589018
0.452107
-0.226151
-0.235080
-0.259339
-0.040994
0.569852
1.235702
1.613005
0.869454
-0.888115
-1.774883
-1.229909
-0.959112
-2.063366
-4.149934
-6.145722
-6.659657
-5.442863
-4.232554
-4.200667
-3.904777
-2.100664
-0.365813
-0.132319
-0.242164
0.406902
1.390968
2.289710
2.864595
2.790078
2.405399
2.636428
3.776655
4.738011
4.547748
4.128645
4.574647
5.255920
5.698500
6.617744
7.827498
7.927975
6.763887
5.986336
6.123491
5.652460
4.599245
4.546083
4.610259
3.890636
4.492058
6.155405
5.827050
4.506038
4.721608
4.857871
3.624988
2.825177
2.493594
0.968173
-0.771505
-0.885827
-0.438627
-0.930825
-1.340819
-1.143974
-2.012912
-4.038005
-5.171530
-5.181103
-5.528900
-6.137446
-5.974142
-5.525215
-5.796633
-6.299788
-6.330869
-6.019907
-5.110705
-3.818813
-3.543421
-4.389724
-5.270451
-5.873380
-5.694819
-4.663292
-4.430710
-5.071139
-4.518825
-2.989295
-2.228188
-1.857240
-1.308726
-1.403138
-1.426428
0.076945
1.768975
2.076255
2.217136
3.097336
4.130458
5.294867
6.260986
6.510810
6.781300
6.959984
5.903625
4.358424
3.773224
3.989263
4.293432
4.120286
3.241709
2.453115
2.263711
2.050490
1.813929
2.091122
2.064953
0.732914
-0.770837
-0.709771
0.530219
1.501727
1.582562
0.700354
-0.530184
-1.484345
-2.765678
-3.903687
-3.196830
-1.673430
-1.251729
-1.042749
-0.479950
-0.799029
-2.016739
-3.114826
-3.297973
-2.027789
-0.437843
-0.352618
-0.910484
-0.101776
1.110903
0.419161
-1.489826
-2.335516
-2.195338
-2.003132
-1.094804
0.292643
0.455564
-0.439603
-1.189575
-2.136912
-3.202918
-2.950601
-1.442572
-0.169907
0.629559
1.135287
0.541766
-0.561839
-0.327831
0.538595
0.446632
0.503971
1.613373
2.564769
2.722535
2.249812
1.432429
1.534778
3.194190
4.409337
3.174841
0.992141
0.134880
-0.476687
-2.029434
-2.829253
-2.298220
-1.817540
-1.156569
0.378037
1.651519
1.546542
0.501719
-0.317606
-0.165627
0.710951
1.408719
1.221570
0.176932
-0.993284
-1.481920
-1.401273
-1.686159
-2.428142
-2.780091
-2.895706
-3.473168
-3.914592
-3.639193
-3.416697
-3.271015
-2.266715
-1.518290
-2.569482
-3.552229
-2.881064
-2.524855
-2.813928
-1.773305
-0.471546
-0.454241
0.146105
1.906029
2.492140
1.939920
2.179958
2.450622
1.685106
1.546764
2.143313
0.988916
-1.262854
-1.547017
-0.390408
-0.123259
-0.126967
0.737635
1.378034
1.164420
1.120797
1.717376
2.378508
2.675043
2.582616
2.137520
1.497583
0.962163
0.584901
0.224435
-0.076163
-0.302692
-0.594649
-0.718106
-0.243482
0.452433
0.643300
0.638381
1.113274
1.842755
2.322794
2.177895
1.070517
-0.030851
0.380807
1.354730
1.287122
1.168482
1.472906
0.738602
-0.157059
0.630490
1.491947
0.835721
0.278307
0.449449
-0.134334
-0.976875
-0.504372
0.050978
-0.817696
-1.280578
0.023779
1.088326
0.727587
0.062683
-0.516543
-1.239235
-1.756509
-1.557418
-0.275083
1.155626
1.203944
0.712887
1.422655
2.635541
2.861345
2.360813
2.318704
3.221095
4.276543
4.185842
2.837197
1.536722
1.262171
1.656708
1.725472
0.873599
-0.392153
-1.048552
-1.232313
-1.783659
-2.227823
-1.924702
-1.863781
-2.324348
-2.177032
-2.116037
-3.221433
-3.770238
-2.764826
-1.957358
-1.889018
-1.614591
-1.302146
-1.313471
-1.286877
-0.988143
-0.328309
0.637878
1.290071
0.987995
0.115132
-0.182981
0.299515
0.372105
-0.522003
-1.285842
-1.190373
-0.915190
-0.791673
-0.609422
-0.948001
-1.877604
-2.034236
-1.080396
-0.375999
-0.546080
-0.964821
-1.075099
-0.731350
-0.202629
0.098306
0.372162
0.797753
0.613700
-0.480577
-1.420588
-1.616727
-1.578909
-1.394312
-0.868352
-0.403760
-0.165614
0.198988
0.599621
0.675793
0.515642
0.272710
-0.107955
-0.233131
0.485013
1.616637
2.312868
2.791011
3.437228
3.635946
3.044517
