EVENT_NAME: CENTRAL_ITALY
EVENT_ID: EMSC-20160824_0000006
EVENT_DATE_YYYYMMDD: 20160824
EVENT_TIME_HHMMSS: 013632
EVENT_LATITUDE_DEGREE: 42.6983
EVENT_LONGITUDE_DEGREE: 13.2335
EVENT_DEPTH_KM: 8.1
HYPOCENTER_REFERENCE: INGV-CNT_Seismic_Bulletin
MAGNITUDE_W: 6.0
MAGNITUDE_W_REFERENCE: INGV-webservice
MAGNITUDE_L: 6.0
MAGNITUDE_L_REFERENCE: INGV-CNT_Seismic_Bulletin
FOCAL_MECHANISM: NF
NETWORK: IT
STATION_CODE: MTR
STATION_NAME: MONTEREALE
STATION_LATITUDE_DEGREE: 42.524021
STATION_LONGITUDE_DEGREE: 13.244796
STATION_ELEVATION_M: 975
LOCATION: 
SENSOR_DEPTH_M: 0.0
VS30_M/S: 
SITE_CLASSIFICATION_EC8: B*
MORPHOLOGIC_CLASSIFICATION: R
EPICENTRAL_DISTANCE_KM: 19.4
EARTHQUAKE_BACKAZIMUTH_DEGREE: 357.3
DATE_TIME_FIRST_SAMPLE_YYYYMMDD_HHMMSS: 20160824_013630.795
DATE_TIME_FIRST_SAMPLE_PRECISION: milliseconds
SAMPLING_INTERVAL_S: 0.020000
NDATA: 2250
DURATION_S: 45.000
STREAM: HGZ
UNITS: cm
INSTRUMENT: sensor = Unknown [Unknown] | digitizer = Unknown [Unknown]
INSTRUMENT_ANALOG/DIGITAL: D
INSTRUMENTAL_FREQUENCY_HZ: 
INSTRUMENTAL_DAMPING: 
FULL_SCALE_G: 
N_BIT_DIGITAL_CONVERTER: 
PGD_CM: 2.008317
TIME_PGD_S: 14.340000
BASELINE_CORRECTION: BASELINE REMOVED
FILTER_TYPE: BUTTERWORTH
FILTER_ORDER: 2
LOW_CUT_FREQUENCY_HZ: 0.050
HIGH_CUT_FREQUENCY_HZ: 15.000
LATE/NORMAL_TRIGGERED: NT
DATABASE_VERSION: DYNA 1.0
HEADER_FORMAT: DYNA 1.2
DATA_TYPE: DISPLACEMENT
PROCESSING: manual (Paolucci et al., 2011)
DATA_TIMESTAMP_YYYYMMDD_HHMMSS: 20191119_160111.228
DATA_LICENSE: CC-BY3_0-IT (http://creativecommons.org/licenses/by/3.0/deed.en)
DATA_CITATION: Luzi L, Puglia R, Russo E & ORFEUS WG5 (2016). Engineering Strong Motion Database. Istituto Nazionale di Geofisica e Vulcanologia, Observatories & Research Facilities for European Seismology. doi: 10.13127/ESM
DATA_CREATOR: ESM working group
ORIGINAL_DATA_MEDIATOR_CITATION: Ufficio Rischio Sismico e Vulcanico del Dipartimento della Protezione Civile (http://www.protezionecivile.gov.it/)
ORIGINAL_DATA_MEDIATOR: http://www.mot1.it/randownload/
ORIGINAL_DATA_CREATOR_CITATION: Italian Strong Motion Network, Italian Civil Protection Department http://www.protezionecivile.gov.it
ORIGINAL_DATA_CREATOR: network: IT (Italian Strong Motion Network); owner: Dipartimento Della Protezione Civile
USER1: /home/dyna/processing-itaca/processing.py /var/www/processing//tmp/rodolfo//IT.MTR..HGE.D.20160824.013632.X.ACC.ASC /var/www/processing//tmp/rodolfo//IT.MTR..HGN.D.20160824.013632.X.ACC.ASC /var/www/processing//tmp/rodolfo//IT.MTR..HGZ.D.20160824.013632.X.ACC.ASC --tmp /var/www/processing//tmp/rodolfo/ --le 0.050 --he 15 --ln 0.050 --hn 15 --lz 0.050 --hz 15 --fo 2 --ca 0 --cz 58.2 --ta 5 --tz 5 --mf 1 --rf 0.020 --tr NT
USER2: 
USER3: 
USER4: 
USER5: 
0.000000e+00
-4.867260e-06
-1.945123e-05
-4.371955e-05
-7.763249e-05
-1.211430e-04
-1.741971e-04
-2.367337e-04
-3.086851e-04
-3.899768e-04
-4.805283e-04
-5.802528e-04
-6.890574e-04
-8.068438e-04
-9.335082e-04
-1.068941e-03
-1.213029e-03
-1.365653e-03
-1.526688e-03
-1.696009e-03
-1.873481e-03
-2.058971e-03
-2.252339e-03
-2.453442e-03
-2.662134e-03
-2.878265e-03
-3.101683e-03
-3.332233e-03
-3.569759e-03
-3.814101e-03
-4.065099e-03
-4.322590e-03
-4.586411e-03
-4.856392e-03
-5.132359e-03
-5.414144e-03
-5.701571e-03
-5.994462e-03
-6.292636e-03
-6.595912e-03
-6.904110e-03
-7.217057e-03
-7.534583e-03
-7.856516e-03
-8.182670e-03
-8.512835e-03
-8.846805e-03
-9.184397e-03
-9.525420e-03
-9.869665e-03
-1.021693e-02
-1.056704e-02
-1.091979e-02
-1.127492e-02
-1.163224e-02
-1.199158e-02
-1.235270e-02
-1.271529e-02
-1.307909e-02
-1.344394e-02
-1.380970e-02
-1.417612e-02
-1.454284e-02
-1.490952e-02
-1.527593e-02
-1.564188e-02
-1.600719e-02
-1.637157e-02
-1.673460e-02
-1.709602e-02
-1.745576e-02
-1.781361e-02
-1.816912e-02
-1.852202e-02
-1.887216e-02
-1.921906e-02
-1.956217e-02
-1.990137e-02
-2.023683e-02
-2.056834e-02
-2.089534e-02
-2.121725e-02
-2.153360e-02
-2.184410e-02
-2.214858e-02
-2.244702e-02
-2.273950e-02
-2.302580e-02
-2.330511e-02
-2.357680e-02
-2.384094e-02
-2.409775e-02
-2.434708e-02
-2.458862e-02
-2.482198e-02
-2.504670e-02
-2.526241e-02
-2.546883e-02
-2.566585e-02
-2.585340e-02
-2.603121e-02
-2.619937e-02
-2.635832e-02
-2.650759e-02
-2.664600e-02
-2.677318e-02
-2.688940e-02
-2.699461e-02
-2.708890e-02
-2.717237e-02
-2.724451e-02
-2.730525e-02
-2.735508e-02
-2.739910e-02
-2.744183e-02
-2.748309e-02
-2.752309e-02
-2.756171e-02
-2.759907e-02
-2.763587e-02
-2.767237e-02
-2.770783e-02
-2.774182e-02
-2.777513e-02
-2.780851e-02
-2.784168e-02
-2.787421e-02
-2.790593e-02
-2.793669e-02
-2.796632e-02
-2.799497e-02
-2.802312e-02
-2.805123e-02
-2.807910e-02
-2.810621e-02
-2.813187e-02
-2.815555e-02
-2.817781e-02
-2.819989e-02
-2.822200e-02
-2.824340e-02
-2.826371e-02
-2.828272e-02
-2.830021e-02
-2.831667e-02
-2.833271e-02
-2.834790e-02
-2.836158e-02
-2.837398e-02
-2.838546e-02
-2.839580e-02
-2.840520e-02
-2.841412e-02
-2.842236e-02
-2.842968e-02
-2.843644e-02
-2.844270e-02
-2.844855e-02
-2.845437e-02
-2.845977e-02
-2.846402e-02
-2.846740e-02
-2.847067e-02
-2.847402e-02
-2.847730e-02
-2.848050e-02
-2.848361e-02
-2.848626e-02
-2.848804e-02
-2.848888e-02
-2.848874e-02
-2.848752e-02
-2.848549e-02
-2.848268e-02
-2.847885e-02
-2.847430e-02
-2.846955e-02
-2.846429e-02
-2.845815e-02
-2.845173e-02
-2.844557e-02
-2.843915e-02
-2.843162e-02
-2.842285e-02
-2.841327e-02
-2.840344e-02
-2.839382e-02
-2.838445e-02
-2.837515e-02
-2.836588e-02
-2.835676e-02
-2.834788e-02
-2.833912e-02
-2.833025e-02
-2.832122e-02
-2.831209e-02
-2.830274e-02
-2.829343e-02
-2.828477e-02
-2.827653e-02
-2.826795e-02
-2.825917e-02
-2.825099e-02
-2.824335e-02
-2.823555e-02
-2.822726e-02
-2.821867e-02
-2.821004e-02
-2.820129e-02
-2.819224e-02
-2.818292e-02
-2.817356e-02
-2.816419e-02
-2.815472e-02
-2.814524e-02
-2.813580e-02
-2.812632e-02
-2.811683e-02
-2.810719e-02
-2.809710e-02
-2.808651e-02
-2.807545e-02
-2.806397e-02
-2.805228e-02
-2.804043e-02
-2.802842e-02
-2.801648e-02
-2.800457e-02
-2.799250e-02
-2.798038e-02
-2.796806e-02
-2.795519e-02
-2.794215e-02
-2.792965e-02
-2.791766e-02
-2.790572e-02
-2.789361e-02
-2.788148e-02
-2.786961e-02
-2.785785e-02
-2.784581e-02
-2.783329e-02
-2.782046e-02
-2.780791e-02
-2.779573e-02
-2.778313e-02
-2.776995e-02
-2.775691e-02
-2.774384e-02
-2.772994e-02
-2.771520e-02
-2.770001e-02
-2.768456e-02
-2.766928e-02
-2.765449e-02
-2.764015e-02
-2.762614e-02
-2.761225e-02
-2.759816e-02
-2.758374e-02
-2.756923e-02
-2.755466e-02
-2.753959e-02
-2.752378e-02
-2.750787e-02
-2.749245e-02
-2.747721e-02
-2.746151e-02
-2.744510e-02
-2.742822e-02
-2.741115e-02
-2.739379e-02
-2.737599e-02
-2.735785e-02
-2.733948e-02
-2.732119e-02
-2.730343e-02
-2.728613e-02
-2.726898e-02
-2.725221e-02
-2.723622e-02
-2.722063e-02
-2.720461e-02
-2.718801e-02
-2.717136e-02
-2.715503e-02
-2.713933e-02
-2.712618e-02
-2.711937e-02
-2.711941e-02
-2.711790e-02
-2.710704e-02
-2.709836e-02
-2.711273e-02
-2.714147e-02
-2.714312e-02
-2.709932e-02
-2.705001e-02
-2.703278e-02
-2.700070e-02
-2.688131e-02
-2.672675e-02
-2.667404e-02
-2.672247e-02
-2.671734e-02
-2.659811e-02
-2.648954e-02
-2.650586e-02
-2.660338e-02
-2.665655e-02
-2.660320e-02
-2.648895e-02
-2.639902e-02
-2.640977e-02
-2.657118e-02
-2.682003e-02
-2.701359e-02
-2.715961e-02
-2.741263e-02
-2.779164e-02
-2.815282e-02
-2.848461e-02
-2.898246e-02
-2.967372e-02
-3.023846e-02
-3.049268e-02
-3.066324e-02
-3.088004e-02
-3.090158e-02
-3.054686e-02
-2.991633e-02
-2.909638e-02
-2.802154e-02
-2.672678e-02
-2.542497e-02
-2.413804e-02
-2.260195e-02
-2.075183e-02
-1.879572e-02
-1.665580e-02
-1.394588e-02
-1.058763e-02
-6.868700e-03
-2.835930e-03
1.785876e-03
7.012547e-03
1.257184e-02
1.831870e-02
2.397418e-02
2.894218e-02
3.317633e-02
3.777119e-02
4.408226e-02
5.228217e-02
6.099296e-02
6.871705e-02
7.568445e-02
8.366363e-02
9.375360e-02
1.050591e-01
1.159182e-01
1.258367e-01
1.356087e-01
1.460692e-01
1.577547e-01
1.714416e-01
1.876200e-01
2.054847e-01
2.236210e-01
2.414106e-01
2.588646e-01
2.754362e-01
2.894986e-01
2.992910e-01
3.047131e-01
3.073084e-01
3.079955e-01
3.064291e-01
3.030527e-01
2.995914e-01
2.968220e-01
2.943386e-01
2.928171e-01
2.928891e-01
2.923667e-01
2.893818e-01
2.862618e-01
2.854634e-01
2.852664e-01
2.832402e-01
2.798690e-01
2.767371e-01
2.743006e-01
2.720620e-01
2.695075e-01
2.666712e-01
2.639795e-01
2.618362e-01
2.598469e-01
2.564766e-01
2.512546e-01
2.462561e-01
2.425985e-01
2.376202e-01
2.284767e-01
2.159096e-01
2.026456e-01
1.908708e-01
1.814285e-01
1.734640e-01
1.661114e-01
1.606318e-01
1.586029e-01
1.591549e-01
1.599895e-01
1.601424e-01
1.609420e-01
1.635549e-01
1.657357e-01
1.645956e-01
1.620719e-01
1.622408e-01
1.647689e-01
1.656342e-01
1.626084e-01
1.578234e-01
1.550050e-01
1.546233e-01
1.539877e-01
1.517911e-01
1.494495e-01
1.490663e-01
1.512251e-01
1.526419e-01
1.484295e-01
1.390826e-01
1.301829e-01
1.243335e-01
1.193125e-01
1.133392e-01
1.070262e-01
1.013488e-01
9.658799e-02
9.215670e-02
8.615147e-02
7.602128e-02
6.123387e-02
4.418728e-02
2.634965e-02
6.456169e-03
-1.528487e-02
-3.607692e-02
-5.485668e-02
-7.315192e-02
-9.207764e-02
-1.119146e-01
-1.334575e-01
-1.570326e-01
-1.813961e-01
-2.054033e-01
-2.287120e-01
-2.504309e-01
-2.701050e-01
-2.889997e-01
-3.079470e-01
-3.264346e-01
-3.447105e-01
-3.629231e-01
-3.789349e-01
-3.921718e-01
-4.071770e-01
-4.274773e-01
-4.504609e-01
-4.733891e-01
-4.976734e-01
-5.236467e-01
-5.489840e-01
-5.744868e-01
-6.041089e-01
-6.381219e-01
-6.719674e-01
-7.016922e-01
-7.254694e-01
-7.405970e-01
-7.445897e-01
-7.401075e-01
-7.350140e-01
-7.357838e-01
-7.430891e-01
-7.553655e-01
-7.724773e-01
-7.936038e-01
-8.162284e-01
-8.366417e-01
-8.484040e-01
-8.468127e-01
-8.362317e-01
-8.241201e-01
-8.102185e-01
-7.900170e-01
-7.633697e-01
-7.335173e-01
-7.028058e-01
-6.714889e-01
-6.376554e-01
-5.993345e-01
-5.571053e-01
-5.121437e-01
-4.633882e-01
-4.102601e-01
-3.564955e-01
-3.074539e-01
-2.641574e-01
-2.233763e-01
-1.838444e-01
-1.489827e-01
-1.226908e-01
-1.046719e-01
-9.029391e-02
-7.485062e-02
-5.718145e-02
-3.746614e-02
-1.393924e-02
1.605884e-02
5.419844e-02
9.913527e-02
1.449057e-01
1.861982e-01
2.250026e-01
2.659881e-01
3.078165e-01
3.456971e-01
3.796873e-01
4.144297e-01
4.530075e-01
4.945647e-01
5.358444e-01
5.740903e-01
6.085272e-01
6.392246e-01
6.680581e-01
6.989312e-01
7.323500e-01
7.648440e-01
7.958943e-01
8.274391e-01
8.570155e-01
8.798391e-01
8.957801e-01
9.070400e-01
9.125791e-01
9.116985e-01
9.076846e-01
9.015733e-01
8.891892e-01
8.689842e-01
8.454764e-01
8.232600e-01
8.045104e-01
7.903554e-01
7.781024e-01
7.610887e-01
7.352272e-01
7.014166e-01
6.624773e-01
6.214085e-01
5.796195e-01
5.368641e-01
4.940937e-01
4.521885e-01
4.106083e-01
3.715071e-01
3.386780e-01
3.120453e-01
2.899523e-01
2.723521e-01
2.576889e-01
2.429099e-01
2.280378e-01
2.165207e-01
2.095661e-01
2.026628e-01
1.914168e-01
1.778177e-01
1.661888e-01
1.562773e-01
1.436670e-01
1.262550e-01
1.076203e-01
9.065696e-02
7.186513e-02
4.736223e-02
1.936437e-02
-7.364733e-03
-3.103806e-02
-5.274769e-02
-7.186997e-02
-8.316225e-02
-8.156697e-02
-6.797198e-02
-4.697049e-02
-2.319385e-02
-1.512958e-03
1.453535e-02
2.503436e-02
3.108269e-02
3.088583e-02
2.055575e-02
-8.485339e-04
-2.845883e-02
-5.631681e-02
-8.274538e-02
-1.076077e-01
-1.293112e-01
-1.485887e-01
-1.701674e-01
-1.982522e-01
-2.331781e-01
-2.730347e-01
-3.175396e-01
-3.683883e-01
-4.250712e-01
-4.840581e-01
-5.428156e-01
-6.009073e-01
-6.577183e-01
-7.117739e-01
-7.628521e-01
-8.139051e-01
-8.676830e-01
-9.219403e-01
-9.723869e-01
-1.017814e+00
-1.058639e+00
-1.094399e+00
-1.124636e+00
-1.149658e+00
-1.169959e+00
-1.185123e+00
-1.193366e+00
-1.193263e+00
-1.185469e+00
-1.171738e+00
-1.153542e+00
-1.132613e+00
-1.111723e+00
-1.093726e+00
-1.079315e+00
-1.066791e+00
-1.055597e+00
-1.048435e+00
-1.047850e+00
-1.053266e+00
-1.063689e+00
-1.080611e+00
-1.105681e+00
-1.136822e+00
-1.168453e+00
-1.196200e+00
-1.220225e+00
-1.242302e+00
-1.262033e+00
-1.278352e+00
-1.291471e+00
-1.300836e+00
-1.304553e+00
-1.303234e+00
-1.300121e+00
-1.295441e+00
-1.286739e+00
-1.274796e+00
-1.262028e+00
-1.247511e+00
-1.228527e+00
-1.203190e+00
-1.170210e+00
-1.129081e+00
-1.080919e+00
-1.029386e+00
-9.791205e-01
-9.306809e-01
-8.807152e-01
-8.282416e-01
-7.744034e-01
-7.174959e-01
-6.556356e-01
-5.915044e-01
-5.286789e-01
-4.658863e-01
-3.984098e-01
-3.242096e-01
-2.460442e-01
-1.663455e-01
-8.317264e-02
6.251578e-03
1.022032e-01
2.047748e-01
3.142747e-01
4.287601e-01
5.467345e-01
6.703902e-01
8.009347e-01
9.338127e-01
1.061811e+00
1.180543e+00
1.290532e+00
1.394997e+00
1.495282e+00
1.589579e+00
1.675995e+00
1.753990e+00
1.822983e+00
1.882039e+00
1.930437e+00
1.967440e+00
1.992381e+00
2.005530e+00
2.008317e+00
2.002243e+00
1.987491e+00
1.963247e+00
1.930212e+00
1.891678e+00
1.850735e+00
1.808522e+00
1.765893e+00
1.723407e+00
1.680084e+00
1.635326e+00
1.590708e+00
1.548470e+00
1.509706e+00
1.473629e+00
1.438534e+00
1.404419e+00
1.372569e+00
1.342589e+00
1.313234e+00
1.284631e+00
1.257331e+00
1.231662e+00
1.207880e+00
1.184526e+00
1.158782e+00
1.129720e+00
1.098374e+00
1.064724e+00
1.026769e+00
9.821442e-01
9.306276e-01
8.747770e-01
8.163679e-01
7.542331e-01
6.876355e-01
6.185197e-01
5.496621e-01
4.828724e-01
4.181551e-01
3.541843e-01
2.903390e-01
2.266760e-01
1.616906e-01
9.308358e-02
2.159866e-02
-4.870796e-02
-1.152883e-01
-1.795119e-01
-2.431783e-01
-3.059247e-01
-3.668494e-01
-4.255551e-01
-4.816871e-01
-5.350364e-01
-5.852391e-01
-6.318675e-01
-6.753925e-01
-7.165709e-01
-7.553673e-01
-7.909187e-01
-8.212444e-01
-8.447103e-01
-8.628867e-01
-8.788612e-01
-8.928398e-01
-9.027545e-01
-9.080930e-01
-9.096820e-01
-9.066516e-01
-8.971746e-01
-8.819273e-01
-8.637811e-01
-8.442378e-01
-8.226583e-01
-7.988021e-01
-7.736184e-01
-7.475504e-01
-7.203382e-01
-6.921523e-01
-6.635044e-01
-6.347598e-01
-6.058854e-01
-5.763191e-01
-5.458334e-01
-5.147858e-01
-4.827599e-01
-4.491166e-01
-4.151567e-01
-3.825044e-01
-3.499286e-01
-3.155528e-01
-2.805493e-01
-2.471671e-01
-2.157572e-01
-1.861550e-01
-1.592571e-01
-1.360620e-01
-1.168654e-01
-1.016462e-01
-9.043126e-02
-8.283662e-02
-7.720326e-02
-7.113604e-02
-6.349282e-02
-5.468114e-02
-4.517591e-02
-3.560400e-02
-2.690715e-02
-1.843428e-02
-8.074053e-03
5.084204e-03
2.087446e-02
3.989124e-02
6.250895e-02
8.728554e-02
1.123064e-01
1.369837e-01
1.611108e-01
1.835782e-01
2.034630e-01
2.211974e-01
2.383398e-01
2.568493e-01
2.772581e-01
2.979110e-01
3.179483e-01
3.387603e-01
3.604627e-01
3.806872e-01
3.985331e-01
4.154879e-01
4.317054e-01
4.452193e-01
4.544635e-01
4.591620e-01
4.599159e-01
4.576644e-01
4.528227e-01
4.454536e-01
4.358777e-01
4.242812e-01
4.104002e-01
3.935427e-01
3.731569e-01
3.506404e-01
3.290711e-01
3.097054e-01
2.914601e-01
2.743614e-01
2.598505e-01
2.477234e-01
2.360722e-01
2.242479e-01
2.137775e-01
2.061707e-01
2.013652e-01
1.988485e-01
1.983890e-01
1.989492e-01
1.994904e-01
2.009401e-01
2.041998e-01
2.077711e-01
2.105335e-01
2.135634e-01
2.170630e-01
2.195954e-01
2.208979e-01
2.216674e-01
2.210092e-01
2.170658e-01
2.095653e-01
1.991936e-01
1.851661e-01
1.663237e-01
1.437460e-01
1.196173e-01
9.466001e-02
6.827987e-02
4.018214e-02
1.089313e-02
-1.923491e-02
-5.076260e-02
-8.429426e-02
-1.195602e-01
-1.558942e-01
-1.930277e-01
-2.310004e-01
-2.696342e-01
-3.083191e-01
-3.462676e-01
-3.830872e-01
-4.188529e-01
-4.535371e-01
-4.866602e-01
-5.172285e-01
-5.445957e-01
-5.699214e-01
-5.947384e-01
-6.178666e-01
-6.367958e-01
-6.512590e-01
-6.621438e-01
-6.689882e-01
-6.715291e-01
-6.709986e-01
-6.677209e-01
-6.601604e-01
-6.477735e-01
-6.324151e-01
-6.159528e-01
-5.984706e-01
-5.793366e-01
-5.583450e-01
-5.355627e-01
-5.109324e-01
-4.840167e-01
-4.542411e-01
-4.216717e-01
-3.872794e-01
-3.523990e-01
-3.182464e-01
-2.857659e-01
-2.551254e-01
-2.255417e-01
-1.967232e-01
-1.696845e-01
-1.451949e-01
-1.233638e-01
-1.049294e-01
-9.013896e-02
-7.722379e-02
-6.446598e-02
-5.183428e-02
-3.939894e-02
-2.652315e-02
-1.272018e-02
1.678784e-03
1.529123e-02
2.724551e-02
3.874784e-02
5.135520e-02
6.552097e-02
8.125322e-02
9.776405e-02
1.139437e-01
1.300716e-01
1.466796e-01
1.631774e-01
1.793785e-01
1.958007e-01
2.123355e-01
2.289191e-01
2.462611e-01
2.647066e-01
2.838709e-01
3.032874e-01
3.223296e-01
3.401856e-01
3.567118e-01
3.730405e-01
3.903163e-01
4.077555e-01
4.236493e-01
4.375920e-01
4.493697e-01
4.575647e-01
4.613257e-01
4.614107e-01
4.588739e-01
4.540228e-01
4.464180e-01
4.359856e-01
4.238690e-01
4.109983e-01
3.971528e-01
3.827435e-01
3.693166e-01
3.577966e-01
3.487303e-01
3.431468e-01
3.408221e-01
3.400737e-01
3.404560e-01
3.431645e-01
3.491128e-01
3.579772e-01
3.684425e-01
3.796094e-01
3.919410e-01
4.058172e-01
4.205974e-01
4.359921e-01
4.524171e-01
4.699393e-01
4.885188e-01
5.079417e-01
5.266269e-01
5.431752e-01
5.588246e-01
5.753562e-01
5.922817e-01
6.085424e-01
6.243293e-01
6.396251e-01
6.534040e-01
6.650016e-01
6.748272e-01
6.837473e-01
6.922382e-01
6.997622e-01
7.049237e-01
7.065606e-01
7.049368e-01
7.017046e-01
6.981202e-01
6.934971e-01
6.857883e-01
6.732419e-01
6.556774e-01
6.345477e-01
6.111435e-01
5.849411e-01
5.547088e-01
5.206137e-01
4.841456e-01
4.466402e-01
4.086764e-01
3.703213e-01
3.313569e-01
2.913863e-01
2.501583e-01
2.081125e-01
1.662451e-01
1.252111e-01
8.502036e-02
4.538481e-02
5.841644e-03
-3.378434e-02
-7.263936e-02
-1.094613e-01
-1.440541e-01
-1.773062e-01
-2.098598e-01
-2.414971e-01
-2.719019e-01
-3.012181e-01
-3.294868e-01
-3.565252e-01
-3.825931e-01
-4.081435e-01
-4.330643e-01
-4.568140e-01
-4.789176e-01
-4.991837e-01
-5.178029e-01
-5.351332e-01
-5.511011e-01
-5.648323e-01
-5.751541e-01
-5.815903e-01
-5.846933e-01
-5.855034e-01
-5.847217e-01
-5.822368e-01
-5.777741e-01
-5.717238e-01
-5.645912e-01
-5.564078e-01
-5.470906e-01
-5.362799e-01
-5.233751e-01
-5.088000e-01
-4.938815e-01
-4.790753e-01
-4.640577e-01
-4.490071e-01
-4.341422e-01
-4.192801e-01
-4.048589e-01
-3.917754e-01
-3.798563e-01
-3.678417e-01
-3.547748e-01
-3.405753e-01
-3.255228e-01
-3.097193e-01
-2.930240e-01
-2.752963e-01
-2.566938e-01
-2.378511e-01
-2.196380e-01
-2.024590e-01
-1.858740e-01
-1.692736e-01
-1.529089e-01
-1.378113e-01
-1.246652e-01
-1.132690e-01
-1.030164e-01
-9.335289e-02
-8.390515e-02
-7.450006e-02
-6.506530e-02
-5.559582e-02
-4.600618e-02
-3.583614e-02
-2.457413e-02
-1.221529e-02
1.144032e-03
1.578214e-02
3.163301e-02
4.782063e-02
6.353617e-02
7.864208e-02
9.332140e-02
1.077462e-01
1.218898e-01
1.355158e-01
1.484720e-01
1.606838e-01
1.720335e-01
1.827501e-01
1.934124e-01
2.039261e-01
2.131547e-01
2.201440e-01
2.248206e-01
2.272826e-01
2.278067e-01
2.274908e-01
2.273672e-01
2.272602e-01
2.266983e-01
2.260042e-01
2.254461e-01
2.244316e-01
2.223565e-01
2.193562e-01
2.158860e-01
2.122683e-01
2.086963e-01
2.051195e-01
2.012514e-01
1.972345e-01
1.939482e-01
1.920491e-01
1.912058e-01
1.907466e-01
1.904432e-01
1.903062e-01
1.901777e-01
1.899051e-01
1.897165e-01
1.900666e-01
1.909324e-01
1.916974e-01
1.920784e-01
1.924698e-01
1.931895e-01
1.942314e-01
1.955108e-01
1.967914e-01
1.981020e-01
2.001373e-01
2.031535e-01
2.060873e-01
2.079351e-01
2.091750e-01
2.108234e-01
2.129329e-01
2.148829e-01
2.164343e-01
2.176031e-01
2.180069e-01
2.172757e-01
2.157274e-01
2.139847e-01
2.123736e-01
2.107999e-01
2.088323e-01
2.062486e-01
2.033579e-01
2.003573e-01
1.970060e-01
1.930236e-01
1.883018e-01
1.830638e-01
1.776593e-01
1.717586e-01
1.644204e-01
1.551370e-01
1.442368e-01
1.323181e-01
1.195069e-01
1.053889e-01
8.976163e-02
7.304382e-02
5.584141e-02
3.869707e-02
2.230240e-02
7.393996e-03
-5.789581e-03
-1.775653e-02
-2.906807e-02
-3.935091e-02
-4.766236e-02
-5.389057e-02
-5.874290e-02
-6.237511e-02
-6.446083e-02
-6.549249e-02
-6.642135e-02
-6.727234e-02
-6.745418e-02
-6.680641e-02
-6.534003e-02
-6.282794e-02
-5.937458e-02
-5.568750e-02
-5.241201e-02
-4.954257e-02
-4.654630e-02
-4.294367e-02
-3.878234e-02
-3.458250e-02
-3.089282e-02
-2.784684e-02
-2.508142e-02
-2.228990e-02
-1.980476e-02
-1.822753e-02
-1.767686e-02
-1.800023e-02
-1.944968e-02
-2.234079e-02
-2.627778e-02
-3.062647e-02
-3.550661e-02
-4.136234e-02
-4.788245e-02
-5.443155e-02
-6.129558e-02
-6.928082e-02
-7.820050e-02
-8.706138e-02
-9.565078e-02
-1.047112e-01
-1.147191e-01
-1.254027e-01
-1.361977e-01
-1.466430e-01
-1.565099e-01
