EVENT_NAME: CENTRAL_ITALY
EVENT_ID: EMSC-20160824_0000006
EVENT_DATE_YYYYMMDD: 20160824
EVENT_TIME_HHMMSS: 013632
EVENT_LATITUDE_DEGREE: 42.6983
EVENT_LONGITUDE_DEGREE: 13.2335
EVENT_DEPTH_KM: 8.1
HYPOCENTER_REFERENCE: INGV-CNT_Seismic_Bulletin
MAGNITUDE_W: 6.0
MAGNITUDE_W_REFERENCE: INGV-webservice
MAGNITUDE_L: 6.0
MAGNITUDE_L_REFERENCE: INGV-CNT_Seismic_Bulletin
FOCAL_MECHANISM: NF
NETWORK: IT
STATION_CODE: MTR
STATION_NAME: MONTEREALE
STATION_LATITUDE_DEGREE: 42.524021
STATION_LONGITUDE_DEGREE: 13.244796
STATION_ELEVATION_M: 975
LOCATION: 
SENSOR_DEPTH_M: 0.0
VS30_M/S: 
SITE_CLASSIFICATION_EC8: B*
MORPHOLOGIC_CLASSIFICATION: R
EPICENTRAL_DISTANCE_KM: 19.4
EARTHQUAKE_BACKAZIMUTH_DEGREE: 357.3
DATE_TIME_FIRST_SAMPLE_YYYYMMDD_HHMMSS: 20160824_013630.795
DATE_TIME_FIRST_SAMPLE_PRECISION: milliseconds
SAMPLING_INTERVAL_S: 0.020000
NDATA: 2250
DURATION_S: 45.000
STREAM: HGZ
UNITS: cm/s
INSTRUMENT: sensor = Unknown [Unknown] | digitizer = Unknown [Unknown]
INSTRUMENT_ANALOG/DIGITAL: D
INSTRUMENTAL_FREQUENCY_HZ: 
INSTRUMENTAL_DAMPING: 
FULL_SCALE_G: 
N_BIT_DIGITAL_CONVERTER: 
PGV_CM/S: 6.643900
TIME_PGV_S: 14.040000
BASELINE_CORRECTION: BASELINE REMOVED
FILTER_TYPE: BUTTERWORTH
FILTER_ORDER: 2
LOW_CUT_FREQUENCY_HZ: 0.050
HIGH_CUT_FREQUENCY_HZ: 15.000
LATE/NORMAL_TRIGGERED: NT
DATABASE_VERSION: DYNA 1.0
HEADER_FORMAT: DYNA 1.2
DATA_TYPE: VELOCITY
PROCESSING: manual (Paolucci et al., 2011)
DATA_TIMESTAMP_YYYYMMDD_HHMMSS: 20191119_160111.228
DATA_LICENSE: CC-BY3_0-IT (http://creativecommons.org/licenses/by/3.0/deed.en)
DATA_CITATION: Luzi L, Puglia R, Russo E & ORFEUS WG5 (2016). Engineering Strong Motion Database. Istituto Nazionale di Geofisica e Vulcanologia, Observatories & Research Facilities for European Seismology. doi: 10.13127/ESM
DATA_CREATOR: ESM working group
ORIGINAL_DATA_MEDIATOR_CITATION: Ufficio Rischio Sismico e Vulcanico del Dipartimento della Protezione Civile (http://www.protezionecivile.gov.it/)
ORIGINAL_DATA_MEDIATOR: http://www.mot1.it/randownload/
ORIGINAL_DATA_CREATOR_CITATION: Italian Strong Motion Network, Italian Civil Protection Department http://www.protezionecivile.gov.it
ORIGINAL_DATA_CREATOR: network: IT (Italian Strong Motion Network); owner: Dipartimento Della Protezione Civile
USER1: /home/dyna/processing-itaca/processing.py /var/www/processing//tmp/rodolfo//IT.MTR..HGE.D.20160824.013632.X.ACC.ASC /var/www/processing//tmp/rodolfo//IT.MTR..HGN.D.20160824.013632.X.ACC.ASC /var/www/processing//tmp/rodolfo//IT.MTR..HGZ.D.20160824.013632.X.ACC.ASC --tmp /var/www/processing//tmp/rodolfo/ --le 0.050 --he 15 --ln 0.050 --hn 15 --lz 0.050 --hz 15 --fo 2 --ca 0 --cz 58.2 --ta 5 --tz 5 --mf 1 --rf 0.020 --tr NT
USER2: 
USER3: 
USER4: 
USER5: 
0.000000
-0.000243
-0.000729
-0.001213
-0.001696
-0.002176
-0.002653
-0.003127
-0.003598
-0.004065
-0.004528
-0.004986
-0.005440
-0.005889
-0.006333
-0.006772
-0.007204
-0.007631
-0.008052
-0.008466
-0.008874
-0.009274
-0.009668
-0.010055
-0.010435
-0.010807
-0.011171
-0.011528
-0.011876
-0.012217
-0.012550
-0.012875
-0.013191
-0.013499
-0.013798
-0.014089
-0.014371
-0.014645
-0.014909
-0.015164
-0.015410
-0.015647
-0.015876
-0.016097
-0.016308
-0.016508
-0.016699
-0.016880
-0.017051
-0.017212
-0.017363
-0.017506
-0.017637
-0.017757
-0.017866
-0.017967
-0.018056
-0.018130
-0.018190
-0.018243
-0.018288
-0.018321
-0.018336
-0.018334
-0.018320
-0.018297
-0.018266
-0.018219
-0.018152
-0.018071
-0.017987
-0.017892
-0.017776
-0.017645
-0.017507
-0.017345
-0.017156
-0.016960
-0.016773
-0.016576
-0.016350
-0.016095
-0.015818
-0.015525
-0.015224
-0.014922
-0.014624
-0.014315
-0.013966
-0.013584
-0.013207
-0.012841
-0.012467
-0.012077
-0.011668
-0.011236
-0.010785
-0.010321
-0.009851
-0.009377
-0.008891
-0.008408
-0.007947
-0.007464
-0.006920
-0.006359
-0.005811
-0.005260
-0.004715
-0.004173
-0.003607
-0.003037
-0.002492
-0.002201
-0.002136
-0.002063
-0.002000
-0.001931
-0.001868
-0.001840
-0.001825
-0.001773
-0.001699
-0.001665
-0.001669
-0.001659
-0.001626
-0.001586
-0.001538
-0.001482
-0.001432
-0.001408
-0.001405
-0.001394
-0.001355
-0.001283
-0.001184
-0.001113
-0.001104
-0.001105
-0.001070
-0.001016
-0.000950
-0.000874
-0.000823
-0.000802
-0.000759
-0.000684
-0.000620
-0.000574
-0.000517
-0.000470
-0.000446
-0.000412
-0.000366
-0.000338
-0.000313
-0.000292
-0.000291
-0.000270
-0.000212
-0.000169
-0.000164
-0.000168
-0.000164
-0.000160
-0.000155
-0.000133
-0.000089
-0.000042
0.000007
0.000061
0.000102
0.000140
0.000192
0.000227
0.000238
0.000263
0.000307
0.000321
0.000308
0.000321
0.000377
0.000439
0.000479
0.000491
0.000481
0.000468
0.000465
0.000464
0.000456
0.000444
0.000438
0.000443
0.000451
0.000457
0.000468
0.000465
0.000433
0.000412
0.000429
0.000439
0.000409
0.000382
0.000390
0.000415
0.000429
0.000432
0.000437
0.000453
0.000466
0.000468
0.000468
0.000474
0.000474
0.000472
0.000474
0.000474
0.000482
0.000505
0.000530
0.000553
0.000574
0.000585
0.000593
0.000600
0.000597
0.000595
0.000604
0.000606
0.000616
0.000644
0.000652
0.000625
0.000599
0.000597
0.000606
0.000606
0.000593
0.000588
0.000602
0.000626
0.000642
0.000628
0.000609
0.000630
0.000659
0.000652
0.000653
0.000695
0.000737
0.000760
0.000772
0.000764
0.000739
0.000717
0.000701
0.000695
0.000705
0.000721
0.000726
0.000728
0.000754
0.000791
0.000795
0.000771
0.000762
0.000785
0.000820
0.000844
0.000854
0.000868
0.000890
0.000907
0.000918
0.000915
0.000888
0.000865
0.000858
0.000838
0.000799
0.000780
0.000801
0.000830
0.000833
0.000816
0.000785
0.000658
0.000340
-0.000002
0.000076
0.000543
0.000434
-0.000719
-0.001437
-0.000082
0.002190
0.002465
0.000861
0.001604
0.005970
0.007728
0.002636
-0.002422
0.000257
0.005961
0.005428
-0.000816
-0.004876
-0.002658
0.002667
0.005712
0.004497
-0.000537
-0.008071
-0.012443
-0.009678
-0.007301
-0.012651
-0.018951
-0.018059
-0.016590
-0.024892
-0.034563
-0.028237
-0.012711
-0.008528
-0.010840
-0.001077
0.017736
0.031526
0.040998
0.053742
0.064738
0.065091
0.064347
0.076804
0.092506
0.097805
0.106996
0.135496
0.167912
0.185947
0.201638
0.231090
0.261334
0.277965
0.287343
0.282774
0.248400
0.211707
0.229743
0.315554
0.409996
0.435539
0.386204
0.348370
0.398959
0.504499
0.565273
0.542956
0.495924
0.488604
0.523023
0.584277
0.684341
0.808920
0.893238
0.906812
0.889483
0.872698
0.828581
0.703119
0.489618
0.271108
0.129763
0.034358
-0.078320
-0.168824
-0.173065
-0.138471
-0.124166
-0.076078
0.003599
-0.026118
-0.149247
-0.155998
-0.039921
-0.009851
-0.101309
-0.168561
-0.156591
-0.121825
-0.111930
-0.127724
-0.141818
-0.134583
-0.107167
-0.099463
-0.168515
-0.261097
-0.249928
-0.182880
-0.248915
-0.457172
-0.628359
-0.663196
-0.588742
-0.472115
-0.398227
-0.367626
-0.273981
-0.101447
0.027603
0.041727
0.007645
0.039983
0.130641
0.109043
-0.057007
-0.126184
0.008446
0.126401
0.043266
-0.151289
-0.239249
-0.140922
-0.019083
-0.031780
-0.109832
-0.117077
-0.019164
0.107941
0.070843
-0.210619
-0.467349
-0.444984
-0.292468
-0.251052
-0.298665
-0.315651
-0.283866
-0.238042
-0.221564
-0.300262
-0.506509
-0.739371
-0.852329
-0.891882
-0.994674
-1.087052
-1.039602
-0.938988
-0.914762
-0.946286
-0.991847
-1.077143
-1.178758
-1.218175
-1.200359
-1.165434
-1.085947
-0.983703
-0.944735
-0.947368
-0.924377
-0.913797
-0.910627
-0.800594
-0.661844
-0.750261
-1.015011
-1.149183
-1.146408
-1.214216
-1.298666
-1.266864
-1.275139
-1.481107
-1.700649
-1.692276
-1.486239
-1.188859
-0.756382
-0.199634
0.224110
0.254675
-0.038489
-0.365268
-0.613818
-0.855591
-1.056324
-1.131231
-1.020667
-0.588112
0.079561
0.529049
0.605582
0.695082
1.010076
1.332362
1.492620
1.535577
1.565841
1.691679
1.916045
2.111457
2.248083
2.437776
2.656403
2.688230
2.452081
2.164823
2.039057
1.976596
1.743086
1.314594
0.900946
0.718897
0.772165
0.883458
0.985765
1.176345
1.499904
1.906980
2.246841
2.288521
2.064625
1.940218
2.049276
2.091421
1.894033
1.699506
1.737123
1.928886
2.077862
2.063984
1.912298
1.721843
1.534870
1.441675
1.543653
1.670938
1.624701
1.552518
1.577239
1.478820
1.141179
0.797049
0.562998
0.276953
-0.044030
-0.200694
-0.305567
-0.619205
-1.010250
-1.175389
-1.110821
-0.937478
-0.707750
-0.612653
-0.850684
-1.293076
-1.690527
-1.946967
-2.053442
-2.089447
-2.137769
-2.138523
-2.095260
-2.079009
-1.955059
-1.641454
-1.331637
-1.104651
-0.880010
-0.733156
-0.738954
-0.743601
-0.575859
-0.347727
-0.345165
-0.562300
-0.679954
-0.581448
-0.495575
-0.630512
-0.870603
-0.931734
-0.848167
-0.939591
-1.225145
-1.399893
-1.336455
-1.183667
-1.085481
-0.956114
-0.564614
0.079764
0.679750
1.050075
1.188832
1.084044
0.802415
0.524951
0.302416
-0.009843
-0.516504
-1.070214
-1.380515
-1.392899
-1.321428
-1.243117
-1.085176
-0.963874
-1.078933
-1.404244
-1.746294
-1.992830
-2.225243
-2.542437
-2.834145
-2.949345
-2.937873
-2.904588
-2.840550
-2.702780
-2.553907
-2.552649
-2.688899
-2.712863
-2.522328
-2.271345
-2.041263
-1.787989
-1.511865
-1.251081
-1.015062
-0.758191
-0.412140
0.005142
0.389713
0.686513
0.909820
1.046463
1.044455
0.899894
0.720512
0.626216
0.559712
0.358106
0.029244
-0.270813
-0.521155
-0.846074
-1.253538
-1.557026
-1.581555
-1.387367
-1.201223
-1.103867
-0.986553
-0.815925
-0.655953
-0.468248
-0.185886
0.065991
0.155624
0.233988
0.435125
0.597170
0.638364
0.725838
0.949223
1.266829
1.649017
2.056449
2.408084
2.576661
2.513285
2.421982
2.498282
2.623681
2.691912
2.845375
3.093014
3.206560
3.141276
3.139626
3.373826
3.710012
3.908270
3.984934
4.158643
4.471211
4.797581
5.128581
5.474996
5.724270
5.898716
6.182787
6.527225
6.643900
6.399917
5.936587
5.499455
5.223274
5.014241
4.714833
4.320813
3.899737
3.449664
2.952779
2.419931
1.850154
1.247048
0.657449
0.139336
-0.303728
-0.737564
-1.212233
-1.651720
-1.926709
-2.047153
-2.110626
-2.131468
-2.124286
-2.166171
-2.237890
-2.230904
-2.111902
-1.938197
-1.803876
-1.754740
-1.705724
-1.592536
-1.498970
-1.467758
-1.430133
-1.364991
-1.283457
-1.189101
-1.167741
-1.287162
-1.453092
-1.567333
-1.682466
-1.897786
-2.231227
-2.575829
-2.792530
-2.920456
-3.106741
-3.329877
-3.455789
-3.442883
-3.339486
-3.235864
-3.198541
-3.192263
-3.183148
-3.249272
-3.430351
-3.574246
-3.515331
-3.329019
-3.211177
-3.183323
-3.137320
-3.046233
-2.935284
-2.806599
-2.667465
-2.510137
-2.331417
-2.176253
-2.058917
-1.939825
-1.777568
-1.516285
-1.173296
-0.908816
-0.798728
-0.698929
-0.495733
-0.266924
-0.079450
0.151519
0.473850
0.762363
0.907312
0.977167
1.078974
1.192810
1.259182
1.303400
1.360613
1.409291
1.432397
1.437232
1.443717
1.478318
1.524283
1.552382
1.601295
1.682165
1.697996
1.632615
1.628786
1.718792
1.750174
1.669110
1.570494
1.480114
1.344891
1.159756
0.959831
0.760960
0.560746
0.379732
0.281668
0.303361
0.382161
0.440584
0.475261
0.478595
0.434843
0.423644
0.518011
0.657913
0.789513
0.950839
1.130886
1.238830
1.251044
1.233864
1.206356
1.123367
0.994239
0.886720
0.857121
0.925477
1.020437
1.032644
1.001867
1.040600
1.085122
1.011223
0.892294
0.847741
0.810875
0.675693
0.462212
0.234924
0.037694
-0.112572
-0.242086
-0.368454
-0.478794
-0.579826
-0.694053
-0.842873
-1.019291
-1.125823
-1.078465
-0.968286
-0.912266
-0.854932
-0.725546
-0.606355
-0.582559
-0.591216
-0.523520
-0.380343
-0.240273
-0.125837
-0.022974
0.028011
0.027057
0.072489
0.162981
0.178565
0.138123
0.151494
0.174982
0.126620
0.065124
0.038472
-0.032907
-0.197171
-0.375024
-0.518587
-0.701374
-0.942118
-1.128887
-1.206437
-1.247862
-1.319007
-1.404886
-1.464450
-1.506402
-1.576384
-1.676583
-1.763299
-1.816699
-1.856671
-1.898638
-1.931691
-1.934241
-1.897427
-1.840981
-1.788286
-1.734209
-1.656157
-1.528412
-1.368360
-1.266284
-1.240852
-1.156409
-0.946459
-0.723163
-0.544238
-0.342221
-0.127044
0.026526
0.163884
0.378026
0.619344
0.767920
0.823115
0.874111
0.956700
1.049578
1.139116
1.231515
1.345785
1.488778
1.628473
1.719612
1.744020
1.707633
1.624025
1.532025
1.479182
1.440929
1.351933
1.224480
1.091553
0.921722
0.739522
0.645758
0.637890
0.631585
0.621767
0.643790
0.690148
0.719948
0.680622
0.597714
0.575117
0.630368
0.708289
0.786612
0.825542
0.808983
0.806392
0.830401
0.824893
0.810055
0.821107
0.826741
0.829179
0.867103
0.922275
0.958215
0.970823
0.952112
0.892797
0.826311
0.816435
0.863790
0.871959
0.794694
0.697132
0.588887
0.409747
0.188051
0.004253
-0.126842
-0.242555
-0.380239
-0.521623
-0.605829
-0.643536
-0.692273
-0.720464
-0.671349
-0.575998
-0.453315
-0.279177
-0.116233
-0.037421
0.019114
0.135426
0.297417
0.443220
0.523264
0.558341
0.616582
0.693812
0.739010
0.769735
0.821250
0.876108
0.928977
0.971143
0.934261
0.827417
0.782466
0.826583
0.846274
0.813035
0.789346
0.764789
0.688944
0.579879
0.491278
0.446008
0.424545
0.376200
0.258074
0.081844
-0.081190
-0.161610
-0.179220
-0.231153
-0.385440
-0.627323
-0.878221
-1.056489
-1.170209
-1.310116
-1.511618
-1.704755
-1.823402
-1.875271
-1.898191
-1.917758
-1.948220
-1.998526
-2.061403
-2.102286
-2.093371
-2.051703
-2.009535
-1.981778
-1.977158
-1.981299
-1.942751
-1.841095
-1.729640
-1.662607
-1.627678
-1.581866
-1.520242
-1.465806
-1.413436
-1.351921
-1.303394
-1.277523
-1.246036
-1.187485
-1.105181
-1.013306
-0.930959
-0.866515
-0.798399
-0.686557
-0.516090
-0.321809
-0.155152
-0.040506
0.039088
0.124244
0.223134
0.302513
0.356633
0.409166
0.465861
0.540537
0.645238
0.728757
0.745923
0.740313
0.750878
0.752528
0.743247
0.743104
0.721060
0.654176
0.595955
0.600730
0.653345
0.709976
0.752624
0.790175
0.834761
0.886387
0.930124
0.942136
0.910655
0.858951
0.829247
0.830022
0.818235
0.754879
0.657303
0.569812
0.512631
0.483174
0.472387
0.470254
0.471738
0.473474
0.479482
0.508502
0.563101
0.617942
0.667966
0.731905
0.792543
0.809381
0.785777
0.755296
0.733966
0.721240
0.707181
0.681298
0.647812
0.610590
0.567482
0.535831
0.533117
0.525683
0.461433
0.349462
0.233830
0.123104
0.026202
-0.015792
-0.006181
-0.005350
-0.028097
-0.034704
-0.027904
-0.050726
-0.103756
-0.150014
-0.173509
-0.180885
-0.178602
-0.178839
-0.193406
-0.200846
-0.164316
-0.094953
-0.042167
-0.022958
-0.015170
-0.006847
-0.006428
-0.013630
-0.009429
0.017504
0.043289
0.038250
0.019051
0.019571
0.035982
0.052096
0.063972
0.064029
0.065530
0.101765
0.150810
0.146689
0.092391
0.061994
0.082423
0.105471
0.097499
0.077573
0.058438
0.020190
-0.036560
-0.077413
-0.087138
-0.080551
-0.078687
-0.098378
-0.129184
-0.144538
-0.150030
-0.167565
-0.199118
-0.236093
-0.261897
-0.270227
-0.295032
-0.366910
-0.464170
-0.545010
-0.595939
-0.640559
-0.705898
-0.781364
-0.835891
-0.860120
-0.857217
-0.819734
-0.745420
-0.659179
-0.598347
-0.565577
-0.514142
-0.415572
-0.311411
-0.242616
-0.181611
-0.104286
-0.051583
-0.046443
-0.042550
-0.009092
0.032389
0.073319
0.125605
0.172668
0.184354
0.163774
0.143472
0.149813
0.180132
0.208066
0.209992
0.184484
0.152299
0.138271
0.139576
0.124257
0.078861
0.027533
-0.016168
-0.072472
-0.144556
-0.196849
-0.217434
-0.244007
-0.292786
-0.326005
-0.327455
-0.343202
-0.399262
-0.445984
-0.443044
-0.429470
-0.453022
-0.500395
-0.534181
-0.539748
-0.522265
-0.493343
-0.460813
-0.425102
-0.388218
-0.354673
-0.327730
-0.311069
-0.297394
-0.269508
-0.230567
-0.199078
-0.175329
-0.150434
-0.121227
-0.077226
-0.009991
0.069182
0.138781
0.179445
0.189326
0.191603
0.202175
0.211563
0.213375
0.208139
0.185825
0.147568
0.115126
0.087924
0.035592
-0.042243
-0.098510
-0.112707
-0.130152
-0.185366
-0.251769
-0.310830
-0.387868
-0.486727
-0.569774
-0.614490
-0.634149
-0.644196
-0.640574
-0.619388
-0.593130
-0.566595
-0.529532
-0.483942
-0.435602
-0.373792
-0.292767
-0.197893
-0.089411
0.023767
0.122482
0.209920
0.311998
0.441565
0.583144
0.710093
0.810789
0.897224
0.981751
1.060284
1.136966
1.232362
1.343196
1.435298
1.488207
1.512495
1.531685
1.564534
1.605101
1.621397
1.596695
1.555416
1.520852
1.477464
1.408962
1.334997
1.276767
1.224588
1.162559
1.095687
1.038255
0.988311
0.926844
0.846059
0.760393
0.678643
0.591410
0.496593
0.409706
0.343662
0.295523
0.250146
0.196888
0.148115
0.121621
0.102935
0.057677
-0.017782
-0.093992
-0.161111
-0.240923
-0.336574
-0.425330
-0.507896
-0.603484
-0.703009
-0.783394
-0.846130
-0.900375
-0.943385
-0.983341
-1.038696
-1.102120
-1.142584
-1.148195
-1.141458
-1.144013
-1.148965
-1.147573
-1.149363
-1.150517
-1.130165
-1.092136
-1.060072
-1.039425
-1.018282
-0.979142
-0.904300
-0.798477
-0.690202
-0.599327
-0.526762
-0.466200
-0.408197
-0.349843
-0.297722
-0.250246
-0.199201
-0.147754
-0.104503
-0.071651
-0.046343
-0.021697
0.005849
0.029342
0.045338
0.063390
0.091809
0.133180
0.189062
0.245871
0.278617
0.289259
0.307396
0.344086
0.382577
0.414297
0.450223
0.494420
0.532685
0.557609
0.580525
0.604284
0.613745
0.605230
0.591817
0.575686
0.546535
0.502192
0.447891
0.389212
0.340355
0.314403
0.295551
0.256396
0.203344
0.159603
0.116029
0.049074
-0.030987
-0.088980
-0.107872
-0.104833
-0.108681
-0.124974
-0.132522
-0.119715
-0.105230
-0.108399
-0.119819
-0.118073
-0.095032
-0.057366
-0.023959
-0.014151
-0.024610
-0.036763
-0.043043
-0.043524
-0.039126
-0.041705
-0.060135
-0.080571
-0.091315
-0.110083
-0.157386
-0.219835
-0.268986
-0.304135
-0.343530
-0.385894
-0.419364
-0.451450
-0.491464
-0.526197
-0.543915
-0.555128
-0.568166
-0.571220
-0.554977
-0.530469
-0.508197
-0.482311
-0.453345
-0.434725
-0.421278
-0.391722
-0.346694
-0.304197
-0.264583
-0.211631
-0.141032
-0.069113
-0.010292
0.045980
0.120144
0.210678
0.300478
0.383032
0.460968
0.535201
0.603718
0.655502
0.673996
0.660463
0.640410
0.634362
0.632650
0.614746
0.582674
0.549961
0.513419
0.464565
0.405834
0.342010
0.282621
0.241643
0.215607
0.183502
0.131981
0.069368
0.013371
-0.036600
-0.095913
-0.162602
-0.223005
-0.278478
-0.335847
-0.391243
-0.438822
-0.476992
-0.501455
-0.504753
-0.491106
-0.481919
-0.485914
-0.483479
-0.468294
-0.462791
-0.471651
-0.472919
-0.454129
-0.418783
-0.377260
-0.340292
-0.304889
-0.262469
-0.215798
-0.165252
-0.102048
-0.026517
0.050084
0.114961
0.161350
0.198018
0.231064
0.249673
0.261648
0.292548
0.331364
0.348440
0.350308
0.351543
0.342895
0.326477
0.321611
0.327601
0.326891
0.313877
0.295684
0.275776
0.252282
0.233067
0.234437
0.255641
0.275151
0.275253
0.250900
0.207415
0.163829
0.136731
0.123255
0.117809
0.120613
0.122453
0.115182
0.106852
0.096800
0.067733
0.023929
-0.005320
-0.008409
-0.000009
0.004035
-0.007854
-0.044246
-0.097982
-0.149264
-0.188293
-0.219041
-0.243166
-0.258521
-0.273926
-0.307228
-0.359422
-0.405596
-0.426035
-0.430741
-0.436653
-0.440965
-0.434528
-0.418553
-0.395086
-0.366335
-0.345353
-0.339693
-0.334240
-0.313735
-0.284574
-0.259121
-0.237746
-0.218014
-0.204834
-0.199034
-0.191511
-0.178172
-0.162545
-0.141392
-0.109847
-0.078432
-0.061201
-0.051640
-0.032004
0.002908
0.047462
0.094792
0.136363
0.170296
0.206062
0.246216
0.283818
0.321661
0.361852
0.390221
0.401210
0.408867
0.417118
0.413193
0.397132
0.390238
0.405351
0.428254
0.441626
0.448729
0.459114
0.470285
0.475597
0.472306
0.455659
0.425664
0.399066
0.387721
0.374882
0.345347
0.315285
0.297592
0.272992
0.224244
0.162954
0.106935
0.060172
0.020120
-0.016802
-0.059403
-0.114441
-0.171383
-0.208296
-0.214003
-0.195142
-0.168067
-0.148548
-0.142622
-0.147271
-0.156238
-0.162020
-0.160154
-0.149963
-0.130133
-0.104016
-0.083195
-0.075783
-0.080778
-0.094224
-0.108253
-0.110689
-0.097017
-0.074388
-0.049177
-0.021700
0.006463
0.033166
0.062491
0.097038
0.126291
0.138554
0.140075
0.144129
0.150224
0.153278
0.157615
0.165893
0.173372
0.180242
0.190555
0.200572
0.203435
0.198857
0.188384
0.170967
0.151331
0.138888
0.129595
0.108297
0.074854
0.042244
0.010595
-0.028498
-0.070179
-0.102479
-0.124913
-0.146280
-0.170672
-0.194200
-0.211244
-0.218812
-0.218043
-0.213961
-0.214628
-0.228528
-0.253405
-0.274092
-0.284506
-0.294653
-0.307847
-0.315054
-0.310184
-0.294170
-0.273570
-0.256374
-0.240644
-0.219510
-0.197146
-0.182445
-0.173698
-0.161965
-0.142634
-0.118702
-0.095091
-0.072080
-0.048124
-0.025251
-0.004401
0.016182
0.032451
0.037729
0.033550
0.024390
0.009416
-0.013378
-0.043698
-0.078613
-0.110807
-0.133743
-0.148534
-0.157560
-0.156824
-0.144898
-0.132796
-0.134438
-0.149599
-0.162803
-0.160943
-0.145621
-0.122864
-0.092322
-0.055009
-0.018903
0.009212
0.029081
0.044575
0.059537
0.074568
0.089415
0.105698
0.123064
0.137264
0.142622
0.135137
