EVENT_NAME: CENTRAL_ITALY
EVENT_ID: EMSC-20160824_0000006
EVENT_DATE_YYYYMMDD: 20160824
EVENT_TIME_HHMMSS: 013632
EVENT_LATITUDE_DEGREE: 42.6983
EVENT_LONGITUDE_DEGREE: 13.2335
EVENT_DEPTH_KM: 8.1
HYPOCENTER_REFERENCE: INGV-CNT_Seismic_Bulletin
MAGNITUDE_W: 6.0
MAGNITUDE_W_REFERENCE: INGV-webservice
MAGNITUDE_L: 6.0
MAGNITUDE_L_REFERENCE: INGV-CNT_Seismic_Bulletin
FOCAL_MECHANISM: NF
NETWORK: IT
STATION_CODE: MTR
STATION_NAME: MONTEREALE
STATION_LATITUDE_DEGREE: 42.524021
STATION_LONGITUDE_DEGREE: 13.244796
STATION_ELEVATION_M: 975
LOCATION: 
SENSOR_DEPTH_M: 0.0
VS30_M/S: 
SITE_CLASSIFICATION_EC8: B*
MORPHOLOGIC_CLASSIFICATION: R
EPICENTRAL_DISTANCE_KM: 19.4
EARTHQUAKE_BACKAZIMUTH_DEGREE: 357.3
DATE_TIME_FIRST_SAMPLE_YYYYMMDD_HHMMSS: 20160824_013630.795
DATE_TIME_FIRST_SAMPLE_PRECISION: milliseconds
SAMPLING_INTERVAL_S: 0.020000
NDATA: 2250
DURATION_S: 45.000
STREAM: HGN
UNITS: cm/s^2
INSTRUMENT: sensor = Unknown [Unknown] | digitizer = Unknown [Unknown]
INSTRUMENT_ANALOG/DIGITAL: D
INSTRUMENTAL_FREQUENCY_HZ: 
INSTRUMENTAL_DAMPING: 
FULL_SCALE_G: 
N_BIT_DIGITAL_CONVERTER: 
PGA_CM/S^2: -68.260331
TIME_PGA_S: 11.760000
BASELINE_CORRECTION: BASELINE REMOVED
FILTER_TYPE: BUTTERWORTH
FILTER_ORDER: 2
LOW_CUT_FREQUENCY_HZ: 0.050
HIGH_CUT_FREQUENCY_HZ: 15.000
LATE/NORMAL_TRIGGERED: NT
DATABASE_VERSION: DYNA 1.0
HEADER_FORMAT: DYNA 1.2
DATA_TYPE: ACCELERATION
PROCESSING: manual (Paolucci et al., 2011)
DATA_TIMESTAMP_YYYYMMDD_HHMMSS: 20191119_160111.228
DATA_LICENSE: CC-BY3_0-IT (http://creativecommons.org/licenses/by/3.0/deed.en)
DATA_CITATION: Luzi L, Puglia R, Russo E & ORFEUS WG5 (2016). Engineering Strong Motion Database. Istituto Nazionale di Geofisica e Vulcanologia, Observatories & Research Facilities for European Seismology. doi: 10.13127/ESM
DATA_CREATOR: ESM working group
ORIGINAL_DATA_MEDIATOR_CITATION: Ufficio Rischio Sismico e Vulcanico del Dipartimento della Protezione Civile (http://www.protezionecivile.gov.it/)
ORIGINAL_DATA_MEDIATOR: http://www.mot1.it/randownload/
ORIGINAL_DATA_CREATOR_CITATION: Italian Strong Motion Network, Italian Civil Protection Department http://www.protezionecivile.gov.it
ORIGINAL_DATA_CREATOR: network: IT (Italian Strong Motion Network); owner: Dipartimento Della Protezione Civile
USER1: /home/dyna/processing-itaca/processing.py /var/www/processing//tmp/rodolfo//IT.MTR..HGE.D.20160824.013632.X.ACC.ASC /var/www/processing//tmp/rodolfo//IT.MTR..HGN.D.20160824.013632.X.ACC.ASC /var/www/processing//tmp/rodolfo//IT.MTR..HGZ.D.20160824.013632.X.ACC.ASC --tmp /var/www/processing//tmp/rodolfo/ --le 0.050 --he 15 --ln 0.050 --hn 15 --lz 0.050 --hz 15 --fo 2 --ca 0 --cz 58.2 --ta 5 --tz 5 --mf 1 --rf 0.020 --tr NT
USER2: 
USER3: 
USER4: 
USER5: 
0.000000
0.008041
0.016099
0.016117
0.016125
0.016126
0.016120
0.016109
0.016094
0.016078
0.016062
0.016048
0.016037
0.016031
0.016031
0.016040
0.016058
0.016088
0.016130
0.016187
0.016259
0.016349
0.016456
0.016582
0.016729
0.016898
0.017088
0.017301
0.017539
0.017799
0.018076
0.018380
0.018719
0.019082
0.019464
0.019864
0.020268
0.020692
0.021169
0.021675
0.022197
0.022751
0.023276
0.023768
0.024353
0.024976
0.025498
0.026054
0.026723
0.027321
0.027866
0.028485
0.029052
0.029502
0.029953
0.030477
0.031114
0.031780
0.032332
0.032778
0.033082
0.033261
0.033546
0.033913
0.034165
0.034418
0.034726
0.034886
0.034852
0.034636
0.034270
0.034080
0.034028
0.033614
0.033030
0.032680
0.032271
0.031626
0.030496
0.028805
0.027667
0.027288
0.026674
0.026007
0.025022
0.022933
0.020912
0.019618
0.018053
0.016099
0.013894
0.011532
0.009692
0.007813
0.005213
0.003157
0.001972
0.000090
-0.003015
-0.006351
-0.008495
-0.009815
-0.013358
-0.018639
-0.020743
-0.020521
-0.023151
-0.027685
-0.031483
-0.035370
-0.037983
-0.038553
-0.041059
-0.019692
0.005523
0.007957
0.008202
0.005737
0.005604
0.007902
0.008149
0.006919
0.006236
0.005561
0.006218
0.007823
0.007146
0.005659
0.006419
0.007771
0.007880
0.007203
0.006031
0.005461
0.006690
0.008295
0.008441
0.007462
0.007022
0.008463
0.010064
0.008777
0.006729
0.007586
0.009224
0.009838
0.010873
0.010293
0.007629
0.007501
0.008694
0.007234
0.006328
0.007398
0.007005
0.006320
0.007189
0.007334
0.006773
0.007724
0.009257
0.008689
0.006385
0.005740
0.007175
0.007592
0.006808
0.006739
0.006964
0.006981
0.007488
0.008132
0.008171
0.007912
0.007945
0.008382
0.008802
0.008719
0.008479
0.008519
0.008051
0.007063
0.007522
0.009283
0.009406
0.007743
0.006800
0.006648
0.006192
0.006379
0.007783
0.008308
0.006585
0.005241
0.006430
0.007833
0.008070
0.008838
0.009388
0.007934
0.006424
0.007109
0.008588
0.008401
0.006696
0.005832
0.006802
0.008119
0.008782
0.008856
0.007688
0.005868
0.005541
0.006402
0.006906
0.007413
0.007772
0.007053
0.006459
0.007309
0.008377
0.008717
0.009241
0.009543
0.008224
0.006556
0.006474
0.006952
0.006772
0.007079
0.008026
0.007708
0.006198
0.005664
0.006425
0.006810
0.006226
0.006026
0.006884
0.007425
0.007061
0.006858
0.007187
0.007829
0.008439
0.008515
0.008415
0.007825
0.006121
0.005407
0.006706
0.007510
0.007415
0.007560
0.006717
0.005424
0.005986
0.006746
0.006086
0.006256
0.006652
0.004911
0.004062
0.006188
0.007086
0.004838
0.003109
0.004087
0.005778
0.006172
0.005697
0.004951
0.004371
0.005117
0.005632
0.003789
0.003066
0.005563
0.006614
0.005488
0.006365
0.007589
0.005997
0.004277
0.004015
0.003135
0.001808
0.002752
0.009329
0.018250
0.011244
-0.014656
-0.013688
0.038219
0.063232
-0.007434
-0.090413
-0.054828
0.067221
0.071537
-0.115198
-0.182239
0.092271
0.275698
-0.011680
-0.292962
-0.097062
0.219119
0.238828
0.042926
-0.185211
-0.240922
-0.015758
0.185938
0.198402
0.194032
0.027024
-0.249614
-0.109855
0.250625
0.248354
0.089105
0.205725
0.329527
-0.170854
-0.736025
-0.168797
0.530266
-0.033728
-0.640126
-0.491363
-0.465389
-0.501669
-0.378055
-0.297849
0.002376
-0.015455
-0.757282
-0.913288
-0.300324
-0.434525
-1.094944
-0.960806
-0.593856
-1.125311
-1.684615
-1.267351
-0.980771
-0.908296
0.336532
0.977125
-0.863245
-2.958773
-3.724295
-2.521448
1.460495
3.437863
-1.272459
-6.632416
-5.686639
-1.559469
0.990940
1.717864
0.482280
-2.685694
-5.983729
-7.295489
-4.672356
0.560288
2.746310
-0.399049
-4.165437
-3.640708
0.852350
5.138085
5.856359
3.748866
2.071124
2.121143
1.358182
-1.108076
-0.922441
0.918344
-1.833926
-3.082677
2.845809
2.689004
-5.600702
-4.664932
3.250347
4.617545
3.624055
3.066658
-0.459694
-0.825961
1.016096
-2.413085
-3.368813
2.136731
2.829889
-1.646132
-2.944380
-2.262022
-0.667112
4.999285
9.777931
5.990781
-1.770973
-4.163449
-1.619759
0.650375
-0.149664
-3.335816
-3.587498
-0.789701
-2.149743
-5.764719
-3.905193
2.287262
7.583675
5.475819
-5.489825
-8.992610
2.825675
9.632497
1.571751
-7.153712
-8.555094
-4.349601
1.004694
0.323909
-4.745085
-5.755087
-0.542144
7.474553
9.899157
0.178025
-10.749704
-7.519083
3.716099
5.991495
-0.808829
-1.766192
4.831904
2.286103
-7.290195
-0.070701
15.195932
9.439493
-1.462068
5.332982
7.092261
-2.280258
1.464953
5.255682
-8.443748
-11.978242
1.889021
-0.472219
-13.447303
-2.206855
12.770551
-1.046737
-11.141695
3.378602
5.469052
-5.964292
-0.190693
5.460764
-2.802419
4.231078
19.389736
7.620098
-7.908441
3.999045
10.859164
-3.475625
-3.024743
9.485938
2.285365
-9.010321
-5.315096
-7.112798
-16.883777
-11.473292
0.445260
-2.861909
-5.967618
4.106338
5.175794
-2.077815
7.719057
22.000244
21.163513
19.543594
22.962539
25.273888
31.464799
36.150672
30.537053
22.350536
19.654108
25.023988
34.110825
37.014835
38.898049
44.565908
35.638243
6.031195
-21.444447
-34.575527
-41.299588
-44.017962
-43.031480
-47.341176
-51.466644
-36.929368
-17.687119
-23.230759
-34.995068
-18.361139
8.761840
16.058452
15.772434
18.190624
4.813545
-21.114433
-36.644497
-40.541341
-27.198920
8.927040
23.863397
-4.197552
-15.006938
11.492560
16.556612
-1.889599
3.918836
18.214926
11.887809
13.107257
34.797237
46.791223
41.334737
29.856007
10.176612
-8.102001
-6.725718
3.088738
2.259289
-1.410069
-1.301246
-12.188478
-32.432951
-36.833919
-27.776886
-35.275393
-57.233088
-57.397431
-25.053035
4.590290
0.923465
-14.058729
-4.334380
14.145534
9.394458
2.211490
19.844908
33.953988
23.365164
15.855148
12.142122
-9.492443
-13.350364
22.449976
37.107140
6.788516
-15.544503
-12.392230
-4.767153
7.052361
22.904266
26.597136
11.485646
1.164517
13.514097
8.926228
-37.290652
-68.260331
-54.104927
-40.346180
-42.621350
-31.852678
-6.004146
13.215098
21.421534
24.275358
15.232819
1.010630
2.564373
0.871202
-22.502229
-27.435978
-7.517364
-8.217112
-13.853809
5.698102
13.352921
-1.231065
1.000756
12.176328
-1.289549
-27.568332
-34.470038
-23.702862
-28.437925
-49.130851
-40.641947
-6.815089
-6.059274
-30.164768
-22.597494
-1.242850
-9.655515
-16.755876
9.475810
30.026361
12.284113
-17.018755
-24.175633
-9.836282
5.759941
11.606780
15.934867
29.957911
47.720308
52.246192
43.333553
36.672981
32.257276
23.116843
22.312709
36.074772
44.094206
35.109632
22.983097
20.417341
20.707129
11.041361
-0.541729
2.783025
9.040136
0.497412
-7.117020
-2.917363
-4.731759
-9.608317
-0.440575
5.035486
-4.556716
-1.923022
14.088758
13.078355
-1.071699
-6.675198
-7.878560
-8.641357
-0.221150
8.470026
1.813699
-6.096693
3.275855
11.203934
-2.141485
-16.166711
-9.767864
0.055978
-10.136593
-27.489968
-23.290777
-7.654879
-5.902846
-1.984524
13.847890
11.838240
-2.873291
3.380469
15.535739
7.719343
-1.837404
5.412216
16.675835
15.207625
6.830228
9.463309
16.843161
10.168581
2.076692
7.573452
7.704518
-3.526984
-3.534281
6.395084
5.570598
-2.727602
-6.311970
-8.422156
-8.658144
-1.286790
3.170162
-3.347754
-6.098234
-0.126589
-2.437783
-14.502081
-18.405856
-8.525566
4.879299
13.589837
18.931447
24.597242
27.084322
20.758152
9.838650
5.476997
10.823241
15.907676
11.960491
4.904489
4.348379
5.297418
-2.052352
-10.557665
-8.614318
-3.230884
-2.962535
-2.097084
-1.783118
-8.124646
-11.696568
-9.365099
-13.000972
-17.446071
-14.834455
-19.638526
-30.355683
-25.430212
-13.115427
-14.260658
-20.914621
-22.031291
-19.429146
-11.044980
-4.298087
-9.255911
-8.721933
5.465152
6.379301
-9.901716
-13.994293
-5.687061
-9.976074
-21.248868
-14.941898
0.322701
-0.357430
-5.982522
3.411673
10.779922
2.565838
-2.585289
-0.151161
-3.938739
-7.566875
-3.886676
-7.387292
-17.648091
-14.206131
-3.601129
-8.616273
-17.284920
-9.084792
-1.305271
-8.642115
-12.438965
-8.696232
-10.424022
-4.847903
12.175136
12.966124
1.793590
8.591330
20.107966
16.387877
18.822438
32.721305
31.253178
16.912592
10.971207
8.918953
6.140539
10.919013
14.897956
8.927243
5.667393
10.572234
10.415317
1.710113
-2.584294
3.016640
7.165681
2.788450
-3.451641
-9.228555
-15.144434
-11.594609
0.957970
2.959992
-8.796045
-13.593270
-4.736394
3.256703
3.068691
-0.130680
-3.478820
-6.438286
-4.474929
4.190885
12.185908
12.111805
7.203365
6.355993
10.195297
11.285148
8.347048
5.034001
2.270041
6.550272
20.391661
25.984707
15.938495
9.719126
10.336026
1.355305
-8.582619
-0.923275
13.277138
15.438237
8.959577
3.868976
0.513377
-4.156024
-7.697408
-5.344167
-0.964687
-0.122355
2.257886
5.513322
0.241778
-6.781929
-5.345616
-2.366567
0.230352
4.764452
-0.696174
-15.553112
-18.899128
-8.817439
-3.383754
-7.276998
-7.707733
1.646895
3.499241
-15.320480
-28.269094
-11.703316
6.837484
-0.310959
-15.811341
-17.647016
-8.979690
-4.324699
-11.033251
-15.067886
-3.649216
4.601614
-3.804858
-10.769667
-10.307021
-13.181726
-12.712589
-6.490259
-8.625015
-14.427566
-8.215629
3.163350
0.950467
-14.917334
-20.674586
-6.917804
1.480604
-4.996136
-6.674515
-2.297215
-1.610318
0.248809
3.296123
6.023478
15.551126
25.842662
25.163503
18.080184
9.102958
-2.031988
-4.022474
5.655551
9.780311
8.126525
11.839468
10.125351
2.475866
8.896871
17.054510
5.036296
-2.791083
12.479664
18.609888
0.230040
-8.363914
5.015657
9.947913
1.062093
4.591762
17.880493
15.669428
2.403573
1.207647
10.691433
11.014199
-0.992499
-7.945822
-1.927234
2.728345
-2.970868
-6.203897
-0.850483
-1.657185
-11.021603
-12.328505
-6.408502
-5.838734
-5.287621
-1.650953
-5.706434
-12.017254
-6.553865
2.342507
1.503152
-3.223246
-3.792323
-2.139935
1.023049
6.613439
11.044627
10.631853
5.473475
0.118005
-1.106873
-1.129456
-2.262085
-1.484750
-0.948003
-3.039170
-1.910696
2.458535
1.297304
-5.109895
-7.013180
-1.326830
3.802950
1.226653
-3.745138
-5.178899
-7.924088
-9.007744
0.121106
6.738152
1.172312
-0.342428
3.963695
0.315795
-2.105372
3.524506
2.374794
-3.628199
0.473692
8.425194
7.959149
2.593115
0.223110
2.493203
4.348731
-1.153869
-9.124230
-6.534648
3.470774
6.444169
2.643586
0.658180
0.651525
0.924150
3.513398
8.863567
12.044721
8.517854
5.427872
10.634424
13.640476
5.275132
-0.609860
5.757231
9.983451
3.309827
-2.337739
-1.805823
-3.268626
-7.003093
-6.648983
-2.083875
2.515269
3.344865
0.445518
-2.798847
-6.696191
-11.710920
-12.348240
-6.978621
-3.127370
-5.794727
-9.831677
-8.959464
-6.899091
-8.341509
-8.054677
-6.204182
-11.423694
-17.015261
-10.945225
-3.364195
-5.230323
-5.696597
-0.302147
-2.387849
-10.165355
-6.890772
2.612866
0.239560
-8.672222
-7.230200
0.949093
2.802169
-1.228944
-4.963409
-7.108149
-5.726472
-0.767769
1.038026
-0.716939
1.564152
5.196031
3.965377
4.306058
8.686717
8.279546
4.160985
4.599449
7.334312
6.923341
5.150709
4.847350
3.668660
0.016031
0.211727
5.820297
5.811734
0.406261
1.431577
2.389671
-4.186601
-2.459890
8.518085
5.746367
-6.541571
-4.565413
4.961681
3.759355
-1.567949
-1.468826
-0.760763
-1.009888
0.489777
1.607049
1.658880
2.319165
2.602979
1.767102
0.809377
0.869404
2.503058
3.855449
1.923965
-3.037972
-5.774383
-1.368582
5.069519
3.315906
-3.562149
-3.141781
2.770288
1.989339
-2.958565
-0.923866
3.897127
3.208739
2.902436
5.041833
1.946087
-1.469812
2.104867
2.261345
-5.167967
-5.646936
2.070415
1.115043
-7.959980
-6.963828
2.646775
2.774320
-3.905664
-1.790520
3.937191
2.366602
0.980959
3.521500
1.206318
-2.145690
1.531207
3.249148
-1.510523
-1.290449
3.318173
0.452760
-3.803877
1.281224
4.341389
-3.016819
-6.097713
-0.124891
0.918545
-2.008665
2.629314
8.325136
5.038286
1.057542
3.808864
5.185870
1.617985
0.903903
3.583035
3.194112
1.573074
3.902756
6.065846
1.860309
-3.176871
-0.220644
5.148768
2.971272
-1.991468
-1.799205
0.710386
2.649985
4.241092
2.785043
-0.397813
-1.613720
-3.908870
-7.137152
-4.936873
-0.158008
-0.517318
-3.661731
-4.133257
-2.431957
-0.490947
0.359190
-0.992331
-3.007943
-3.309620
-2.050652
-1.158476
-2.081980
-3.845773
-4.340723
-4.244610
-5.272088
-5.695964
-3.739574
-2.133906
-3.095645
-4.247547
-4.178887
-3.704569
-1.780335
-0.397044
-4.339704
-8.569278
-4.576410
1.515893
0.037504
-3.208901
0.471759
5.134320
2.604391
-0.485771
3.771777
7.992069
5.644876
3.359948
4.495029
4.780074
3.713088
3.231884
3.854050
4.306043
1.924006
0.123332
3.833733
6.199943
1.393170
-2.443115
-1.240137
-1.266319
-2.291329
-0.498462
0.472579
-0.778648
0.021741
1.275679
0.027314
0.544752
2.983453
1.380639
-1.398377
0.362981
1.595444
-1.231764
-2.019075
0.213190
-0.580198
-4.286912
-5.942648
-5.180517
-4.698144
-4.454670
-3.275812
-1.891380
-0.129588
2.344795
2.204752
-0.472659
0.494762
3.677755
1.538032
-2.460158
-0.910393
1.456443
-1.234665
-3.581457
-1.018017
1.571435
0.764207
-0.385528
-0.431082
-0.363647
0.266741
-0.099332
-3.446053
-5.574441
-3.162507
-1.142205
-1.800068
-0.255725
2.703479
1.981899
0.843481
3.151929
3.928784
1.904199
3.158699
6.626920
6.691382
5.902994
7.041427
5.447003
1.229718
1.029751
3.734150
3.458954
2.444976
4.508936
6.114119
5.239260
5.037473
4.796788
2.868842
3.032055
4.482038
1.300743
-2.877781
-2.163785
-2.183814
-5.980959
-6.662778
-4.417740
-5.722824
-8.130608
-7.133990
-6.255668
-7.292964
-6.383627
-3.711151
-2.076094
-0.637378
-0.277061
-3.289702
-5.902762
-4.768940
-2.993570
-2.278850
-2.400179
-4.507380
-5.824208
-3.415673
-0.871294
-0.299588
0.330391
0.021051
-1.792333
-1.697422
0.214488
0.826867
1.667816
4.042380
4.064631
1.638780
1.561369
3.221117
2.870349
1.313998
0.348203
-0.011908
1.141786
3.452313
3.847752
2.045174
1.498014
2.939870
3.967586
3.870456
3.239911
2.830395
3.714468
4.114721
1.482791
-1.186188
-0.373498
1.006868
0.089825
-1.037228
-0.766866
0.626075
2.640671
2.534011
-0.618524
-1.858572
0.509325
1.287519
-0.622068
-1.419589
-1.896391
-4.455619
-6.379928
-5.763604
-5.283981
-5.217401
-3.662215
-2.581284
-3.218051
-2.937134
-2.062643
-2.929574
-3.746269
-2.485689
-0.772778
-0.036409
0.360353
0.979378
1.002384
-0.247786
-1.018347
0.130902
1.078294
0.580588
0.657714
1.170427
-0.020163
-1.441242
-0.635843
0.640936
0.372382
0.476504
2.148596
2.887469
1.783043
1.251749
1.748578
1.591475
0.752905
-0.221260
-0.771524
0.279688
1.572944
0.903276
0.274290
1.699268
3.046305
3.208790
3.572825
3.928798
3.830182
4.093550
3.808875
2.219439
1.709240
2.852899
2.653088
0.793437
-0.264274
-0.341097
-0.183558
0.756538
1.917098
2.039783
2.301209
4.347143
6.052895
4.219090
0.911826
0.821897
3.117175
3.537548
2.197109
2.004882
3.146401
3.693458
2.682828
1.202531
0.407718
-0.478686
-1.461637
-0.770146
0.890303
0.971504
-0.075823
-0.400073
-0.804402
-2.018717
-1.596003
0.837049
0.968404
-1.931522
-3.272629
-2.332637
-1.826446
-1.383038
-0.894952
-1.986419
-2.912844
-2.219495
-2.998443
-5.343077
-4.812904
-2.153466
-2.132489
-3.916830
-3.739995
-1.953655
-0.455302
0.086166
-1.018874
-3.377165
-5.259655
-5.495333
-4.325360
-3.865451
-5.057321
-4.829648
-2.150930
-1.358745
-4.004279
-5.818419
-4.550397
-2.974335
-2.781968
-1.802332
0.602785
1.469372
0.123419
-0.630279
-0.145070
-0.043520
-0.381494
-0.821528
-1.983028
-2.903148
-1.692191
0.575347
1.130347
0.086556
-0.410758
-0.051481
0.896721
3.537890
6.624598
6.680567
4.417357
3.228159
3.138740
2.789329
2.229534
1.875093
2.024616
1.851296
0.939197
0.968062
1.573644
0.993172
0.501211
0.585089
-0.231688
-1.139121
-1.563482
-2.150307
-1.777740
-0.704666
-0.465934
0.308228
1.540930
0.834888
0.176119
1.284178
0.493967
-1.862721
-1.063897
1.036365
0.604358
0.356067
1.671461
0.944028
-1.166343
-0.455958
1.637208
0.879085
-1.111109
-0.092700
2.172160
1.612153
0.349365
1.126969
1.047182
-0.273071
0.518355
1.622692
0.784129
1.334386
3.352067
2.539565
-0.018923
-0.402664
0.566589
0.726277
0.594844
0.839967
0.949246
0.390708
-0.815579
-1.204569
0.592102
2.188285
1.074690
-0.038610
0.681335
0.021636
-2.414293
-3.055971
-1.814926
-0.609216
0.850292
1.826142
0.679975
-0.823916
-0.608291
-0.358840
-1.379681
-1.894184
-1.117982
-0.585054
-0.937122
-1.390296
-1.363537
-0.695345
0.147302
0.205221
-0.400725
-0.530494
0.091957
1.047725
2.083850
2.275686
1.341839
1.011973
1.165516
-0.352949
-1.820608
-0.404434
0.853717
-1.393260
-3.823955
-3.041173
-1.363097
-0.861173
-0.078944
1.100203
1.274135
1.156695
1.298886
0.546492
-0.015939
1.655444
3.301478
2.087534
0.549991
1.273800
1.587603
-0.171445
-1.417485
-1.322102
-1.073669
-0.278743
0.437374
-0.438748
-1.835573
-2.634115
-2.823320
-1.701625
-0.483829
-1.084319
-1.819963
-1.251511
-1.000229
-1.704119
-2.327487
-2.201331
-1.246100
-0.093623
0.560796
0.750670
1.034709
1.933757
2.712632
2.590177
3.119333
4.576808
3.426472
-0.341194
-0.897613
2.455210
3.254440
1.063829
1.776192
3.505574
0.650192
-2.121178
0.177159
1.385686
-1.014284
-0.838059
0.374459
-2.494388
-4.030886
-0.966907
-0.522430
-3.049571
-1.463055
1.234365
-1.063527
-3.296317
-1.266564
-0.349833
-1.981464
-1.371309
0.644698
0.594437
0.592773
2.183217
2.243783
0.781575
1.483374
3.268352
2.203369
-0.471186
-1.028449
0.082279
-0.195399
-2.087894
-2.738981
-1.492971
-0.915503
-1.311353
-0.757059
0.097398
-0.168370
-0.462662
0.339929
1.378252
1.409383
0.552142
-0.055958
-0.345606
-1.166476
-1.652961
-0.437306
0.944663
0.540018
-0.043716
1.023511
1.926258
1.052200
0.182351
0.497313
0.618317
0.262432
0.259202
-0.229988
-1.614399
-2.201794
-1.318195
-0.488548
-0.926646
-1.726104
-1.384962
-0.647649
-0.694969
-0.340141
0.521335
-0.056717
-1.109895
-0.587008
-0.035820
-0.499645
-0.230249
0.423003
-0.070525
-0.520319
-0.172319
-0.302171
-0.671294
-0.300509
0.315570
0.814991
0.887237
0.117774
0.010571
1.207914
1.349568
0.559625
1.543191
2.887810
1.817372
0.395329
0.844534
1.235407
0.857428
1.858892
3.559808
3.147530
1.522911
1.337794
1.766210
1.140762
0.699189
1.298185
1.412159
0.552698
-0.221466
-0.597175
