EVENT_NAME: CENTRAL_ITALY
EVENT_ID: EMSC-20160824_0000006
EVENT_DATE_YYYYMMDD: 20160824
EVENT_TIME_HHMMSS: 013632
EVENT_LATITUDE_DEGREE: 42.6983
EVENT_LONGITUDE_DEGREE: 13.2335
EVENT_DEPTH_KM: 8.1
HYPOCENTER_REFERENCE: INGV-CNT_Seismic_Bulletin
MAGNITUDE_W: 6.0
MAGNITUDE_W_REFERENCE: INGV-webservice
MAGNITUDE_L: 6.0
MAGNITUDE_L_REFERENCE: INGV-CNT_Seismic_Bulletin
FOCAL_MECHANISM: NF
NETWORK: IT
STATION_CODE: MTR
STATION_NAME: MONTEREALE
STATION_LATITUDE_DEGREE: 42.524021
STATION_LONGITUDE_DEGREE: 13.244796
STATION_ELEVATION_M: 975
LOCATION: 
SENSOR_DEPTH_M: 0.0
VS30_M/S: 
SITE_CLASSIFICATION_EC8: B*
MORPHOLOGIC_CLASSIFICATION: R
EPICENTRAL_DISTANCE_KM: 19.4
EARTHQUAKE_BACKAZIMUTH_DEGREE: 357.3
DATE_TIME_FIRST_SAMPLE_YYYYMMDD_HHMMSS: 20160824_013630.795
DATE_TIME_FIRST_SAMPLE_PRECISION: milliseconds
SAMPLING_INTERVAL_S: 0.020000
NDATA: 105
DURATION_S: 
STREAM: HGE
UNITS: cm/s^2
INSTRUMENT: sensor = Unknown [Unknown] | digitizer = Unknown [Unknown]
INSTRUMENT_ANALOG/DIGITAL: D
INSTRUMENTAL_FREQUENCY_HZ: 
INSTRUMENTAL_DAMPING: 
FULL_SCALE_G: 
N_BIT_DIGITAL_CONVERTER: 
PGA_CM/S^2: 74.918378
TIME_PGA_S: 10.440000
BASELINE_CORRECTION: BASELINE REMOVED
FILTER_TYPE: BUTTERWORTH
FILTER_ORDER: 2
LOW_CUT_FREQUENCY_HZ: 0.050
HIGH_CUT_FREQUENCY_HZ: 15.000
LATE/NORMAL_TRIGGERED: NT
DATABASE_VERSION: DYNA 1.0
HEADER_FORMAT: DYNA 1.2
DATA_TYPE: ACCELERATION RESPONSE SPECTRUM
PROCESSING: manual (Paolucci et al., 2011)
DATA_TIMESTAMP_YYYYMMDD_HHMMSS: 20191119_160111.228
DATA_LICENSE: CC-BY3_0-IT (http://creativecommons.org/licenses/by/3.0/deed.en)
DATA_CITATION: Luzi L, Puglia R, Russo E & ORFEUS WG5 (2016). Engineering Strong Motion Database. Istituto Nazionale di Geofisica e Vulcanologia, Observatories & Research Facilities for European Seismology. doi: 10.13127/ESM
DATA_CREATOR: ESM working group
ORIGINAL_DATA_MEDIATOR_CITATION: Ufficio Rischio Sismico e Vulcanico del Dipartimento della Protezione Civile (http://www.protezionecivile.gov.it/)
ORIGINAL_DATA_MEDIATOR: http://www.mot1.it/randownload/
ORIGINAL_DATA_CREATOR_CITATION: Italian Strong Motion Network, Italian Civil Protection Department http://www.protezionecivile.gov.it
ORIGINAL_DATA_CREATOR: network: IT (Italian Strong Motion Network); owner: Dipartimento Della Protezione Civile
USER1: /home/dyna/processing-itaca/processing.py /var/www/processing//tmp/rodolfo//IT.MTR..HGE.D.20160824.013632.X.ACC.ASC /var/www/processing//tmp/rodolfo//IT.MTR..HGN.D.20160824.013632.X.ACC.ASC /var/www/processing//tmp/rodolfo//IT.MTR..HGZ.D.20160824.013632.X.ACC.ASC --tmp /var/www/processing//tmp/rodolfo/ --le 0.050 --he 15 --ln 0.050 --hn 15 --lz 0.050 --hz 15 --fo 2 --ca 0 --cz 58.2 --ta 5 --tz 5 --mf 1 --rf 0.020 --tr NT
USER2: 
USER3: 
USER4: 
USER5: 
    0.010000    75.571671
    0.020000    76.394768
    0.022000    76.972313
    0.025000    75.607414
    0.029000    75.117043
    0.030000    74.638565
    0.032000    74.822235
    0.035000    75.030724
    0.036000    75.090912
    0.040000    75.264206
    0.042000    75.413239
    0.044000    75.568726
    0.045000    75.649475
    0.046000    75.732109
    0.048000    75.900604
    0.050000    76.090416
    0.055000    76.651314
    0.060000    78.779877
    0.065000    76.991005
    0.067000    80.191017
    0.070000    81.301842
    0.075000    85.549362
    0.080000   102.819260
    0.085000    96.716713
    0.090000   102.562363
    0.095000   100.662994
    0.100000    89.008110
    0.110000   101.301598
    0.120000   117.105553
    0.130000    92.416473
    0.133000    85.324211
    0.140000    77.137642
    0.150000    97.116226
    0.160000   106.846581
    0.170000   113.073334
    0.180000   124.341621
    0.190000   138.627869
    0.200000   152.961761
    0.220000   139.880981
    0.240000   138.509277
    0.250000   140.169632
    0.260000   140.505600
    0.280000   146.390518
    0.290000   148.202682
    0.300000   149.647736
    0.320000   154.401825
    0.340000   151.618423
    0.350000   150.066315
    0.360000   149.904388
    0.380000   148.580307
    0.400000   144.553955
    0.420000   143.718369
    0.440000   145.368469
    0.450000   146.185837
    0.460000   146.939056
    0.480000   147.963089
    0.500000   145.285126
    0.550000   134.907318
    0.600000   128.956787
    0.650000   128.407593
    0.667000   128.382629
    0.700000   133.248016
    0.750000   136.629211
    0.800000   135.305298
    0.850000   131.711472
    0.900000   124.023895
    0.950000   118.018074
    1.000000   112.582840
    1.100000   114.740677
    1.200000   104.567932
    1.300000    88.343498
    1.400000    79.549828
    1.500000    71.201469
    1.600000    64.588913
    1.700000    58.831978
    1.800000    67.534218
    1.900000    68.173523
    2.000000    67.301758
    2.200000    66.980843
    2.400000    52.061996
    2.500000    43.840107
    2.600000    37.462681
    2.800000    25.148834
    3.000000    18.803234
    3.200000    15.504395
    3.400000    13.455555
    3.500000    12.497464
    3.600000    11.718047
    3.800000    10.756301
    4.000000     9.887041
    4.200000     9.905804
    4.400000     9.792032
    4.600000     9.381481
    4.800000     8.750748
    5.000000     7.979759
    5.500000     5.940753
    6.000000     4.727331
    6.500000     4.057919
    7.000000     3.522720
    7.500000     3.089811
    8.000000     2.735372
    8.500000     2.441621
    9.000000     2.197395
    9.500000     1.992787
   10.000000     1.817560
