EVENT_NAME: CENTRAL_ITALY
EVENT_ID: EMSC-20160824_0000006
EVENT_DATE_YYYYMMDD: 20160824
EVENT_TIME_HHMMSS: 013632
EVENT_LATITUDE_DEGREE: 42.6983
EVENT_LONGITUDE_DEGREE: 13.2335
EVENT_DEPTH_KM: 8.1
HYPOCENTER_REFERENCE: INGV-CNT_Seismic_Bulletin
MAGNITUDE_W: 6.0
MAGNITUDE_W_REFERENCE: INGV-webservice
MAGNITUDE_L: 6.0
MAGNITUDE_L_REFERENCE: INGV-CNT_Seismic_Bulletin
FOCAL_MECHANISM: NF
NETWORK: IT
STATION_CODE: MTR
STATION_NAME: MONTEREALE
STATION_LATITUDE_DEGREE: 42.524021
STATION_LONGITUDE_DEGREE: 13.244796
STATION_ELEVATION_M: 975
LOCATION: 
SENSOR_DEPTH_M: 0.0
VS30_M/S: 
SITE_CLASSIFICATION_EC8: B*
MORPHOLOGIC_CLASSIFICATION: R
EPICENTRAL_DISTANCE_KM: 19.4
EARTHQUAKE_BACKAZIMUTH_DEGREE: 357.3
DATE_TIME_FIRST_SAMPLE_YYYYMMDD_HHMMSS: 20160824_013630.795
DATE_TIME_FIRST_SAMPLE_PRECISION: milliseconds
SAMPLING_INTERVAL_S: 0.020000
NDATA: 2250
DURATION_S: 45.000
STREAM: HGN
UNITS: cm
INSTRUMENT: sensor = Unknown [Unknown] | digitizer = Unknown [Unknown]
INSTRUMENT_ANALOG/DIGITAL: D
INSTRUMENTAL_FREQUENCY_HZ: 
INSTRUMENTAL_DAMPING: 
FULL_SCALE_G: 
N_BIT_DIGITAL_CONVERTER: 
PGD_CM: -2.684084
TIME_PGD_S: 12.860000
BASELINE_CORRECTION: BASELINE REMOVED
FILTER_TYPE: BUTTERWORTH
FILTER_ORDER: 2
LOW_CUT_FREQUENCY_HZ: 0.050
HIGH_CUT_FREQUENCY_HZ: 15.000
LATE/NORMAL_TRIGGERED: NT
DATABASE_VERSION: DYNA 1.0
HEADER_FORMAT: DYNA 1.2
DATA_TYPE: DISPLACEMENT
PROCESSING: manual (Paolucci et al., 2011)
DATA_TIMESTAMP_YYYYMMDD_HHMMSS: 20191119_160111.228
DATA_LICENSE: CC-BY3_0-IT (http://creativecommons.org/licenses/by/3.0/deed.en)
DATA_CITATION: Luzi L, Puglia R, Russo E & ORFEUS WG5 (2016). Engineering Strong Motion Database. Istituto Nazionale di Geofisica e Vulcanologia, Observatories & Research Facilities for European Seismology. doi: 10.13127/ESM
DATA_CREATOR: ESM working group
ORIGINAL_DATA_MEDIATOR_CITATION: Ufficio Rischio Sismico e Vulcanico del Dipartimento della Protezione Civile (http://www.protezionecivile.gov.it/)
ORIGINAL_DATA_MEDIATOR: http://www.mot1.it/randownload/
ORIGINAL_DATA_CREATOR_CITATION: Italian Strong Motion Network, Italian Civil Protection Department http://www.protezionecivile.gov.it
ORIGINAL_DATA_CREATOR: network: IT (Italian Strong Motion Network); owner: Dipartimento Della Protezione Civile
USER1: /home/dyna/processing-itaca/processing.py /var/www/processing//tmp/rodolfo//IT.MTR..HGE.D.20160824.013632.X.ACC.ASC /var/www/processing//tmp/rodolfo//IT.MTR..HGN.D.20160824.013632.X.ACC.ASC /var/www/processing//tmp/rodolfo//IT.MTR..HGZ.D.20160824.013632.X.ACC.ASC --tmp /var/www/processing//tmp/rodolfo/ --le 0.050 --he 15 --ln 0.050 --hn 15 --lz 0.050 --hz 15 --fo 2 --ca 0 --cz 58.2 --ta 5 --tz 5 --mf 1 --rf 0.020 --tr NT
USER2: 
USER3: 
USER4: 
USER5: 
0.000000e+00
3.216391e-06
1.287243e-05
2.897525e-05
5.152818e-05
8.053139e-05
1.159824e-04
1.578769e-04
2.062092e-04
2.609728e-04
3.221614e-04
3.897693e-04
4.637919e-04
5.442270e-04
6.310745e-04
7.243379e-04
8.240248e-04
9.301467e-04
1.042721e-03
1.161769e-03
1.287321e-03
1.419413e-03
1.558087e-03
1.703394e-03
1.855392e-03
2.014150e-03
2.179742e-03
2.352255e-03
2.531784e-03
2.718432e-03
2.912311e-03
3.113542e-03
3.322261e-03
3.538613e-03
3.762750e-03
3.994833e-03
4.235024e-03
4.483491e-03
4.740426e-03
5.006031e-03
5.280514e-03
5.564099e-03
5.856993e-03
6.159395e-03
6.471538e-03
6.793671e-03
7.126004e-03
7.468758e-03
7.822201e-03
8.186573e-03
8.562091e-03
8.949003e-03
9.347536e-03
9.757869e-03
1.018018e-02
1.061469e-02
1.106164e-02
1.152130e-02
1.199390e-02
1.247961e-02
1.297855e-02
1.349079e-02
1.401645e-02
1.455568e-02
1.510858e-02
1.567524e-02
1.625579e-02
1.685029e-02
1.745874e-02
1.808104e-02
1.871705e-02
1.936669e-02
2.002995e-02
2.070664e-02
2.139656e-02
2.209954e-02
2.281543e-02
2.354397e-02
2.428471e-02
2.503697e-02
2.580030e-02
2.657454e-02
2.735946e-02
2.815477e-02
2.896010e-02
2.977459e-02
3.059746e-02
3.142817e-02
3.226610e-02
3.311047e-02
3.396039e-02
3.481493e-02
3.567335e-02
3.653489e-02
3.739852e-02
3.826341e-02
3.912909e-02
3.999481e-02
4.085932e-02
4.172129e-02
4.257986e-02
4.343450e-02
4.428381e-02
4.512565e-02
4.595920e-02
4.678454e-02
4.760062e-02
4.840563e-02
4.919804e-02
4.997631e-02
5.073938e-02
5.148703e-02
5.221826e-02
5.294161e-02
5.366717e-02
5.439591e-02
5.512793e-02
5.586225e-02
5.659881e-02
5.733853e-02
5.808151e-02
5.882726e-02
5.957550e-02
6.032596e-02
6.107892e-02
6.183500e-02
6.259394e-02
6.335515e-02
6.411892e-02
6.488580e-02
6.565583e-02
6.642875e-02
6.720407e-02
6.798158e-02
6.876177e-02
6.954527e-02
7.033216e-02
7.112202e-02
7.191470e-02
7.271076e-02
7.351084e-02
7.431444e-02
7.512073e-02
7.593005e-02
7.674306e-02
7.756001e-02
7.838130e-02
7.920672e-02
8.003518e-02
8.086665e-02
8.170159e-02
8.253943e-02
8.337979e-02
8.422312e-02
8.506925e-02
8.591791e-02
8.676944e-02
8.762391e-02
8.848108e-02
8.934135e-02
9.020532e-02
9.107276e-02
9.194276e-02
9.281505e-02
9.369022e-02
9.456842e-02
9.544934e-02
9.633296e-02
9.721936e-02
9.810856e-02
9.900075e-02
9.989620e-02
1.007949e-01
1.016968e-01
1.026018e-01
1.035103e-01
1.044222e-01
1.053376e-01
1.062564e-01
1.071786e-01
1.081041e-01
1.090323e-01
1.099636e-01
1.108986e-01
1.118373e-01
1.127792e-01
1.137237e-01
1.146710e-01
1.156207e-01
1.165729e-01
1.175283e-01
1.184870e-01
1.194483e-01
1.204117e-01
1.213777e-01
1.223468e-01
1.233192e-01
1.242951e-01
1.252747e-01
1.262575e-01
1.272429e-01
1.282311e-01
1.292228e-01
1.302178e-01
1.312155e-01
1.322156e-01
1.332183e-01
1.342243e-01
1.352338e-01
1.362469e-01
1.372630e-01
1.382815e-01
1.393022e-01
1.403255e-01
1.413515e-01
1.423805e-01
1.434126e-01
1.444475e-01
1.454850e-01
1.465254e-01
1.475692e-01
1.486164e-01
1.496674e-01
1.507222e-01
1.517802e-01
1.528409e-01
1.539042e-01
1.549703e-01
1.560390e-01
1.571106e-01
1.581854e-01
1.592633e-01
1.603437e-01
1.614263e-01
1.625115e-01
1.635995e-01
1.646899e-01
1.657827e-01
1.668783e-01
1.679769e-01
1.690782e-01
1.701824e-01
1.712893e-01
1.723995e-01
1.735130e-01
1.746299e-01
1.757502e-01
1.768736e-01
1.779994e-01
1.791274e-01
1.802581e-01
1.813918e-01
1.825285e-01
1.836682e-01
1.848106e-01
1.859551e-01
1.871021e-01
1.882517e-01
1.894038e-01
1.905584e-01
1.917156e-01
1.928748e-01
1.940356e-01
1.951989e-01
1.963651e-01
1.975331e-01
1.987025e-01
1.998734e-01
2.010467e-01
2.022224e-01
2.034004e-01
2.045804e-01
2.057621e-01
2.069459e-01
2.081320e-01
2.093195e-01
2.105083e-01
2.116993e-01
2.128930e-01
2.140888e-01
2.152872e-01
2.164886e-01
2.176925e-01
2.188980e-01
2.201051e-01
2.213135e-01
2.225227e-01
2.237329e-01
2.249468e-01
2.261681e-01
2.273938e-01
2.286137e-01
2.298281e-01
2.310578e-01
2.323128e-01
2.335648e-01
2.347807e-01
2.359746e-01
2.371954e-01
2.384449e-01
2.396482e-01
2.407787e-01
2.419460e-01
2.432237e-01
2.444966e-01
2.456524e-01
2.467694e-01
2.479740e-01
2.492741e-01
2.505914e-01
2.518346e-01
2.529815e-01
2.541220e-01
2.553370e-01
2.566313e-01
2.580032e-01
2.593859e-01
2.606687e-01
2.619077e-01
2.632468e-01
2.646853e-01
2.661595e-01
2.677159e-01
2.694042e-01
2.710241e-01
2.723496e-01
2.736076e-01
2.750777e-01
2.765343e-01
2.777348e-01
2.787388e-01
2.795567e-01
2.801739e-01
2.806398e-01
2.809867e-01
2.813344e-01
2.816760e-01
2.817147e-01
2.813880e-01
2.809413e-01
2.803207e-01
2.792621e-01
2.778193e-01
2.761388e-01
2.740083e-01
2.712039e-01
2.678926e-01
2.641889e-01
2.601220e-01
2.561896e-01
2.526481e-01
2.487613e-01
2.436910e-01
2.371310e-01
2.295624e-01
2.225780e-01
2.169688e-01
2.108505e-01
2.020793e-01
1.910334e-01
1.793638e-01
1.680905e-01
1.575044e-01
1.471112e-01
1.356437e-01
1.217827e-01
1.050035e-01
8.635539e-02
6.793138e-02
5.060590e-02
3.312080e-02
1.396952e-02
-6.638044e-03
-2.690467e-02
-4.511605e-02
-6.098490e-02
-7.535420e-02
-8.889504e-02
-1.015874e-01
-1.137366e-01
-1.263289e-01
-1.392902e-01
-1.518842e-01
-1.652118e-01
-1.797724e-01
-1.931947e-01
-2.055414e-01
-2.201284e-01
-2.365814e-01
-2.517342e-01
-2.650400e-01
-2.768962e-01
-2.875257e-01
-2.983391e-01
-3.094828e-01
-3.202202e-01
-3.319228e-01
-3.449729e-01
-3.571683e-01
-3.682317e-01
-3.799536e-01
-3.928533e-01
-4.066577e-01
-4.207290e-01
-4.328006e-01
-4.409611e-01
-4.467252e-01
-4.531977e-01
-4.613355e-01
-4.701213e-01
-4.786470e-01
-4.872325e-01
-4.971523e-01
-5.085071e-01
-5.201778e-01
-5.327084e-01
-5.475449e-01
-5.639435e-01
-5.794271e-01
-5.918773e-01
-6.021372e-01
-6.145930e-01
-6.306458e-01
-6.455684e-01
-6.566379e-01
-6.670788e-01
-6.803812e-01
-6.971056e-01
-7.155698e-01
-7.336321e-01
-7.515649e-01
-7.713958e-01
-7.935286e-01
-8.158783e-01
-8.352382e-01
-8.506385e-01
-8.659675e-01
-8.855964e-01
-9.082329e-01
-9.293830e-01
-9.481365e-01
-9.672135e-01
-9.869971e-01
-1.004848e+00
-1.021784e+00
-1.041636e+00
-1.061517e+00
-1.075319e+00
-1.085346e+00
-1.095957e+00
-1.104435e+00
-1.110077e+00
-1.116630e+00
-1.122597e+00
-1.126462e+00
-1.133705e+00
-1.145739e+00
-1.157017e+00
-1.168484e+00
-1.185330e+00
-1.203059e+00
-1.215680e+00
-1.228719e+00
-1.246215e+00
-1.262359e+00
-1.276316e+00
-1.292659e+00
-1.309078e+00
-1.323312e+00
-1.338668e+00
-1.352331e+00
-1.358238e+00
-1.361098e+00
-1.367120e+00
-1.371543e+00
-1.371622e+00
-1.373092e+00
-1.375771e+00
-1.374656e+00
-1.372627e+00
-1.374202e+00
-1.377903e+00
-1.384450e+00
-1.397749e+00
-1.415638e+00
-1.433349e+00
-1.452205e+00
-1.473448e+00
-1.493048e+00
-1.510578e+00
-1.528939e+00
-1.544212e+00
-1.550685e+00
-1.548693e+00
-1.538884e+00
-1.519889e+00
-1.490785e+00
-1.449095e+00
-1.392945e+00
-1.324580e+00
-1.247274e+00
-1.162107e+00
-1.066931e+00
-9.581097e-01
-8.344828e-01
-6.952967e-01
-5.382843e-01
-3.670166e-01
-1.933363e-01
-2.823390e-02
1.230383e-01
2.577907e-01
3.749359e-01
4.748685e-01
5.558647e-01
6.162742e-01
6.619119e-01
7.004748e-01
7.297454e-01
7.450179e-01
7.529460e-01
7.643789e-01
7.822351e-01
8.064003e-01
8.378417e-01
8.712086e-01
8.961297e-01
9.063930e-01
9.004397e-01
8.836069e-01
8.703449e-01
8.666283e-01
8.612326e-01
8.498342e-01
8.430328e-01
8.428540e-01
8.419194e-01
8.425523e-01
8.504712e-01
8.631453e-01
8.810622e-01
9.128980e-01
9.634503e-01
1.030537e+00
1.109565e+00
1.192664e+00
1.272523e+00
1.349691e+00
1.428095e+00
1.507402e+00
1.586145e+00
1.664368e+00
1.737716e+00
1.798090e+00
1.843731e+00
1.878261e+00
1.898680e+00
1.896207e+00
1.870775e+00
1.835321e+00
1.801703e+00
1.768455e+00
1.729584e+00
1.688978e+00
1.654031e+00
1.622842e+00
1.592537e+00
1.570170e+00
1.561385e+00
1.561946e+00
1.568849e+00
1.580609e+00
1.588571e+00
1.591194e+00
1.602797e+00
1.629242e+00
1.658403e+00
1.681346e+00
1.699332e+00
1.715412e+00
1.734312e+00
1.762374e+00
1.801075e+00
1.844370e+00
1.888131e+00
1.937297e+00
1.990034e+00
2.027855e+00
2.038372e+00
2.027246e+00
1.999983e+00
1.955670e+00
1.898617e+00
1.839162e+00
1.784993e+00
1.739392e+00
1.703502e+00
1.673705e+00
1.644312e+00
1.615945e+00
1.587926e+00
1.550907e+00
1.502913e+00
1.451912e+00
1.397624e+00
1.337795e+00
1.280245e+00
1.228036e+00
1.175335e+00
1.123034e+00
1.075603e+00
1.027657e+00
9.686834e-01
8.959218e-01
8.136790e-01
7.200611e-01
6.067908e-01
4.772638e-01
3.450107e-01
2.103339e-01
6.359123e-02
-9.219047e-02
-2.484693e-01
-4.086103e-01
-5.754537e-01
-7.385068e-01
-8.895493e-01
-1.035678e+00
-1.188615e+00
-1.351221e+00
-1.517762e+00
-1.682000e+00
-1.841594e+00
-1.994815e+00
-2.136052e+00
-2.258201e+00
-2.359452e+00
-2.443369e+00
-2.512617e+00
-2.568963e+00
-2.616061e+00
-2.654234e+00
-2.677978e+00
-2.684084e+00
-2.676146e+00
-2.659014e+00
-2.633716e+00
-2.600135e+00
-2.562137e+00
-2.524357e+00
-2.485462e+00
-2.442952e+00
-2.400243e+00
-2.360381e+00
-2.321685e+00
-2.284883e+00
-2.251923e+00
-2.219140e+00
-2.184343e+00
-2.151368e+00
-2.119163e+00
-2.081322e+00
-2.038250e+00
-1.995606e+00
-1.955632e+00
-1.918810e+00
-1.885445e+00
-1.852168e+00
-1.815503e+00
-1.778112e+00
-1.743160e+00
-1.706898e+00
-1.666154e+00
-1.626267e+00
-1.592846e+00
-1.563333e+00
-1.533797e+00
-1.508316e+00
-1.493831e+00
-1.488662e+00
-1.486555e+00
-1.486809e+00
-1.487857e+00
-1.483366e+00
-1.474140e+00
-1.466063e+00
-1.456633e+00
-1.440990e+00
-1.422258e+00
-1.404262e+00
-1.384101e+00
-1.357269e+00
-1.324355e+00
-1.288708e+00
-1.249276e+00
-1.203107e+00
-1.152870e+00
-1.101802e+00
-1.047706e+00
-9.905270e-01
-9.347592e-01
-8.804051e-01
-8.234930e-01
-7.643527e-01
-7.063033e-01
-6.507788e-01
-5.986231e-01
-5.499307e-01
-5.017530e-01
-4.523072e-01
-4.042006e-01
-3.585332e-01
-3.129165e-01
-2.682748e-01
-2.294340e-01
-1.979556e-01
-1.698874e-01
-1.398674e-01
-1.044116e-01
-6.138311e-02
-8.515761e-03
5.518532e-02
1.271897e-01
2.031295e-01
2.812601e-01
3.637200e-01
4.525429e-01
5.461501e-01
6.417190e-01
7.390273e-01
8.384546e-01
9.370610e-01
1.031444e+00
1.122382e+00
1.212027e+00
1.300487e+00
1.388108e+00
1.475017e+00
1.558675e+00
1.637654e+00
1.712888e+00
1.782921e+00
1.845976e+00
1.903097e+00
1.952362e+00
1.989486e+00
2.016437e+00
2.038142e+00
2.054143e+00
2.061778e+00
2.060600e+00
2.051651e+00
2.038284e+00
2.023197e+00
2.004408e+00
1.982131e+00
1.962039e+00
1.944499e+00
1.922999e+00
1.895900e+00
1.866527e+00
1.833164e+00
1.791301e+00
1.743461e+00
1.695750e+00
1.647897e+00
1.597650e+00
1.548768e+00
1.504198e+00
1.460654e+00
1.416076e+00
1.371438e+00
1.325224e+00
1.275984e+00
1.225188e+00
1.171438e+00
1.110629e+00
1.044137e+00
9.762047e-01
9.048259e-01
8.265331e-01
7.446064e-01
6.621577e-01
5.762520e-01
4.853708e-01
3.910111e-01
2.924818e-01
1.920133e-01
9.641487e-02
6.002893e-03
-8.369165e-02
-1.699497e-01
-2.481645e-01
-3.198242e-01
-3.839548e-01
-4.349970e-01
-4.735379e-01
-5.053138e-01
-5.327012e-01
-5.565210e-01
-5.778846e-01
-5.948805e-01
-6.059173e-01
-6.133833e-01
-6.185822e-01
-6.195522e-01
-6.163562e-01
-6.124761e-01
-6.096297e-01
-6.055766e-01
-5.986573e-01
-5.906225e-01
-5.839685e-01
-5.810059e-01
-5.841010e-01
-5.918340e-01
-5.991838e-01
-6.053496e-01
-6.150338e-01
-6.301553e-01
-6.471714e-01
-6.628848e-01
-6.773707e-01
-6.919089e-01
-7.078387e-01
-7.263437e-01
-7.466387e-01
-7.652574e-01
-7.790017e-01
-7.879012e-01
-7.939195e-01
-7.973953e-01
-7.967930e-01
-7.916767e-01
-7.832215e-01
-7.727527e-01
-7.613759e-01
-7.473790e-01
-7.252255e-01
-6.926780e-01
-6.537552e-01
-6.109447e-01
-5.639998e-01
-5.165128e-01
-4.724588e-01
-4.287742e-01
-3.797786e-01
-3.246078e-01
-2.658532e-01
-2.055510e-01
-1.450434e-01
-8.619819e-02
-3.043198e-02
2.319657e-02
7.643924e-02
1.296330e-01
1.837298e-01
2.400321e-01
2.964310e-01
3.501171e-01
4.016650e-01
4.522663e-01
5.029597e-01
5.555589e-01
6.078797e-01
6.539792e-01
6.925190e-01
7.275319e-01
7.611912e-01
7.919398e-01
8.196052e-01
8.479295e-01
8.776534e-01
9.012491e-01
9.135372e-01
9.211440e-01
9.314857e-01
9.417031e-01
9.455959e-01
9.424300e-01
9.356721e-01
9.271844e-01
9.142834e-01
8.953552e-01
8.749673e-01
8.564201e-01
8.363509e-01
8.119739e-01
7.834741e-01
7.497015e-01
7.108440e-01
6.693903e-01
6.244866e-01
5.738119e-01
5.198510e-01
4.671554e-01
4.148399e-01
3.565576e-01
2.900054e-01
2.206861e-01
1.519590e-01
8.123348e-02
7.838144e-03
-6.647608e-02
-1.414344e-01
-2.162932e-01
-2.898336e-01
-3.609646e-01
-4.258751e-01
-4.804486e-01
-5.249567e-01
-5.622327e-01
-5.958675e-01
-6.303151e-01
-6.663717e-01
-7.001660e-01
-7.300483e-01
-7.566799e-01
-7.785758e-01
-7.964215e-01
-8.132769e-01
-8.265735e-01
-8.330483e-01
-8.375086e-01
-8.430853e-01
-8.436702e-01
-8.368111e-01
-8.298600e-01
-8.262544e-01
-8.206426e-01
-8.110516e-01
-8.010358e-01
-7.891833e-01
-7.701786e-01
-7.449061e-01
-7.186722e-01
-6.919552e-01
-6.609617e-01
-6.255625e-01
-5.905603e-01
-5.587364e-01
-5.276834e-01
-4.955390e-01
-4.645830e-01
-4.361086e-01
-4.079744e-01
-3.805030e-01
-3.574403e-01
-3.393090e-01
-3.237410e-01
-3.105086e-01
-2.993912e-01
-2.889342e-01
-2.807598e-01
-2.773923e-01
-2.766463e-01
-2.749633e-01
-2.726791e-01
-2.716841e-01
-2.722061e-01
-2.735841e-01
-2.745528e-01
-2.728762e-01
-2.667817e-01
-2.564345e-01
-2.438979e-01
-2.313141e-01
-2.191730e-01
-2.074837e-01
-1.966992e-01
-1.865087e-01
-1.766973e-01
-1.681017e-01
-1.602702e-01
-1.514554e-01
-1.421217e-01
-1.348319e-01
-1.303474e-01
-1.263936e-01
-1.209187e-01
-1.149530e-01
-1.104855e-01
-1.080895e-01
-1.088631e-01
-1.132398e-01
-1.175681e-01
-1.192011e-01
-1.203652e-01
-1.216663e-01
-1.213819e-01
-1.209712e-01
-1.214026e-01
-1.204242e-01
-1.184959e-01
-1.180189e-01
-1.173524e-01
-1.133158e-01
-1.060956e-01
-9.783812e-02
-8.949140e-02
-8.014740e-02
-6.906391e-02
-5.844196e-02
-5.146970e-02
-4.711131e-02
-4.136460e-02
-3.304023e-02
-2.365842e-02
-1.401334e-02
-4.107653e-03
6.167696e-03
1.784840e-02
3.307454e-02
5.311856e-02
7.656973e-02
1.021920e-01
1.320681e-01
1.674004e-01
2.048427e-01
2.420411e-01
2.815424e-01
3.250370e-01
3.698556e-01
4.137391e-01
4.569003e-01
4.987540e-01
5.378065e-01
5.741993e-01
6.097587e-01
6.463241e-01
6.842275e-01
7.223091e-01
7.592711e-01
7.935547e-01
8.231539e-01
8.478138e-01
8.696823e-01
8.902998e-01
9.085994e-01
9.229664e-01
9.337496e-01
9.417731e-01
9.464600e-01
9.479251e-01
9.469085e-01
9.413224e-01
9.289302e-01
9.121599e-01
8.940439e-01
8.738358e-01
8.513491e-01
8.287415e-01
8.051788e-01
7.775499e-01
7.471647e-01
7.178247e-01
6.885805e-01
6.558674e-01
6.202622e-01
5.850367e-01
5.509320e-01
5.163357e-01
4.797541e-01
4.403292e-01
3.986138e-01
3.565912e-01
3.149838e-01
2.730897e-01
2.318212e-01
1.926312e-01
1.550273e-01
1.191458e-01
8.673896e-02
5.764397e-02
3.021338e-02
4.622570e-03
-1.803452e-02
-3.792227e-02
-5.574973e-02
-7.163826e-02
-8.605932e-02
-1.004740e-01
-1.148039e-01
-1.268058e-01
-1.364829e-01
-1.459976e-01
-1.549396e-01
-1.629257e-01
-1.725865e-01
-1.832312e-01
-1.904687e-01
-1.954077e-01
-2.029633e-01
-2.123450e-01
-2.197421e-01
-2.256355e-01
-2.321560e-01
-2.392640e-01
-2.466764e-01
-2.544927e-01
-2.621131e-01
-2.690907e-01
-2.754047e-01
-2.807910e-01
-2.851362e-01
-2.887745e-01
-2.920891e-01
-2.950559e-01
-2.970215e-01
-2.974449e-01
-2.970987e-01
-2.979678e-01
-3.011465e-01
-3.048727e-01
-3.065711e-01
-3.069432e-01
-3.087400e-01
-3.117936e-01
-3.137391e-01
-3.148889e-01
-3.172221e-01
-3.199248e-01
-3.210687e-01
-3.209290e-01
-3.196284e-01
-3.163111e-01
-3.122153e-01
-3.087075e-01
-3.043577e-01
-2.991034e-01
-2.959163e-01
-2.949879e-01
-2.932314e-01
-2.910288e-01
-2.920103e-01
-2.957772e-01
-2.984855e-01
-3.000840e-01
-3.032448e-01
-3.071219e-01
-3.094240e-01
-3.107795e-01
-3.117426e-01
-3.112971e-01
-3.103691e-01
-3.102994e-01
-3.096171e-01
-3.076353e-01
-3.062576e-01
-3.053961e-01
-3.032073e-01
-3.008375e-01
-2.999891e-01
-2.986283e-01
-2.955310e-01
-2.936403e-01
-2.941888e-01
-2.947872e-01
-2.950182e-01
-2.960527e-01
-2.960354e-01
-2.926881e-01
-2.873254e-01
-2.815398e-01
-2.742306e-01
-2.648470e-01
-2.548163e-01
-2.444240e-01
-2.325985e-01
-2.194953e-01
-2.057629e-01
-1.904694e-01
-1.727496e-01
-1.542856e-01
-1.370924e-01
-1.199875e-01
-1.008230e-01
-8.047002e-02
-6.091364e-02
-4.207695e-02
-2.295609e-02
-2.775247e-03
1.910204e-02
4.209334e-02
6.492551e-02
8.711220e-02
1.077353e-01
1.255036e-01
1.412971e-01
1.570275e-01
1.725509e-01
1.866096e-01
1.990150e-01
2.104476e-01
2.216839e-01
2.330638e-01
2.440468e-01
2.538266e-01
2.622825e-01
2.699182e-01
2.770905e-01
2.834301e-01
2.882313e-01
2.912962e-01
2.926633e-01
2.919215e-01
2.889014e-01
2.843854e-01
2.790158e-01
2.724080e-01
2.641012e-01
2.541229e-01
2.426627e-01
2.304903e-01
2.181592e-01
2.040922e-01
1.865974e-01
1.672721e-01
1.485532e-01
1.298492e-01
1.098617e-01
9.006290e-02
7.231783e-02
5.561451e-02
3.871688e-02
2.332797e-02
1.113588e-02
1.201738e-03
-7.388421e-03
-1.418057e-02
-1.906069e-02
-2.245557e-02
-2.455770e-02
-2.511821e-02
-2.395630e-02
-2.202479e-02
-2.004394e-02
-1.652961e-02
-1.053529e-02
-3.983713e-03
1.590623e-03
6.668904e-03
1.124066e-02
1.489588e-02
1.835172e-02
2.199658e-02
2.532999e-02
2.867210e-02
3.252448e-02
3.638778e-02
4.046898e-02
4.574357e-02
5.157041e-02
5.683790e-02
6.225058e-02
6.830144e-02
7.385959e-02
7.861012e-02
8.344591e-02
8.804964e-02
9.093859e-02
9.145049e-02
8.989018e-02
8.645061e-02
8.122918e-02
7.469742e-02
6.740910e-02
6.006896e-02
5.366673e-02
4.814640e-02
4.243701e-02
3.692552e-02
3.288514e-02
2.945996e-02
2.505073e-02
2.027734e-02
1.608652e-02
1.140184e-02
5.284574e-03
-1.239897e-03
-7.135794e-03
-1.272601e-02
-1.847043e-02
-2.438729e-02
-3.044961e-02
-3.640523e-02
-4.240058e-02
-4.977435e-02
