EVENT_NAME: CENTRAL_ITALY
EVENT_ID: EMSC-20160824_0000006
EVENT_DATE_YYYYMMDD: 20160824
EVENT_TIME_HHMMSS: 013632
EVENT_LATITUDE_DEGREE: 42.6983
EVENT_LONGITUDE_DEGREE: 13.2335
EVENT_DEPTH_KM: 8.1
HYPOCENTER_REFERENCE: INGV-CNT_Seismic_Bulletin
MAGNITUDE_W: 6.0
MAGNITUDE_W_REFERENCE: INGV-webservice
MAGNITUDE_L: 6.0
MAGNITUDE_L_REFERENCE: INGV-CNT_Seismic_Bulletin
FOCAL_MECHANISM: NF
NETWORK: IT
STATION_CODE: MTR
STATION_NAME: MONTEREALE
STATION_LATITUDE_DEGREE: 42.524021
STATION_LONGITUDE_DEGREE: 13.244796
STATION_ELEVATION_M: 975
LOCATION: 
SENSOR_DEPTH_M: 0.0
VS30_M/S: 
SITE_CLASSIFICATION_EC8: B*
MORPHOLOGIC_CLASSIFICATION: R
EPICENTRAL_DISTANCE_KM: 19.4
EARTHQUAKE_BACKAZIMUTH_DEGREE: 357.3
DATE_TIME_FIRST_SAMPLE_YYYYMMDD_HHMMSS: 20160824_013630.795
DATE_TIME_FIRST_SAMPLE_PRECISION: milliseconds
SAMPLING_INTERVAL_S: 0.020000
NDATA: 2250
DURATION_S: 45.000
STREAM: HGN
UNITS: cm/s
INSTRUMENT: sensor = Unknown [Unknown] | digitizer = Unknown [Unknown]
INSTRUMENT_ANALOG/DIGITAL: D
INSTRUMENTAL_FREQUENCY_HZ: 
INSTRUMENTAL_DAMPING: 
FULL_SCALE_G: 
N_BIT_DIGITAL_CONVERTER: 
PGV_CM/S: 8.684011
TIME_PGV_S: 10.160000
BASELINE_CORRECTION: BASELINE REMOVED
FILTER_TYPE: BUTTERWORTH
FILTER_ORDER: 2
LOW_CUT_FREQUENCY_HZ: 0.050
HIGH_CUT_FREQUENCY_HZ: 15.000
LATE/NORMAL_TRIGGERED: NT
DATABASE_VERSION: DYNA 1.0
HEADER_FORMAT: DYNA 1.2
DATA_TYPE: VELOCITY
PROCESSING: manual (Paolucci et al., 2011)
DATA_TIMESTAMP_YYYYMMDD_HHMMSS: 20191119_160111.228
DATA_LICENSE: CC-BY3_0-IT (http://creativecommons.org/licenses/by/3.0/deed.en)
DATA_CITATION: Luzi L, Puglia R, Russo E & ORFEUS WG5 (2016). Engineering Strong Motion Database. Istituto Nazionale di Geofisica e Vulcanologia, Observatories & Research Facilities for European Seismology. doi: 10.13127/ESM
DATA_CREATOR: ESM working group
ORIGINAL_DATA_MEDIATOR_CITATION: Ufficio Rischio Sismico e Vulcanico del Dipartimento della Protezione Civile (http://www.protezionecivile.gov.it/)
ORIGINAL_DATA_MEDIATOR: http://www.mot1.it/randownload/
ORIGINAL_DATA_CREATOR_CITATION: Italian Strong Motion Network, Italian Civil Protection Department http://www.protezionecivile.gov.it
ORIGINAL_DATA_CREATOR: network: IT (Italian Strong Motion Network); owner: Dipartimento Della Protezione Civile
USER1: /home/dyna/processing-itaca/processing.py /var/www/processing//tmp/rodolfo//IT.MTR..HGE.D.20160824.013632.X.ACC.ASC /var/www/processing//tmp/rodolfo//IT.MTR..HGN.D.20160824.013632.X.ACC.ASC /var/www/processing//tmp/rodolfo//IT.MTR..HGZ.D.20160824.013632.X.ACC.ASC --tmp /var/www/processing//tmp/rodolfo/ --le 0.050 --he 15 --ln 0.050 --hn 15 --lz 0.050 --hz 15 --fo 2 --ca 0 --cz 58.2 --ta 5 --tz 5 --mf 1 --rf 0.020 --tr NT
USER2: 
USER3: 
USER4: 
USER5: 
0.000000
0.000161
0.000483
0.000805
0.001128
0.001450
0.001773
0.002095
0.002417
0.002738
0.003059
0.003380
0.003701
0.004022
0.004342
0.004663
0.004984
0.005306
0.005629
0.005952
0.006278
0.006605
0.006934
0.007265
0.007600
0.007938
0.008280
0.008626
0.008976
0.009332
0.009694
0.010062
0.010436
0.010818
0.011207
0.011604
0.012010
0.012423
0.012847
0.013280
0.013724
0.014179
0.014645
0.015120
0.015607
0.016107
0.016617
0.017138
0.017672
0.018219
0.018776
0.019346
0.019927
0.020517
0.021116
0.021725
0.022348
0.022983
0.023630
0.024285
0.024947
0.025612
0.026283
0.026961
0.027645
0.028333
0.029028
0.029725
0.030422
0.031115
0.031800
0.032482
0.033163
0.033835
0.034496
0.035149
0.035795
0.036427
0.037037
0.037613
0.038166
0.038712
0.039246
0.039766
0.040266
0.040725
0.041143
0.041535
0.041897
0.042219
0.042496
0.042727
0.042921
0.043077
0.043181
0.043245
0.043284
0.043286
0.043225
0.043098
0.042929
0.042732
0.042465
0.042092
0.041677
0.041267
0.040804
0.040250
0.039621
0.038913
0.038154
0.037383
0.036561
0.036168
0.036278
0.036437
0.036601
0.036716
0.036828
0.036986
0.037149
0.037287
0.037412
0.037523
0.037648
0.037804
0.037947
0.038060
0.038189
0.038344
0.038502
0.038646
0.038766
0.038876
0.039009
0.039175
0.039344
0.039493
0.039634
0.039803
0.040004
0.040180
0.040314
0.040466
0.040651
0.040847
0.041065
0.041271
0.041423
0.041573
0.041747
0.041892
0.042018
0.042166
0.042306
0.042433
0.042577
0.042723
0.042859
0.043013
0.043198
0.043372
0.043500
0.043615
0.043758
0.043910
0.044046
0.044181
0.044320
0.044460
0.044610
0.044772
0.044936
0.045094
0.045253
0.045420
0.045597
0.045771
0.045940
0.046111
0.046272
0.046413
0.046564
0.046749
0.046937
0.047092
0.047228
0.047361
0.047485
0.047613
0.047768
0.047934
0.048066
0.048171
0.048300
0.048456
0.048618
0.048794
0.048982
0.049141
0.049269
0.049411
0.049583
0.049751
0.049885
0.050002
0.050138
0.050300
0.050476
0.050653
0.050807
0.050924
0.051035
0.051163
0.051301
0.051449
0.051605
0.051746
0.051875
0.052021
0.052189
0.052363
0.052548
0.052739
0.052903
0.053034
0.053164
0.053303
0.053438
0.053580
0.053740
0.053895
0.054018
0.054132
0.054260
0.054396
0.054521
0.054642
0.054779
0.054928
0.055069
0.055206
0.055350
0.055506
0.055675
0.055845
0.056014
0.056170
0.056293
0.056401
0.056535
0.056685
0.056833
0.056985
0.057119
0.057227
0.057347
0.057482
0.057604
0.057729
0.057862
0.057960
0.058041
0.058165
0.058307
0.058404
0.058466
0.058548
0.058663
0.058787
0.058900
0.059000
0.059087
0.059189
0.059302
0.059378
0.059439
0.059550
0.059683
0.059792
0.059920
0.060071
0.060191
0.060277
0.060357
0.060420
0.060456
0.060511
0.060698
0.061063
0.061288
0.060994
0.060721
0.061485
0.062750
0.062601
0.060793
0.059696
0.061041
0.062471
0.060167
0.056523
0.058368
0.063882
0.063648
0.057789
0.055848
0.060230
0.065007
0.065865
0.062161
0.057343
0.057028
0.060746
0.064714
0.068595
0.069135
0.064143
0.061946
0.066959
0.071926
0.073708
0.077822
0.084413
0.080996
0.066275
0.062899
0.073505
0.072830
0.060028
0.050200
0.040892
0.030859
0.023298
0.017341
0.017389
0.017079
0.001934
-0.016332
-0.022338
-0.031029
-0.052928
-0.072144
-0.084021
-0.106527
-0.140220
-0.165567
-0.185182
-0.203348
-0.196617
-0.177075
-0.194340
-0.253515
-0.328001
-0.378430
-0.349220
-0.280463
-0.305912
-0.438560
-0.552293
-0.583483
-0.563664
-0.529306
-0.519661
-0.573375
-0.693049
-0.838959
-0.932406
-0.921200
-0.866274
-0.874255
-0.957564
-1.030378
-1.013331
-0.910569
-0.793442
-0.718465
-0.677042
-0.634620
-0.607456
-0.629617
-0.648066
-0.629699
-0.666378
-0.728031
-0.671115
-0.617335
-0.729349
-0.822648
-0.757641
-0.665290
-0.592809
-0.531476
-0.540670
-0.557189
-0.536867
-0.585129
-0.652505
-0.609770
-0.553173
-0.586095
-0.644983
-0.690223
-0.703565
-0.603580
-0.408021
-0.288206
-0.323625
-0.406894
-0.439289
-0.426282
-0.429275
-0.495991
-0.567741
-0.583535
-0.626530
-0.741824
-0.819928
-0.774183
-0.622510
-0.512993
-0.622790
-0.802642
-0.746128
-0.553478
-0.522043
-0.665118
-0.836220
-0.923212
-0.903118
-0.896639
-0.991541
-1.106643
-1.117486
-0.967995
-0.770012
-0.766451
-0.981445
-1.131827
-1.057505
-0.937675
-0.953852
-0.989175
-0.892537
-0.846815
-0.992619
-0.994033
-0.690115
-0.501325
-0.530566
-0.423906
-0.282061
-0.327666
-0.298367
-0.193254
-0.362129
-0.601693
-0.563913
-0.573357
-0.842303
-0.886441
-0.631030
-0.651964
-0.874798
-0.807226
-0.697845
-0.817131
-0.820945
-0.711729
-0.767778
-0.683156
-0.295362
-0.142960
-0.301128
-0.221148
-0.003964
-0.073477
-0.133972
0.055747
0.101454
-0.078752
-0.185054
-0.327310
-0.664985
-0.894451
-0.885546
-0.942784
-1.062137
-0.980010
-0.876494
-0.918050
-0.763669
-0.323664
0.099606
0.490478
0.949729
1.455206
2.084502
2.807516
3.418257
3.865268
4.258350
4.758830
5.441046
6.181343
6.959304
7.850622
8.563387
8.684011
8.255122
7.563611
6.737620
5.857260
4.996631
4.049807
3.020474
2.281887
1.928145
1.463529
0.763628
0.396405
0.571642
0.892811
1.208260
1.572072
1.668343
1.246054
0.513165
-0.297662
-0.841641
-0.663100
-0.185832
-0.269783
-0.569922
-0.340071
-0.008938
-0.046730
0.031646
0.395945
0.633701
0.895846
1.591791
2.527615
3.354310
3.951430
4.154963
3.992923
3.858408
3.920183
3.965369
3.937167
3.911142
3.667373
3.018714
2.282036
1.726498
1.020990
-0.123672
-1.271620
-1.772681
-1.680875
-1.662406
-1.943581
-2.030268
-1.747358
-1.559468
-1.515239
-1.118340
-0.439261
0.028043
0.345146
0.587988
0.398139
0.131132
0.580131
1.322274
1.458045
1.147154
0.899310
0.803967
0.945014
1.403099
1.935042
2.164755
2.188045
2.458327
2.636852
1.891039
0.525832
-0.556266
-1.363190
-2.215617
-2.852671
-2.972753
-2.708452
-2.280021
-1.794514
-1.489857
-1.469645
-1.418357
-1.400933
-1.850978
-2.399697
-2.550045
-2.714387
-2.991463
-2.877501
-2.610443
-2.635064
-2.615049
-2.371522
-2.397313
-2.948680
-3.638081
-4.112138
-4.680896
-5.663513
-6.476352
-6.612654
-6.733840
-7.337135
-7.789085
-7.813942
-8.007052
-8.342170
-8.152653
-7.552126
-7.306444
-7.646819
-8.130332
-8.327057
-8.211858
-7.979723
-7.661026
-7.061867
-6.107461
-5.062537
-4.195866
-3.462407
-2.817261
-2.354924
-1.908670
-1.187175
-0.305291
0.396902
0.856564
1.264911
1.679053
1.899881
1.889046
1.944707
2.125509
2.135458
1.993117
1.934770
1.840135
1.647968
1.639157
1.739867
1.648732
1.610272
1.892047
2.153614
2.132180
1.998676
1.841105
1.668278
1.663855
1.833255
1.869529
1.747595
1.813113
2.037191
1.994362
1.671027
1.475670
1.476790
1.274058
0.724258
0.258443
0.105345
-0.012712
-0.052402
0.224556
0.461320
0.403855
0.471464
0.782179
0.936566
0.899818
1.008062
1.341579
1.645731
1.782336
1.971602
2.308465
2.511837
2.553371
2.704840
2.858930
2.788390
2.717705
2.845606
2.957018
2.902466
2.776227
2.607784
2.434621
2.408885
2.472288
2.405333
2.283369
2.280837
2.232081
1.942039
1.573922
1.403411
1.500997
1.772794
2.151423
2.643368
3.185054
3.600217
3.796990
3.906530
4.122995
4.441148
4.680358
4.778448
4.865415
4.971364
4.930317
4.719163
4.546877
4.482259
4.423009
4.381067
4.345405
4.182912
3.948980
3.761678
3.501659
3.152738
2.856048
2.463278
1.856164
1.347560
1.085252
0.800038
0.381746
-0.058880
-0.447463
-0.668362
-0.754324
-0.939442
-1.113881
-1.004578
-0.876992
-1.075026
-1.354912
-1.468653
-1.668175
-2.093152
-2.391990
-2.385536
-2.392685
-2.512335
-2.444102
-2.228503
-2.177187
-2.228892
-2.231916
-2.310690
-2.462028
-2.539761
-2.687507
-3.040469
-3.324592
-3.396614
-3.568940
-3.914638
-4.096334
-4.122439
-4.295282
-4.544061
-4.717986
-4.926466
-5.023424
-4.779921
-4.520599
-4.484727
-4.312900
-3.910741
-3.582984
-3.206535
-2.552109
-1.927045
-1.588793
-1.369369
-1.190990
-1.068179
-0.849799
-0.551840
-0.373295
-0.259947
-0.048503
0.159804
0.194006
0.142320
0.202653
0.345967
0.401736
0.332703
0.148132
-0.154757
-0.386649
-0.367490
-0.308290
-0.484211
-0.756076
-0.850804
-0.785670
-0.724296
-0.726910
-0.796486
-0.925252
-1.014751
-0.930933
-0.687215
-0.444979
-0.300911
-0.173791
0.030114
0.255817
0.422758
0.523438
0.568839
0.699845
1.107678
1.627372
1.946142
2.140524
2.347245
2.374351
2.202699
2.184233
2.449776
2.758541
2.937732
3.015112
3.025379
2.942259
2.788311
2.681427
2.662134
2.659686
2.704844
2.815111
2.819946
2.684308
2.577395
2.530064
2.534671
2.629960
2.616037
2.304974
1.926992
1.750643
1.682968
1.537428
1.383273
1.416211
1.486196
1.179786
0.614404
0.380338
0.517088
0.510869
0.194642
-0.158298
-0.337892
-0.424386
-0.645051
-0.946409
-1.019393
-0.927361
-1.003458
-1.218852
-1.424992
-1.688626
-1.942878
-2.072683
-2.245184
-2.533735
-2.698048
-2.634781
-2.615771
-2.914118
-3.327610
-3.465966
-3.436354
-3.536276
-3.669767
-3.715711
-3.747917
-3.742941
-3.677019
-3.556549
-3.245527
-2.728673
-2.225403
-1.863800
-1.681740
-1.722380
-1.802830
-1.689719
-1.494112
-1.331582
-1.094793
-0.892286
-0.842768
-0.664831
-0.323741
-0.223015
-0.278836
-0.029243
0.342955
0.347555
0.180277
0.280590
0.479549
0.500790
0.592626
0.950236
1.263624
1.311696
1.335848
1.549677
1.769961
1.750111
1.591195
1.552650
1.607217
1.547800
1.423722
1.406712
1.373568
1.153136
0.906566
0.778396
0.661621
0.555869
0.522850
0.408721
0.168376
0.037299
0.084149
0.114212
0.049747
-0.026099
-0.068898
-0.048437
0.083832
0.304724
0.517361
0.626831
0.629191
0.607053
0.584464
0.539223
0.509528
0.490568
0.429784
0.391570
0.440741
0.466687
0.364489
0.224226
0.197689
0.273748
0.298281
0.223378
0.119800
-0.038681
-0.218836
-0.216414
-0.081651
-0.058205
-0.065054
0.014220
0.020536
-0.021571
0.048919
0.096415
0.023851
0.033325
0.201829
0.361012
0.412874
0.417336
0.467200
0.554175
0.531097
0.348613
0.217920
0.287335
0.416219
0.469090
0.482254
0.495284
0.513767
0.584035
0.761307
1.002201
1.172558
1.281116
1.493804
1.766614
1.872116
1.859919
1.975064
2.174733
2.240929
2.194175
2.158058
2.092686
1.952624
1.819644
1.777967
1.828272
1.895169
1.904080
1.848103
1.714179
1.479960
1.232996
1.093423
1.030876
0.914981
0.718348
0.539158
0.401177
0.234346
0.073253
-0.050831
-0.279305
-0.619610
-0.838514
-0.905798
-1.010405
-1.124337
-1.130380
-1.178137
-1.381444
-1.519259
-1.467002
-1.462211
-1.635655
-1.780259
-1.761277
-1.705234
-1.729813
-1.829081
-1.971244
-2.085773
-2.101129
-2.080368
-2.094707
-2.063424
-1.959503
-1.880196
-1.794075
-1.620340
-1.454749
-1.371530
-1.279541
-1.132854
-0.994388
-0.891373
-0.794426
-0.721053
-0.720733
-0.716498
-0.600092
-0.483857
-0.475732
-0.447101
-0.399307
-0.483039
-0.532237
-0.361875
-0.246948
-0.377779
-0.469088
-0.369854
-0.294667
-0.326026
-0.355402
-0.370618
-0.390815
-0.381020
-0.348879
-0.315701
-0.269318
-0.217258
-0.181916
-0.165729
-0.148341
-0.098280
-0.021171
0.017309
-0.043451
-0.158938
-0.186310
-0.084920
-0.018602
-0.089844
-0.152680
-0.097274
-0.057488
-0.116659
-0.135136
-0.057194
0.006981
0.065030
0.165866
0.204788
0.175392
0.217489
0.262716
0.159357
0.046418
0.087826
0.110127
-0.049072
-0.188349
-0.135413
-0.079927
-0.158040
-0.193851
-0.115107
-0.067775
-0.048156
0.022274
0.046401
0.003487
0.034111
0.099094
0.068884
0.043075
0.109438
0.118493
0.042416
0.068040
0.154868
0.094532
-0.027423
-0.029920
-0.011550
-0.051723
0.000863
0.167366
0.268132
0.289283
0.365460
0.469177
0.501537
0.519615
0.591276
0.655158
0.686620
0.764675
0.885992
0.923198
0.859660
0.855248
0.958223
1.017648
0.977819
0.941835
0.956043
1.009042
1.093864
1.149565
1.141609
1.109334
1.031157
0.888414
0.789676
0.786516
0.776170
0.702935
0.620270
0.571631
0.561812
0.568996
0.549149
0.488990
0.422798
0.381785
0.358615
0.316976
0.240060
0.153246
0.068354
-0.037088
-0.151007
-0.225799
-0.268477
-0.330390
-0.415341
-0.498918
-0.573010
-0.608617
-0.616557
-0.703352
-0.874737
-0.966265
-0.935947
-0.935197
-0.999375
-0.989940
-0.887254
-0.835166
-0.844881
-0.769446
-0.609604
-0.496707
-0.429508
-0.339607
-0.244006
-0.169744
-0.105106
-0.028025
0.058095
0.096576
0.099042
0.175717
0.299716
0.327579
0.278717
0.253914
0.228588
0.182761
0.172792
0.182243
0.166670
0.167105
0.192619
0.193165
0.204060
0.263729
0.291342
0.263374
0.270634
0.302543
0.277908
0.237526
0.241790
0.230186
0.144448
0.025595
-0.078015
-0.171978
-0.261072
-0.326588
-0.364416
-0.367007
-0.320111
-0.276016
-0.285470
-0.275574
-0.202019
-0.171259
-0.220462
-0.238670
-0.209541
-0.234234
-0.305863
-0.326224
-0.294795
-0.279511
-0.287221
-0.295843
-0.303116
-0.297781
-0.299768
-0.368689
-0.480178
-0.543428
-0.566272
-0.602273
-0.607388
-0.553318
-0.513680
-0.496810
-0.433772
-0.355196
-0.317112
-0.253938
-0.121400
0.012428
0.130488
0.271316
0.380256
0.404851
0.425446
0.500129
0.569308
0.618207
0.708386
0.830668
0.935454
1.036203
1.132139
1.189516
1.250157
1.339797
1.365812
1.308257
1.264981
1.221305
1.101686
0.968430
0.880075
0.765619
0.603007
0.460327
0.335213
0.189354
0.061682
-0.012541
-0.054063
-0.066811
-0.072352
-0.138146
-0.256201
-0.351580
-0.411452
-0.457029
-0.505032
-0.595180
-0.711664
-0.779977
-0.797403
-0.803395
-0.796787
-0.796366
-0.832213
-0.866161
-0.861871
-0.845334
-0.811978
-0.731130
-0.649838
-0.617062
-0.585835
-0.521412
-0.464005
-0.437725
-0.430761
-0.430999
-0.408164
-0.339117
-0.262162
-0.221259
-0.191299
-0.132501
-0.053150
0.024260
0.089058
0.145666
0.219955
0.302249
0.331905
0.308182
0.300712
0.320849
0.322645
0.301901
0.286564
0.299085
0.351898
0.402579
0.390208
0.353037
0.363223
0.388974
0.376532
0.348140
0.310213
0.221100
0.093502
-0.021770
-0.127450
-0.231798
-0.305042
-0.356668
-0.421029
-0.479772
-0.521025
-0.579616
-0.654541
-0.704255
-0.719711
-0.720439
-0.713232
-0.693644
-0.673597
-0.678552
-0.698919
-0.696301
-0.674735
-0.663124
-0.649969
-0.626561
-0.626964
-0.655789
-0.668506
-0.655687
-0.648239
-0.638709
-0.595737
-0.537988
-0.502327
-0.477292
-0.442321
-0.410491
-0.395433
-0.399858
-0.415289
-0.409695
-0.378236
-0.360171
-0.354685
-0.320699
-0.259773
-0.195597
-0.124141
-0.045565
0.031039
0.112910
0.189087
0.233476
0.267661
0.324719
0.377780
0.393649
0.388364
0.381542
0.377871
0.393001
0.431343
0.472139
0.518163
0.605106
0.726164
0.810546
0.828782
0.845220
0.907564
0.978315
1.022257
1.062354
1.125283
1.199152
1.252808
1.276859
1.285013
1.275439
1.246207
1.230804
1.248610
1.268040
1.266524
1.258522
1.242434
1.202060
1.170140
1.186881
1.206249
1.167618
1.102166
1.055513
1.018984
0.991323
0.973424
0.933696
0.875439
0.831049
0.771080
0.664219
0.567961
0.524891
0.482241
0.403905
0.329105
0.290032
0.280926
0.282649
0.262272
0.194728
0.089535
-0.020371
-0.106879
-0.184188
-0.285334
-0.381927
-0.424946
-0.452121
-0.532206
-0.648574
-0.739582
-0.799069
-0.854708
-0.890755
-0.878699
-0.849312
-0.846844
-0.859449
-0.862351
-0.863221
-0.870851
-0.887281
-0.926942
-0.985005
-1.018849
-1.007342
-0.984735
-0.983004
-0.991219
-0.992249
-0.974314
-0.903556
-0.771064
-0.637453
-0.549106
-0.484543
-0.421768
-0.365981
-0.321391
-0.283889
-0.243396
-0.206371
-0.187587
-0.168225
-0.136753
-0.116889
-0.106865
-0.095163
-0.099797
-0.122579
-0.153849
-0.196855
-0.232410
-0.246503
-0.255822
-0.249657
-0.218839
-0.202141
-0.198619
-0.172935
-0.163056
-0.200310
-0.221588
-0.200861
-0.188774
-0.181652
-0.148223
-0.129342
-0.152669
-0.161788
-0.129044
-0.111463
-0.133685
-0.135539
-0.092096
-0.059852
-0.052865
-0.030326
-0.009382
-0.014844
-0.004476
0.027977
0.043660
0.070348
0.137389
0.188180
0.187802
0.179749
0.191080
0.205606
0.217503
0.234302
0.253287
0.261101
0.244790
0.220698
0.232540
0.276306
0.297800
0.297028
0.310654
0.311087
0.262801
0.201682
0.165383
0.153199
0.170205
0.206728
0.220327
0.203849
0.191683
0.184506
0.156913
0.119029
0.096669
0.084968
0.066226
0.038420
0.011149
-0.002758
0.000188
0.004293
-0.003722
-0.014332
-0.012493
0.008462
0.050139
0.095653
0.122489
0.142729
0.166039
0.158980
0.122568
0.114479
0.131554
0.103688
0.027209
-0.033614
-0.060876
-0.078099
-0.079678
-0.057674
-0.032192
-0.009058
0.016920
0.027850
0.027531
0.060640
0.126670
0.168420
0.179420
0.204896
0.236648
0.233219
0.204869
0.178427
0.156954
0.151379
0.160127
0.151352
0.114640
0.061958
0.005492
-0.028541
-0.038218
-0.059904
-0.096303
-0.121333
-0.141338
-0.175420
-0.221970
-0.265997
-0.290919
-0.292791
-0.281575
-0.266562
-0.245868
-0.207193
-0.152940
-0.101136
-0.038750
0.052786
0.121316
0.114492
0.096540
0.145644
0.210733
0.232009
0.267533
0.337645
0.350648
0.308225
0.311768
0.339482
0.319196
0.302435
0.309924
0.260036
0.179419
0.160080
0.149632
0.088640
0.059379
0.084067
0.062796
-0.003130
-0.028461
-0.035458
-0.075087
-0.102514
-0.089620
-0.077731
-0.065875
-0.022211
0.022665
0.038296
0.067964
0.133331
0.177398
0.167974
0.147405
0.149051
0.145143
0.103385
0.048605
0.018746
0.000436
-0.025791
-0.040932
-0.038984
-0.042352
-0.051605
-0.044806
-0.017241
0.010946
0.021989
0.020870
0.013958
-0.009372
-0.042431
-0.051177
-0.032284
-0.021483
-0.022358
-0.001888
0.036638
0.057682
0.061329
0.071275
0.083641
0.088890
0.094074
0.089474
0.057186
0.013150
-0.013214
-0.022985
-0.041517
-0.076040
-0.103739
-0.116692
-0.130591
-0.137394
-0.126967
-0.128102
-0.150299
-0.162040
-0.162756
-0.172749
-0.177354
-0.168894
-0.170304
-0.180711
-0.184157
-0.190201
-0.203626
-0.209637
-0.203325
-0.187025
-0.169281
-0.166925
-0.166714
-0.142555
-0.115564
-0.104372
-0.073508
-0.015752
0.020596
0.028502
0.045393
0.070101
0.087250
0.124428
0.195624
0.258574
0.289033
0.315789
0.351113
0.373928
0.387912
0.413875
0.442119
0.453173
0.448743
0.436800
0.424097
0.414028
0.397757
0.373428
0.357585
0.358785
0.366942
0.368496
0.357044
0.335900
0.309763
0.282884
0.265714
0.254325
0.223352
0.167225
0.104773
0.043346
-0.012911
-0.053114
-0.084391
-0.119875
-0.155125
-0.190282
-0.232951
-0.274212
-0.301721
