EVENT_NAME: CENTRAL_ITALY
EVENT_ID: EMSC-20160824_0000006
EVENT_DATE_YYYYMMDD: 20160824
EVENT_TIME_HHMMSS: 013632
EVENT_LATITUDE_DEGREE: 42.6983
EVENT_LONGITUDE_DEGREE: 13.2335
EVENT_DEPTH_KM: 8.1
HYPOCENTER_REFERENCE: INGV-CNT_Seismic_Bulletin
MAGNITUDE_W: 6.0
MAGNITUDE_W_REFERENCE: INGV-webservice
MAGNITUDE_L: 6.0
MAGNITUDE_L_REFERENCE: INGV-CNT_Seismic_Bulletin
FOCAL_MECHANISM: NF
NETWORK: IT
STATION_CODE: MTR
STATION_NAME: MONTEREALE
STATION_LATITUDE_DEGREE: 42.524021
STATION_LONGITUDE_DEGREE: 13.244796
STATION_ELEVATION_M: 975
LOCATION: 
SENSOR_DEPTH_M: 0.0
VS30_M/S: 
SITE_CLASSIFICATION_EC8: B*
MORPHOLOGIC_CLASSIFICATION: R
EPICENTRAL_DISTANCE_KM: 19.4
EARTHQUAKE_BACKAZIMUTH_DEGREE: 357.3
DATE_TIME_FIRST_SAMPLE_YYYYMMDD_HHMMSS: 20160824_013630.795
DATE_TIME_FIRST_SAMPLE_PRECISION: milliseconds
SAMPLING_INTERVAL_S: 0.020000
NDATA: 2250
DURATION_S: 45.000
STREAM: HGE
UNITS: cm/s
INSTRUMENT: sensor = Unknown [Unknown] | digitizer = Unknown [Unknown]
INSTRUMENT_ANALOG/DIGITAL: D
INSTRUMENTAL_FREQUENCY_HZ: 
INSTRUMENTAL_DAMPING: 
FULL_SCALE_G: 
N_BIT_DIGITAL_CONVERTER: 
PGV_CM/S: -11.422233
TIME_PGV_S: 10.340000
BASELINE_CORRECTION: BASELINE REMOVED
FILTER_TYPE: BUTTERWORTH
FILTER_ORDER: 2
LOW_CUT_FREQUENCY_HZ: 0.050
HIGH_CUT_FREQUENCY_HZ: 15.000
LATE/NORMAL_TRIGGERED: NT
DATABASE_VERSION: DYNA 1.0
HEADER_FORMAT: DYNA 1.2
DATA_TYPE: VELOCITY
PROCESSING: manual (Paolucci et al., 2011)
DATA_TIMESTAMP_YYYYMMDD_HHMMSS: 20191119_160111.228
DATA_LICENSE: CC-BY3_0-IT (http://creativecommons.org/licenses/by/3.0/deed.en)
DATA_CITATION: Luzi L, Puglia R, Russo E & ORFEUS WG5 (2016). Engineering Strong Motion Database. Istituto Nazionale di Geofisica e Vulcanologia, Observatories & Research Facilities for European Seismology. doi: 10.13127/ESM
DATA_CREATOR: ESM working group
ORIGINAL_DATA_MEDIATOR_CITATION: Ufficio Rischio Sismico e Vulcanico del Dipartimento della Protezione Civile (http://www.protezionecivile.gov.it/)
ORIGINAL_DATA_MEDIATOR: http://www.mot1.it/randownload/
ORIGINAL_DATA_CREATOR_CITATION: Italian Strong Motion Network, Italian Civil Protection Department http://www.protezionecivile.gov.it
ORIGINAL_DATA_CREATOR: network: IT (Italian Strong Motion Network); owner: Dipartimento Della Protezione Civile
USER1: /home/dyna/processing-itaca/processing.py /var/www/processing//tmp/rodolfo//IT.MTR..HGE.D.20160824.013632.X.ACC.ASC /var/www/processing//tmp/rodolfo//IT.MTR..HGN.D.20160824.013632.X.ACC.ASC /var/www/processing//tmp/rodolfo//IT.MTR..HGZ.D.20160824.013632.X.ACC.ASC --tmp /var/www/processing//tmp/rodolfo/ --le 0.050 --he 15 --ln 0.050 --hn 15 --lz 0.050 --hz 15 --fo 2 --ca 0 --cz 58.2 --ta 5 --tz 5 --mf 1 --rf 0.020 --tr NT
USER2: 
USER3: 
USER4: 
USER5: 
0.000000
0.000039
0.000118
0.000197
0.000275
0.000353
0.000430
0.000507
0.000583
0.000659
0.000734
0.000809
0.000883
0.000956
0.001029
0.001100
0.001172
0.001242
0.001312
0.001382
0.001451
0.001519
0.001587
0.001655
0.001723
0.001790
0.001858
0.001925
0.001993
0.002062
0.002131
0.002200
0.002270
0.002342
0.002414
0.002488
0.002564
0.002641
0.002720
0.002801
0.002884
0.002970
0.003058
0.003149
0.003245
0.003344
0.003445
0.003550
0.003659
0.003771
0.003887
0.004008
0.004134
0.004262
0.004396
0.004537
0.004685
0.004840
0.005002
0.005165
0.005330
0.005503
0.005683
0.005872
0.006066
0.006258
0.006450
0.006649
0.006853
0.007059
0.007278
0.007510
0.007736
0.007955
0.008176
0.008390
0.008596
0.008809
0.009026
0.009235
0.009442
0.009650
0.009851
0.010058
0.010270
0.010468
0.010660
0.010859
0.011051
0.011234
0.011422
0.011601
0.011756
0.011889
0.012010
0.012144
0.012300
0.012447
0.012567
0.012668
0.012751
0.012811
0.012857
0.012887
0.012889
0.012883
0.012893
0.012889
0.012834
0.012756
0.012674
0.012572
0.012448
0.012428
0.012519
0.012616
0.012734
0.012856
0.012970
0.013086
0.013209
0.013340
0.013485
0.013636
0.013761
0.013856
0.013965
0.014097
0.014224
0.014333
0.014437
0.014557
0.014711
0.014876
0.015021
0.015167
0.015318
0.015446
0.015562
0.015714
0.015890
0.016042
0.016172
0.016310
0.016470
0.016650
0.016826
0.016976
0.017113
0.017258
0.017405
0.017557
0.017734
0.017933
0.018121
0.018290
0.018467
0.018651
0.018816
0.018966
0.019092
0.019201
0.019360
0.019568
0.019732
0.019841
0.019961
0.020102
0.020248
0.020405
0.020571
0.020720
0.020847
0.020974
0.021112
0.021262
0.021417
0.021567
0.021727
0.021896
0.022042
0.022192
0.022390
0.022587
0.022740
0.022891
0.023049
0.023190
0.023352
0.023562
0.023781
0.023975
0.024144
0.024296
0.024456
0.024659
0.024885
0.025073
0.025230
0.025412
0.025609
0.025778
0.025939
0.026121
0.026332
0.026564
0.026782
0.026971
0.027172
0.027390
0.027587
0.027772
0.027978
0.028194
0.028397
0.028600
0.028815
0.029025
0.029209
0.029389
0.029596
0.029813
0.030003
0.030172
0.030357
0.030568
0.030782
0.030996
0.031220
0.031438
0.031641
0.031852
0.032087
0.032326
0.032553
0.032775
0.032996
0.033219
0.033460
0.033704
0.033919
0.034125
0.034363
0.034613
0.034838
0.035054
0.035278
0.035496
0.035720
0.035971
0.036222
0.036445
0.036665
0.036908
0.037167
0.037428
0.037691
0.037959
0.038208
0.038430
0.038658
0.038892
0.039103
0.039311
0.039536
0.039758
0.039983
0.040227
0.040475
0.040708
0.040938
0.041168
0.041383
0.041584
0.041792
0.042021
0.042258
0.042494
0.042730
0.042970
0.043208
0.043449
0.043709
0.043969
0.044201
0.044448
0.044737
0.045010
0.045241
0.045478
0.045715
0.045926
0.046209
0.046679
0.047166
0.047258
0.047000
0.047274
0.048463
0.049236
0.048436
0.047447
0.048505
0.051061
0.051582
0.048577
0.047032
0.051683
0.056196
0.052015
0.045811
0.048791
0.055916
0.056805
0.053341
0.051227
0.051425
0.053842
0.056739
0.058303
0.058934
0.056256
0.051987
0.056203
0.064516
0.061161
0.055921
0.066096
0.073303
0.060310
0.053057
0.068371
0.079035
0.073469
0.074218
0.080378
0.077028
0.077401
0.085929
0.087548
0.088957
0.093059
0.088357
0.092136
0.109175
0.104265
0.089352
0.108124
0.127824
0.106303
0.091266
0.111090
0.115433
0.107891
0.138316
0.164089
0.131642
0.096574
0.097285
0.105030
0.141524
0.197177
0.165462
0.066675
0.054552
0.128049
0.165418
0.157365
0.149079
0.131321
0.103616
0.086412
0.099141
0.166798
0.234784
0.185765
0.062259
0.042724
0.121732
0.129475
0.072215
0.083187
0.126158
0.104323
0.068930
0.081293
0.105133
0.099715
0.078027
0.113552
0.216671
0.226564
0.103392
0.090314
0.256385
0.359205
0.328942
0.298261
0.281433
0.285643
0.356785
0.390050
0.340323
0.370248
0.491905
0.522236
0.454432
0.444585
0.527798
0.608592
0.626559
0.598249
0.553160
0.533348
0.580742
0.640086
0.618351
0.541661
0.499050
0.514480
0.541406
0.502085
0.401979
0.404864
0.576947
0.664274
0.500161
0.388771
0.567799
0.747265
0.698172
0.596511
0.529953
0.455296
0.453728
0.472545
0.353584
0.229333
0.303556
0.452906
0.449081
0.311823
0.213906
0.204648
0.215591
0.229343
0.258572
0.297541
0.369918
0.455376
0.494232
0.550953
0.677414
0.722614
0.610084
0.505626
0.503012
0.545592
0.647114
0.782291
0.789891
0.688875
0.671654
0.678202
0.529605
0.345366
0.289901
0.296023
0.327042
0.362183
0.296293
0.276976
0.482761
0.611409
0.442205
0.306825
0.372491
0.361550
0.237991
0.272394
0.400255
0.350061
0.256537
0.306155
0.244858
-0.060985
-0.353894
-0.498034
-0.526769
-0.511161
-0.637437
-0.873807
-0.932461
-0.918253
-1.233648
-1.775203
-2.099463
-2.234403
-2.493112
-2.846387
-3.192875
-3.604290
-3.939993
-4.075033
-4.335533
-4.956352
-5.675294
-6.210618
-6.570921
-6.929745
-7.430348
-8.006646
-8.571967
-9.265477
-10.116454
-10.843840
-11.268812
-11.422233
-11.228362
-10.545811
-9.404189
-7.975229
-6.476862
-5.069235
-3.725698
-2.405949
-1.257229
-0.353685
0.460680
1.259317
1.977048
2.692038
3.475126
4.092454
4.422375
4.830630
5.527403
6.175571
6.588194
6.920288
7.084711
6.903661
6.504870
5.977639
5.307484
4.760235
4.535683
4.304916
3.760444
3.128943
2.672381
2.260747
1.808358
1.617432
1.872605
2.243447
2.453279
2.604026
2.579681
2.168278
1.761867
1.706912
1.613823
1.296550
1.224231
1.583076
1.995481
2.085258
1.773766
1.334993
1.170360
1.393873
1.779073
1.989324
1.915906
1.804678
1.777572
1.666131
1.458221
1.146463
0.507372
-0.348069
-1.032837
-1.549644
-2.017573
-2.271019
-2.316184
-2.369371
-2.332270
-2.009493
-1.555021
-1.214999
-0.991079
-0.704666
-0.302682
0.062502
0.394654
0.672026
0.432270
-0.439366
-1.295376
-1.843289
-2.324334
-2.665329
-2.794059
-2.961383
-3.100921
-2.986390
-2.786524
-2.616347
-2.332014
-2.069332
-2.090222
-2.158361
-1.824751
-1.243428
-0.994253
-1.112789
-1.144870
-1.040637
-1.051796
-1.174565
-1.396318
-1.765496
-2.086720
-2.281709
-2.548198
-2.769588
-2.669418
-2.495578
-2.642184
-2.948973
-3.048496
-2.957767
-2.840235
-2.597125
-2.134515
-1.669356
-1.355637
-0.952398
-0.198079
0.749044
1.489543
1.937629
2.446089
3.221547
4.019785
4.694615
5.432281
6.193961
6.688461
6.981216
7.325587
7.572030
7.475307
7.173614
6.897575
6.709634
6.617277
6.540058
6.362658
6.160057
6.056146
5.953969
5.723168
5.481773
5.382145
5.291789
5.014053
4.619711
4.246345
3.803010
3.183567
2.601864
2.283504
1.997312
1.549277
1.257019
1.189560
0.919787
0.495250
0.367109
0.412695
0.242153
0.001428
-0.063897
-0.211569
-0.667377
-1.128879
-1.360800
-1.581094
-1.854637
-1.938644
-1.854380
-1.774789
-1.615206
-1.306525
-0.909284
-0.389391
0.144437
0.404753
0.442325
0.565005
0.791834
0.956345
1.062506
1.132205
1.029873
0.706305
0.313048
-0.052177
-0.414199
-0.815705
-1.354876
-2.026935
-2.591621
-2.984096
-3.468789
-4.141920
-4.796947
-5.260147
-5.524067
-5.724194
-5.978311
-6.200618
-6.328846
-6.469119
-6.577682
-6.503952
-6.338937
-6.240474
-6.163787
-5.999508
-5.721180
-5.376960
-4.976224
-4.442538
-3.863094
-3.491328
-3.290950
-2.989564
-2.614085
-2.353971
-2.087988
-1.654359
-1.228721
-0.937810
-0.610249
-0.238594
-0.006371
0.246211
0.757143
1.254002
1.453933
1.588374
1.817864
1.936239
1.926463
1.972862
1.985954
1.823721
1.690512
1.755658
1.818392
1.781361
1.878245
2.156355
2.383052
2.511686
2.651447
2.757089
2.774379
2.806729
2.897779
2.939964
2.888650
2.774274
2.554130
2.249419
1.996539
1.756580
1.398291
1.037535
0.780549
0.464166
0.046092
-0.304157
-0.600246
-0.949638
-1.284849
-1.534782
-1.685163
-1.657000
-1.467277
-1.286705
-1.186832
-1.098681
-1.006053
-0.992287
-1.086945
-1.150515
-1.062898
-0.926048
-0.837901
-0.715657
-0.535422
-0.374934
-0.193910
0.083420
0.401296
0.688531
0.972442
1.310994
1.689892
2.002855
2.177362
2.283738
2.406339
2.495142
2.471005
2.367934
2.289130
2.295962
2.349472
2.355481
2.270949
2.080070
1.737534
1.314430
1.003099
0.790191
0.493749
0.176364
-0.001731
-0.135173
-0.284442
-0.284863
-0.077587
0.218740
0.456619
0.509175
0.433957
0.435042
0.541120
0.593111
0.465454
0.171935
-0.122143
-0.274152
-0.330861
-0.380048
-0.432692
-0.510138
-0.641505
-0.841371
-1.131529
-1.458620
-1.693652
-1.761513
-1.673728
-1.525598
-1.468312
-1.575260
-1.795455
-2.024642
-2.173822
-2.236740
-2.222795
-2.065128
-1.782627
-1.537710
-1.396066
-1.287507
-1.161706
-1.012301
-0.879596
-0.789879
-0.651561
-0.434740
-0.322983
-0.420636
-0.552971
-0.571667
-0.582920
-0.670693
-0.689122
-0.576646
-0.517231
-0.567559
-0.573299
-0.503515
-0.410606
-0.260434
-0.106709
-0.056362
-0.015847
0.139643
0.312475
0.359477
0.291850
0.208431
0.192141
0.240720
0.256798
0.159801
-0.042667
-0.251133
-0.290873
-0.125935
0.028806
0.075035
0.210442
0.525790
0.846926
1.089204
1.370775
1.723959
2.014704
2.196957
2.364210
2.512107
2.561847
2.612449
2.814455
3.063216
3.163496
3.128010
3.032606
2.861780
2.671281
2.561833
2.468118
2.286990
2.085838
1.939261
1.770846
1.533238
1.340373
1.307529
1.403317
1.487362
1.408017
1.137529
0.838084
0.638836
0.453856
0.236236
0.126836
0.125392
0.021215
-0.191118
-0.275224
-0.214760
-0.258417
-0.451804
-0.587170
-0.622660
-0.687567
-0.780891
-0.857964
-0.962857
-1.041560
-0.958582
-0.753957
-0.615269
-0.636339
-0.700159
-0.613927
-0.369708
-0.106579
0.124272
0.325574
0.499339
0.733294
1.070811
1.369353
1.493336
1.509732
1.554369
1.609447
1.579630
1.509672
1.506210
1.530310
1.476333
1.351553
1.216440
1.075103
0.946150
0.863218
0.747419
0.527354
0.316471
0.194141
0.034325
-0.229731
-0.484641
-0.665775
-0.814407
-0.959972
-1.128596
-1.332724
-1.515170
-1.651206
-1.805333
-1.983356
-2.120919
-2.234306
-2.358784
-2.426693
-2.390833
-2.301106
-2.191038
-2.074037
-1.990833
-1.948593
-1.921527
-1.892513
-1.835973
-1.740566
-1.640365
-1.605457
-1.680689
-1.772317
-1.739354
-1.608780
-1.475377
-1.332876
-1.168560
-1.010524
-0.865220
-0.726402
-0.591424
-0.481762
-0.420578
-0.357189
-0.262073
-0.230161
-0.294938
-0.310994
-0.182904
-0.013635
0.071026
0.077333
0.074260
0.083256
0.067820
0.004370
-0.071121
-0.144056
-0.247394
-0.323790
-0.293605
-0.256277
-0.311814
-0.383031
-0.447773
-0.573803
-0.709722
-0.788441
-0.826313
-0.802511
-0.728240
-0.705981
-0.750752
-0.784743
-0.792061
-0.784088
-0.725254
-0.609210
-0.493430
-0.399960
-0.293528
-0.166924
-0.040398
0.069960
0.151272
0.247642
0.410947
0.575732
0.672583
0.750164
0.834891
0.899331
0.989367
1.126468
1.201001
1.164989
1.112926
1.064338
0.948283
0.811274
0.756469
0.770402
0.812954
0.887603
0.947664
0.953608
0.960876
0.996269
1.000077
0.935856
0.832146
0.755085
0.734729
0.679427
0.505886
0.309079
0.210917
0.175529
0.111819
0.011129
-0.072393
-0.115284
-0.166647
-0.255885
-0.343972
-0.418017
-0.475007
-0.461987
-0.400610
-0.391996
-0.421198
-0.398810
-0.339302
-0.293483
-0.253123
-0.222152
-0.213099
-0.183502
-0.114164
-0.054130
-0.009796
0.048247
0.071855
0.022515
-0.026582
-0.032530
-0.043340
-0.047610
0.013707
0.104627
0.159738
0.195095
0.217322
0.192451
0.171864
0.216348
0.227967
0.133642
0.063021
0.070900
0.000608
-0.183528
-0.329318
-0.408545
-0.509647
-0.613534
-0.673054
-0.746528
-0.858539
-0.918137
-0.896301
-0.883492
-0.909613
-0.921613
-0.920652
-0.926762
-0.909395
-0.857015
-0.783233
-0.681008
-0.559810
-0.454534
-0.376961
-0.290803
-0.136039
0.082528
0.277880
0.411379
0.534587
0.672094
0.780178
0.824061
0.823237
0.820749
0.831339
0.830698
0.794275
0.724760
0.643048
0.583654
0.578983
0.606496
0.602131
0.558036
0.527149
0.537647
0.586510
0.664868
0.735479
0.760284
0.758957
0.774676
0.811436
0.848012
0.872322
0.882222
0.882451
0.888558
0.921300
0.979204
1.021898
1.013048
0.961731
0.892065
0.805333
0.696381
0.588191
0.514682
0.476740
0.475856
0.530990
0.593554
0.599016
0.599033
0.641116
0.666197
0.669798
0.710956
0.756673
0.752780
0.736810
0.740460
0.712912
0.623702
0.535737
0.480452
0.398203
0.303428
0.277225
0.276978
0.223865
0.155119
0.103989
0.032102
-0.078558
-0.210547
-0.334554
-0.424953
-0.497480
-0.590632
-0.712157
-0.828456
-0.903134
-0.950545
-1.007385
-1.068447
-1.123547
-1.185916
-1.239330
-1.256086
-1.259641
-1.290138
-1.338171
-1.366713
-1.386849
-1.451780
-1.563441
-1.670716
-1.757646
-1.828559
-1.859235
-1.861726
-1.899653
-1.978626
-2.037909
-2.065290
-2.104653
-2.160373
-2.196142
-2.203609
-2.188844
-2.139602
-2.065946
-1.995992
-1.908621
-1.763582
-1.577998
-1.386634
-1.179588
-0.945169
-0.705970
-0.473355
-0.236072
0.000422
0.219964
0.417165
0.595046
0.772841
0.962802
1.133020
1.261335
1.382710
1.508313
1.587312
1.611792
1.647924
1.720572
1.781447
1.812077
1.846743
1.892607
1.924731
1.939326
1.941501
1.920415
1.877290
1.834124
1.798992
1.755867
1.686588
1.585239
1.457752
1.310060
1.146307
0.987186
0.849146
0.705688
0.534795
0.366068
0.214003
0.046367
-0.135299
-0.276775
-0.353609
-0.402741
-0.461641
-0.524443
-0.576775
-0.625481
-0.665500
-0.670545
-0.640270
-0.614020
-0.625048
-0.660857
-0.686808
-0.703666
-0.736654
-0.782315
-0.830252
-0.885445
-0.924709
-0.922879
-0.912700
-0.923675
-0.920904
-0.865612
-0.771784
-0.676375
-0.586573
-0.477668
-0.332156
-0.149954
0.058991
0.266875
0.449951
0.619187
0.794444
0.959351
1.072268
1.127912
1.167476
1.211677
1.244200
1.260483
1.274167
1.296411
1.328712
1.353726
1.357117
1.359332
1.378309
1.383703
1.341013
1.269914
1.209540
1.160108
1.105091
1.051608
1.009811
0.973373
0.933262
0.874936
0.786352
0.684881
0.587826
0.479550
0.356044
0.244312
0.156097
0.088143
0.046038
0.015118
-0.034529
-0.091157
-0.123040
-0.142876
-0.182095
-0.239785
-0.296206
-0.334745
-0.352685
-0.375369
-0.425448
-0.480958
-0.509337
-0.520577
-0.548675
-0.599732
-0.643185
-0.656821
-0.662656
-0.693348
-0.737383
-0.752068
-0.725934
-0.694153
-0.685111
-0.689634
-0.694336
-0.699523
-0.700342
-0.688945
-0.664231
-0.631971
-0.614582
-0.632345
-0.667842
-0.692440
-0.711623
-0.752890
-0.835889
-0.958803
-1.091996
-1.200853
-1.285505
-1.369518
-1.447613
-1.489627
-1.496943
-1.499589
-1.504433
-1.496295
-1.468475
-1.422681
-1.365389
-1.309588
-1.261480
-1.208751
-1.133218
-1.038458
-0.947503
-0.864930
-0.773437
-0.668318
-0.554348
-0.421994
-0.265444
-0.106884
0.028394
0.148120
0.270590
0.383639
0.475624
0.566546
0.658751
0.736564
0.826405
0.949513
1.066054
1.156175
1.250607
1.347764
1.420264
1.476768
1.526640
1.546003
1.530573
1.512856
1.504084
1.485467
1.458651
1.435772
1.395513
1.314753
1.211323
1.107701
0.997123
0.874374
0.754891
0.644386
0.528454
0.402458
0.275841
0.155443
0.053228
-0.023148
-0.094016
-0.181811
-0.287220
-0.404687
-0.518584
-0.611850
-0.700464
-0.801887
-0.892263
-0.952049
-0.996613
-1.033758
-1.059932
-1.087995
-1.116523
-1.114984
-1.079605
-1.038080
-0.993737
-0.931790
-0.849181
-0.743284
-0.618064
-0.487848
-0.352222
-0.213022
-0.094950
-0.007781
0.067683
0.147468
0.233337
0.315743
0.380577
0.429639
0.474913
0.515923
0.552202
0.594024
0.635323
0.649982
0.634565
0.620369
0.630974
0.661008
0.692660
0.706667
0.696063
0.666376
0.611063
0.532989
0.469052
0.435584
0.410549
0.389694
0.380095
0.364114
0.323780
0.261483
0.195524
0.154968
0.146211
0.139159
0.120949
0.118914
0.141132
0.149515
0.119718
0.073008
0.029101
-0.010961
-0.032858
-0.027005
-0.017893
-0.026685
-0.050477
-0.093215
-0.157274
-0.216286
-0.245137
-0.248535
-0.235944
-0.213238
-0.202403
-0.213640
-0.220196
-0.209424
-0.200492
-0.190412
-0.158145
-0.106850
-0.052399
-0.007403
0.021246
0.051942
0.115825
0.204012
0.267509
0.287352
0.290049
0.280516
0.239927
0.183342
0.137377
0.101027
0.077895
0.085456
0.118486
0.149417
0.159452
0.153100
0.149787
0.164006
0.192180
0.216612
0.220150
0.200285
0.170646
0.142621
0.108898
0.060335
0.004733
-0.053181
-0.122644
-0.200936
-0.273720
-0.342054
-0.407474
-0.452809
-0.483174
-0.534564
-0.605609
-0.663230
-0.713727
-0.770006
-0.805472
-0.814903
-0.823987
-0.821065
-0.782945
-0.733102
-0.694304
-0.650704
-0.601692
-0.567990
-0.537055
-0.494188
-0.474410
-0.499667
-0.530607
-0.538416
-0.540881
-0.543420
-0.528667
-0.501107
-0.477818
-0.455402
-0.421055
-0.373485
-0.319984
-0.268331
-0.225581
-0.195629
-0.176386
-0.164688
-0.160199
-0.161723
-0.167777
-0.179670
-0.194032
-0.198901
-0.189853
-0.176987
-0.164219
-0.141953
-0.105098
-0.058643
-0.015085
0.006326
0.005709
0.013325
0.040419
0.066162
0.089532
0.118990
0.133762
0.130621
0.143230
0.173069
0.189784
0.195350
0.204339
0.201652
0.182115
0.172027
0.173047
0.156693
0.131081
0.131557
0.153323
0.167875
0.169129
0.158798
0.134013
0.098883
0.067735
0.062233
0.085346
0.109424
0.123682
0.152135
0.204846
0.262073
0.309289
0.355663
0.420085
0.505616
0.589333
0.646077
0.676811
0.702055
0.735189
0.769698
0.787170
0.779327
0.758356
0.733710
0.698037
0.653480
0.614986
0.577711
0.531224
0.487683
0.445362
0.380934
0.305529
0.250232
0.211085
0.173305
0.141013
0.114970
0.088701
0.062963
0.043200
0.036634
0.049392
0.075193
0.094953
0.097256
0.093596
0.099586
0.107028
0.096588
0.070871
0.047064
0.028760
0.012927
0.000738
-0.018222
-0.055774
-0.096459
-0.118066
-0.125586
-0.136508
-0.155804
-0.177306
-0.191933
-0.195986
-0.194020
-0.186577
-0.170622
-0.158348
-0.167959
-0.196371
-0.228705
-0.260284
-0.288170
-0.305537
-0.313612
-0.316924
-0.312945
-0.300952
-0.287436
-0.277123
-0.271669
-0.273828
-0.278491
-0.268791
-0.236458
-0.190201
-0.134380
-0.065636
0.007083
0.067973
0.115300
0.157772
0.199483
0.236719
0.266365
0.294794
0.328951
0.364547
0.397700
0.430593
0.458213
0.474826
0.485860
0.493686
0.491495
0.475709
0.446483
0.407895
0.372749
0.347568
0.322425
0.292552
0.269817
0.260063
0.249808
0.222806
0.176878
0.124552
0.079712
0.042998
0.010232
-0.015734
-0.039901
-0.076351
-0.124509
-0.175156
-0.227059
-0.276470
-0.322874
-0.381595
-0.455757
-0.527307
-0.593273
