EVENT_NAME: CENTRAL_ITALY
EVENT_ID: EMSC-20160824_0000006
EVENT_DATE_YYYYMMDD: 20160824
EVENT_TIME_HHMMSS: 013632
EVENT_LATITUDE_DEGREE: 42.6983
EVENT_LONGITUDE_DEGREE: 13.2335
EVENT_DEPTH_KM: 8.1
HYPOCENTER_REFERENCE: INGV-CNT_Seismic_Bulletin
MAGNITUDE_W: 6.0
MAGNITUDE_W_REFERENCE: INGV-webservice
MAGNITUDE_L: 6.0
MAGNITUDE_L_REFERENCE: INGV-CNT_Seismic_Bulletin
FOCAL_MECHANISM: NF
NETWORK: IT
STATION_CODE: MTR
STATION_NAME: MONTEREALE
STATION_LATITUDE_DEGREE: 42.524021
STATION_LONGITUDE_DEGREE: 13.244796
STATION_ELEVATION_M: 975
LOCATION: 
SENSOR_DEPTH_M: 0.0
VS30_M/S: 
SITE_CLASSIFICATION_EC8: B*
MORPHOLOGIC_CLASSIFICATION: R
EPICENTRAL_DISTANCE_KM: 19.4
EARTHQUAKE_BACKAZIMUTH_DEGREE: 357.3
DATE_TIME_FIRST_SAMPLE_YYYYMMDD_HHMMSS: 20160824_013630.795
DATE_TIME_FIRST_SAMPLE_PRECISION: milliseconds
SAMPLING_INTERVAL_S: 0.005000
NDATA: 20638
DURATION_S: 103.190
STREAM: HGN
UNITS: cm/s^2
INSTRUMENT: sensor = Unknown [Unknown] | digitizer = Unknown [Unknown]
INSTRUMENT_ANALOG/DIGITAL: D
INSTRUMENTAL_FREQUENCY_HZ: 
INSTRUMENTAL_DAMPING: 
FULL_SCALE_G: 
N_BIT_DIGITAL_CONVERTER: 
PGA_CM/S^2: -76.301559
TIME_PGA_S: 11.095000
BASELINE_CORRECTION: BASELINE NOT REMOVED
FILTER_TYPE: 
FILTER_ORDER: 
LOW_CUT_FREQUENCY_HZ: 
HIGH_CUT_FREQUENCY_HZ: 
LATE/NORMAL_TRIGGERED: NT
DATABASE_VERSION: DYNA 1.0
HEADER_FORMAT: DYNA 1.2
DATA_TYPE: ACCELERATION
PROCESSING: converted to cm/s^2
DATA_TIMESTAMP_YYYYMMDD_HHMMSS: 20161202_134734.030
DATA_LICENSE: CC-BY3_0-IT (http://creativecommons.org/licenses/by/3.0/deed.en)
DATA_CITATION: Luzi L, Puglia R, Russo E & ORFEUS WG5 (2016). Engineering Strong Motion Database. Istituto Nazionale di Geofisica e Vulcanologia, Observatories & Research Facilities for European Seismology. doi: 10.13127/ESM
DATA_CREATOR: ESM working group
ORIGINAL_DATA_MEDIATOR_CITATION: Ufficio Rischio Sismico e Vulcanico del Dipartimento della Protezione Civile (http://www.protezionecivile.gov.it/)
ORIGINAL_DATA_MEDIATOR: http://www.mot1.it/randownload/
ORIGINAL_DATA_CREATOR_CITATION: Italian Strong Motion Network, Italian Civil Protection Department http://www.protezionecivile.gov.it
ORIGINAL_DATA_CREATOR: network: IT (Italian Strong Motion Network); owner: Dipartimento Della Protezione Civile
USER1: MEAN REMOVED (-3.79072811682 cm/s^2)
USER2: 
USER3: 
USER4: 
USER5: 
[...]
-0.006439
-0.004335
0.002677
-0.000595
-0.003634
-0.000128
0.010859
0.000574
-0.007607
0.004547
0.003378
-0.001063
-0.002933
-0.002933
0.004547
0.002210
-0.005036
0.004313
0.010624
0.003145
-0.006672
-0.002699
0.005249
-0.002465
-0.004101
-0.001764
0.004313
0.001275
-0.009478
-0.002232
0.002911
-0.000361
-0.006906
-0.003868
0.007586
0.004080
-0.004101
-0.002699
-0.000595
0.000340
-0.000361
-0.003634
0.003612
0.005015
-0.002699
-0.000829
0.004080
0.001041
-0.004101
0.001742
0.003378
-0.004335
-0.004335
-0.002933
-0.000595
0.002677
-0.005036
-0.005504
0.003378
0.005249
-0.000128
0.000340
0.001976
-0.003868
-0.006906
-0.007374
0.003612
0.004547
-0.006906
0.001742
0.009690
-0.000595
-0.006439
0.001976
0.002677
-0.001997
-0.009243
-0.005036
0.007118
0.001508
-0.005738
-0.007841
0.003145
-0.002232
-0.009945
0.004547
0.003612
0.002677
-0.004569
-0.003868
0.009690
0.001742
-0.004335
-0.005504
-0.002699
0.004781
-0.005971
-0.007841
0.001508
-0.003400
-0.005738
-0.005971
0.003145
0.002677
-0.003868
0.001041
-0.000595
0.001275
-0.008075
-0.003868
0.008754
-0.000829
-0.005270
0.001275
0.005249
-0.001063
-0.000829
-0.001530
-0.001063
-0.001530
-0.008309
-0.000829
0.002677
-0.000829
-0.004101
-0.005036
0.004080
0.005482
-0.000829
-0.003400
0.000807
0.004080
-0.005270
-0.004101
-0.002699
-0.006439
-0.001530
-0.003400
-0.001764
-0.000361
-0.000128
0.000807
0.004313
0.003846
-0.005036
-0.005036
0.001275
0.004547
-0.003634
0.000340
0.004547
-0.004101
-0.001296
0.001742
0.004547
0.001976
0.001275
0.002677
0.003145
0.006651
-0.004101
-0.003634
0.003145
0.000807
-0.004101
-0.001530
0.007118
0.003612
-0.001764
-0.009945
-0.001063
0.006651
-0.006439
-0.003400
0.004080
-0.002699
-0.010646
-0.001530
0.002210
-0.001063
-0.001997
-0.008542
-0.002465
-0.005971
-0.005738
0.009690
0.008287
0.006651
0.002210
0.008053
0.024649
0.022078
0.016468
0.014598
0.017870
0.005950
-0.013451
-0.016724
-0.029112
-0.042435
-0.048746
-0.041500
-0.023268
-0.008776
0.006183
0.037505
0.071398
0.077242
0.080514
0.080748
0.067892
0.041713
0.009690
-0.015087
-0.043838
-0.064641
-0.077263
-0.075160
-0.066745
-0.077029
-0.091054
-0.093158
-0.077263
-0.058798
-0.033787
0.030726
0.096408
0.135444
0.177518
0.187803
0.151104
0.074904
-0.049448
-0.166085
-0.262388
-0.326901
-0.326901
-0.282958
-0.195303
-0.101339
0.004313
0.142456
0.251614
0.323140
0.352358
0.333191
0.268678
0.155546
0.043816
-0.058330
-0.144581
-0.210964
-0.270336
-0.287867
-0.280854
-0.251168
-0.185720
-0.100404
-0.005036
0.063684
0.110900
0.171908
0.232447
0.251614
0.228941
0.183127
0.133340
0.106226
0.116043
0.158584
0.179621
0.139184
0.056205
-0.066978
-0.230132
-0.408711
-0.562515
-0.600849
-0.464810
-0.196940
0.121653
0.364045
0.434869
0.345112
0.158350
-0.023035
-0.157671
-0.257480
-0.263323
-0.119337
0.156948
0.469697
0.710219
0.797873
0.684975
0.415001
0.045452
-0.332044
-0.601317
-0.700424
-0.569060
-0.275712
0.021610
0.235252
0.322672
0.303973
0.159753
-0.089184
-0.302358
-0.362197
-0.253973
-0.056927
0.202294
0.534678
0.862620
1.008476
0.802548
0.260496
-0.402868
-0.880407
-0.963386
-0.642689
-0.046175
0.640096
1.247596
1.610834
1.584888
1.106883
0.262600
-0.673309
-1.402590
-1.775177
-1.789670
-1.486738
-0.899573
-0.096898
0.727049
1.227494
1.184719
0.721439
0.111135
-0.414088
-0.699021
-0.668635
-0.361729
0.079111
0.464789
0.584232
0.310284
-0.214705
-0.619081
-0.762599
-0.786208
-0.774521
-0.799531
-0.834593
-0.697619
-0.427645
-0.192031
-0.050616
-0.056460
-0.175669
-0.363599
-0.631937
-0.907053
-0.968294
-0.709306
-0.325032
-0.075160
-0.097833
-0.313344
-0.501275
-0.440969
-0.057395
0.424585
0.712557
0.691286
0.311920
-0.204420
-0.548257
-0.806310
-1.108307
-1.385527
-1.404694
-1.091945
-0.682192
-0.316617
-0.021866
0.204866
0.240862
-0.091522
-0.696217
-1.208115
-1.272395
-0.919442
-0.415023
-0.109286
-0.276646
-0.687335
-1.073011
-1.448871
-1.773541
-1.909347
-1.591689
-0.689438
0.419676
1.086313
0.953780
0.098980
-1.141499
-2.266039
-2.912107
-3.118970
-3.058197
-2.636523
-1.714638
-0.458967
0.819144
1.662258
1.483210
0.104823
-2.088861
-4.267587
-5.259128
-4.439856
-2.271416
0.292286
2.361619
3.208005
2.614062
1.259050
0.182894
-0.151593
-0.209095
-0.515065
-0.978112
-1.132616
-0.587759
0.239460
0.631915
0.343709
-0.823607
-2.750590
-4.644616
-5.705578
-5.630079
-4.636434
-3.446211
-2.682805
-2.325410
-2.375432
-2.626472
-2.137714
-0.226625
2.599570
4.884415
5.737579
5.315906
4.305198
3.213381
1.570864
-1.184040
-4.581272
-7.072512
-7.369366
-5.874575
-4.238837
-4.039687
-5.108130
-5.598290
-4.796082
-3.855731
-3.795659
-4.293533
-4.111212
-2.593047
-0.147386
2.197297
3.422816
3.182994
1.841539
0.497746
0.139651
0.749488
1.450018
1.296916
0.440713
-0.525116
-1.186611
-1.103164
-0.827580
-1.621375
-3.916270
-6.457999
-7.834282
-8.032030
-7.462162
-7.017581
-7.196396
-7.295036
-6.656214
-5.258193
-4.153754
-3.743767
-2.686077
-0.444241
1.972202
3.394065
3.161958
2.059622
1.572968
1.961917
2.287990
1.259751
-1.147342
-3.692577
-4.917628
-4.138794
-2.672987
-2.186800
-3.383334
-5.480717
-6.270771
-4.430273
-1.237801
1.165552
2.248487
2.667823
3.583164
5.179633
6.243635
6.106194
4.670306
2.751270
2.639073
4.788814
6.870068
7.412354
6.500753
4.514399
2.139796
0.047790
-1.540967
-1.786631
0.008521
2.899230
5.939301
8.085535
7.326102
3.498315
-0.401465
-2.163426
-2.676727
-3.180912
-3.516568
-3.665697
-3.799632
-2.893641
0.045920
4.484947
8.050474
8.226249
5.082396
0.610411
-3.588328
-7.161335
-9.804276
-10.577732
-9.076864
-5.703708
-0.973670
4.663060
9.725014
11.801826
10.081240
6.102220
1.435292
-3.292642
-6.713481
-7.317475
-5.668179
-4.063762
-3.767142
-4.013274
-3.774154
-2.495575
-1.197363
-0.802336
0.204632
2.122967
2.930785
2.205245
1.484145
1.345535
1.892963
3.093938
3.826725
4.418330
6.507765
9.831601
11.133787
7.443909
0.745515
-4.594127
-6.699690
-5.981630
-3.907855
-2.014531
0.764214
5.124470
7.149158
6.059679
5.680312
4.990768
0.761643
-6.583754
-13.563576
-14.365316
-7.183306
1.849720
6.689150
6.417774
2.182571
-3.014955
-5.210509
-3.638816
-0.259817
2.622944
3.957855
4.202351
3.905964
3.522858
2.773242
0.562494
-3.118737
-5.948905
-6.322195
-5.385116
-3.454860
-0.909391
0.497513
1.108285
1.738225
1.008009
-1.657604
-5.167968
-8.675526
-9.710075
-5.312889
3.639730
12.769293
18.562164
19.799133
15.560192
8.416517
2.931954
-0.161411
-0.770781
1.432721
3.514677
3.949674
5.081695
5.873384
3.318332
-1.980872
-8.116411
-12.109221
-10.650661
-4.952456
0.065087
2.855052
4.224790
3.033398
0.440479
-1.016446
-0.580513
1.716954
2.556327
-0.782468
-4.734607
-5.124959
-3.452522
-2.840114
-2.567802
-2.435270
-3.793554
-5.701838
-5.981163
-2.493706
3.405285
7.152431
6.299500
1.052187
-6.019263
-10.812645
-11.569740
-9.359694
-6.469920
-3.558175
0.008754
1.816528
1.122076
-0.626795
-3.929126
-7.715073
-8.873274
-5.211211
1.362832
7.198244
10.959414
12.967741
14.705626
16.901180
17.059658
10.616747
-1.219802
-12.217913
-20.319002
-22.997940
-16.299080
-4.452011
4.339559
7.120173
4.523982
-1.239671
-5.091300
-3.979849
0.618826
6.795036
10.754421
10.110691
8.078056
7.703832
8.307825
5.660678
-1.203440
-7.662014
-10.865236
-10.821060
-9.303595
-8.463987
-8.051897
-6.431587
-3.778127
-2.631147
-4.441726
-7.277738
-8.099581
-4.797484
2.105202
7.658719
7.500942
2.926344
-1.518060
-3.387074
-4.652797
-6.986260
-7.942505
-4.962974
-0.017425
2.067569
-1.388799
-7.634431
-11.000574
-9.772486
-6.244358
-1.946044
2.466336
5.931821
8.326759
10.562050
12.979895
14.553692
13.397829
9.595286
4.974406
1.550528
-0.030047
-1.717443
-4.320413
-6.530927
-7.671363
-9.109121
-11.488398
-13.242413
-12.946491
-9.087851
-2.968907
2.498827
7.221852
9.518150
7.640254
4.313613
2.366995
2.532719
3.971412
4.374854
2.168780
-2.229575
-7.291296
-10.790207
-8.889870
-1.080959
6.735665
10.203020
9.731325
7.988064
7.381266
7.661758
6.959125
3.344511
-3.096998
-10.618170
-16.990492
-19.973764
-18.324701
-11.745518
-1.961939
9.938656
22.515471
30.572617
30.698603
23.422863
10.749044
-3.155668
-10.998003
-9.027077
-3.415591
-0.460369
1.579980
5.941404
12.317932
17.622747
17.836622
12.512175
5.641511
0.040544
-3.452756
-4.357812
-3.904115
-3.413020
-2.151739
1.422437
5.820091
7.198478
5.125638
2.611491
2.268355
4.874130
8.929117
10.658353
6.315394
-3.325366
-12.675583
-17.730993
-18.963991
-18.941551
-17.817011
-13.391073
-5.736666
3.629445
12.194283
17.896694
18.541126
11.492584
-0.901911
-13.327728
-22.166748
-27.148527
-28.860231
-26.214956
-18.826082
-5.800478
11.078857
24.039246
29.287962
26.850948
16.798332
3.699568
-8.003981
-14.652588
-15.178745
-13.396448
-11.128199
-7.652664
-3.086013
0.908902
4.715418
9.032898
11.461496
8.989656
1.362131
-5.678231
-6.745037
-3.284694
0.001275
0.714895
-1.006161
-5.195549
-9.154467
-8.769726
-3.118737
6.135411
14.462767
17.382225
14.563276
7.575039
-2.181190
-11.922928
-18.266968
-19.851749
-16.239241
-7.187047
5.823363
19.713350
30.432369
34.931938
32.830814
25.789986
15.716566
3.674324
-7.059656
-12.937376
-14.089031
-11.656460
-6.546822
0.248809
6.114608
9.561626
12.458412
14.942875
15.790663
14.248655
9.256592
0.468996
-8.507231
-12.285231
-10.417150
-5.946334
-1.968717
0.571843
3.182059
6.475041
9.482622
10.731749
9.651384
7.598413
5.575128
3.224834
0.480917
-2.557752
-5.197887
-7.031373
-8.714561
-9.584087
-8.244268
-4.700480
0.013429
4.206091
5.101563
1.161111
-6.144315
-14.372095
-20.310587
-21.597815
-20.167536
-19.355278
-19.424700
-18.021301
-12.880342
-4.962039
1.612704
4.933969
5.833180
4.785775
2.460493
-1.745960
-8.677397
-16.497526
-21.906357
-21.238550
-13.463766
-1.728896
10.010882
18.921194
22.302063
18.204067
8.596031
-1.599870
-8.957655
-12.978514
-13.532488
-10.695072
-6.017393
0.934847
9.833004
16.678890
19.028715
17.188684
13.487352
10.908926
10.160946
9.725481
10.405441
15.071199
22.623928
29.124807
30.990082
28.079039
23.842434
20.247688
17.274469
14.935396
13.553736
13.877939
18.041147
24.952950
29.752409
31.959887
32.889717
32.156467
30.747925
29.976103
29.991997
30.214521
31.212606
33.777245
36.662342
37.962425
36.220333
32.209057
28.855770
27.408661
26.479763
23.956734
19.136236
14.099060
11.381322
12.323076
17.412846
24.335398
29.968155
33.499557
35.112625
35.123375
33.698708
31.199051
28.535072
26.903542
27.990215
32.700386
39.090008
43.280331
43.268177
40.653984
38.608727
39.192856
42.980202
49.101013
53.782436
52.278294
43.809292
32.616238
23.335911
17.827505
14.458792
9.014433
-0.095495
-10.594563
-19.029673
-23.183298
-23.715298
-23.722546
-25.118696
-27.126322
-30.021940
-34.465405
-40.480099
-47.142262
-51.714993
-51.729481
-46.962978
-40.606087
-36.067951
-34.430576
-35.972351
-39.239853
-41.438450
-42.971573
-46.929321
-52.888618
-57.751888
-59.746891
-58.275711
-55.275375
-52.011612
-47.026325
-39.589302
-29.817648
-19.945248
-13.429173
-12.518974
-16.876659
-22.096624
-24.901081
-26.737371
-28.919836
-31.942377
-36.894939
-41.745121
-42.497074
-37.415485
-27.917311
-17.603134
-9.942884
-4.691364
1.437864
8.075485
12.458879
12.965403
9.592482
5.693402
3.448761
3.510469
7.276315
14.034546
21.966406
28.130695
29.875593
28.336857
25.372520
21.210714
14.606985
4.978146
-5.184798
-12.912832
-17.543997
-20.207508
-21.231771
-19.665922
-16.569286
-16.613462
-23.010563
-33.802277
-44.517788
-51.495506
-54.334789
-54.773529
-52.139473
-43.441631
-29.436647
-13.326559
3.219459
17.813482
27.926872
32.756954
31.688044
24.756838
15.028893
4.250034
-6.422003
-14.664507
-20.624039
-22.685658
-19.707529
-12.570398
-2.525729
7.234007
15.036373
19.839573
21.730091
20.736446
15.924131
9.038742
2.189584
-2.789625
-6.069518
-8.630180
-7.860228
-2.136545
6.696396
14.533123
18.111036
19.096735
19.445948
18.746119
15.478849
9.155147
3.169905
0.604334
2.624581
6.913076
9.902191
12.682106
17.168583
23.660582
30.846331
36.916187
40.195847
39.743786
37.339031
36.031235
37.262600
41.425343
46.452469
48.330830
47.289268
43.833836
39.746593
35.358055
30.915051
28.399967
21.796474
13.036928
7.326102
1.291073
-4.565844
-8.769491
-9.823208
-6.477634
-3.350844
-4.046232
-5.040811
-3.450185
-0.640118
3.337966
7.515201
8.178331
5.855854
2.721584
-2.584398
-9.216877
-12.036058
-7.750602
0.130769
6.992316
10.926691
10.722399
6.686579
-0.109520
-6.455896
-11.273588
-15.671476
-19.876059
-26.350994
-33.807884
-39.353455
-41.700474
-39.251778
-33.469891
-26.469269
-20.935854
-20.217558
-24.644197
-30.385878
-33.139141
-33.095669
-32.837612
-34.567551
-38.285480
-42.823849
-49.579510
-59.713936
-70.468018
-76.301559
-74.218674
-63.924122
-48.104351
-32.754635
-21.339996
-14.816442
-10.730602
-6.712313
-2.586736
3.010258
8.208718
8.543440
2.219970
-7.291296
-14.418142
-18.122746
-19.941975
-19.241678
-15.755625
-9.874866
-2.681635
3.045319
8.191889
13.772287
18.155682
20.187382
18.116646
12.384550
4.444510
-3.445277
-7.683518
-7.898796
-5.580292
-0.941648
5.671664
13.967930
25.105116
35.721992
40.419540
40.327679
37.320568
30.605341
21.432068
12.560560
7.370981
8.612862
14.451078
21.647579
27.772833
31.439806
33.138889
32.086109
27.802521
19.373722
7.123446
-7.565711
-24.291712
-37.694809
-43.130520
-36.227600
-16.221943
5.120964
20.141336
29.664522
34.823246
37.271713
35.154228
27.982502
20.469978
15.514845
13.827217
14.117525
16.234777
18.208275
13.536205
2.908345
-8.148668
-15.673113
-20.283007
-24.445984
-25.841667
-22.010138
-12.933636
-2.026919
6.968007
12.089800
11.317042
3.711957
-7.177462
-13.410473
-11.345346
-1.142901
16.017862
33.486935
44.427311
48.365658
45.487804
36.083359
24.215021
12.406755
1.269101
-7.669026
-13.590923
-14.727152
-8.763414
3.172943
17.741722
30.775972
36.940735
35.394283
29.938704
20.239740
6.840383
-5.920856
-16.729168
-24.911833
-31.431181
-38.872177
-47.549442
-56.235596
-62.321575
-63.639660
-61.408581
-57.278557
-51.663330
-48.169567
-48.508961
-48.884357
-46.243984
-41.070301
-37.605286
-38.126064
-41.592953
-46.918571
-51.695358
-53.442589
-50.061020
-39.896210
-23.622269
-7.330331
3.298697
8.596266
8.454383
4.142512
0.223799
-0.857266
1.033955
5.381588
11.487675
19.376993
27.635393
34.296391
39.350399
40.747482
36.271992
26.062063
12.386887
-0.172864
-8.583899
-11.916382
-9.232069
-2.356732
4.275746
11.039823
18.631584
24.543430
27.101521
21.962198
8.034813
-9.267834
-25.710302
-37.288559
-40.482437
-36.603226
-29.818113
-22.747368
-15.324835
-7.813713
-1.940668
1.645896
0.136612
-7.337110
-15.347507
-22.524609
-27.317289
-26.836712
-22.955166
-16.544977
-9.175737
-2.206903
3.208940
6.359805
9.675928
12.270950
11.455886
7.878672
4.445678
1.956775
0.539353
1.325667
1.937140
1.145450
0.519251
-0.082171
-0.870823
0.128431
5.051308
11.820293
16.602690
17.860699
15.914080
12.038843
6.004281
-2.302504
-10.868979
-19.278843
-26.651590
-31.709803
-37.295807
-42.750450
-41.948711
-33.567127
-22.541439
-14.254990
-11.080982
-11.852104
-15.380934
-21.398197
-27.891600
-34.154057
-40.650028
-47.567909
-56.031300
-64.604324
-66.945732
-58.127983
-42.458508
-27.373388
-15.372284
-6.024872
0.685677
4.398228
3.844489
-1.934357
-10.984680
-21.811689
-31.805403
-37.443768
-38.363548
-35.668949
-31.018389
-24.684166
-16.230825
-6.995610
0.387887
3.995955
2.614997
-3.474494
-9.694414
-13.691902
-17.578825
-22.235468
-25.619843
-24.232809
-18.217413
-11.256290
-5.978358
-0.682893
6.630948
14.273666
21.488400
28.173002
32.588657
31.760971
26.023029
19.674549
14.950121
10.982088
4.745805
-4.593425
-14.471203
-22.044031
-26.210981
-27.374556
-25.079193
-20.136448
-14.676897
-10.871782
-8.640232
-6.497736
-5.089429
-4.690897
-4.775279
-2.529469
4.334416
12.504459
17.306257
16.922216
13.668505
10.008078
6.619027
6.296928
10.384872
17.187750
25.229469
32.546581
39.108238
45.579903
50.461872
52.998924
53.077229
51.863400
49.815105
46.260098
43.190575
41.076126
39.721115
41.045509
44.634640
46.847961
44.973335
41.305897
38.726768
36.787395
34.899918
32.362862
27.997696
22.861410
19.731583
18.621534
18.354832
19.829988
23.562641
27.174215
28.718796
30.381647
32.920105
35.905716
39.722050
42.964306
44.953938
45.150745
43.833836
41.755386
37.752293
32.971527
29.990595
27.438814
23.296408
19.647436
18.376102
18.927271
21.343714
24.709154
27.516884
28.544889
26.867310
23.458158
19.969299
17.088175
13.085314
7.471023
1.661089
-3.244023
-4.850777
-2.795703
0.825222
4.052989
5.896292
7.137003
9.382580
13.741899
17.582777
15.430464
6.934348
-2.329384
-8.466793
-10.980005
-9.732515
-6.102242
-3.178341
-1.940668
-1.102463
0.737334
3.685544
6.077443
5.247887
-1.198532
-10.689695
-17.441853
-19.790741
-19.042528
-15.971603
-10.210289
-2.348785
5.152987
9.087128
8.918832
8.604680
8.890315
6.614119
0.196684
-8.431265
-15.095299
-16.742723
-12.498873
-5.420645
1.420099
6.912843
9.329754
8.506274
7.490658
9.587105
13.203119
15.006220
14.679914
13.056330
10.712814
7.558209
3.743979
0.929471
-0.265427
-1.822628
-4.637370
-6.674447
-6.290405
-4.655368
-3.146318
-2.815104
-5.026319
-8.781645
-12.281725
-14.858049
-15.662127
-13.806437
-9.129690
-2.759005
3.792364
10.262157
15.821051
17.877295
15.215187
9.167768
1.733549
-5.375765
-10.379986
-12.215809
-11.364281
-8.700537
-4.306155
1.598212
7.138406
10.173801
10.091991
8.873719
8.549517
8.863902
9.074972
7.861609
4.815461
0.528367
-4.293533
-8.922594
-13.044899
-15.414358
-16.063465
-16.026768
-15.136436
-13.516827
-11.395369
-7.099626
0.150637
7.345036
11.061794
9.688082
4.106049
-4.277872
-14.894279
-26.654860
-37.160004
-42.250710
-40.234901
-32.436977
-21.152067
-10.660244
-4.337009
-2.781210
-5.253518
-9.104446
-11.776606
-14.016336
-17.042850
-20.066559
-20.792099
-17.276829
-9.464178
0.912875
10.703933
17.397652
20.593864
20.306591
16.154837
10.561349
6.564799
4.730144
3.848463
1.683762
-1.429471
-3.844511
-4.307791
-1.695004
3.160555
8.266453
11.980408
13.354118
12.461218
11.191755
11.555461
12.853907
13.070589
10.999151
6.508466
1.741731
-1.092412
-2.498848
-3.065910
