EVENT_NAME: CENTRAL_ITALY
EVENT_ID: EMSC-20160824_0000006
EVENT_DATE_YYYYMMDD: 20160824
EVENT_TIME_HHMMSS: 013632
EVENT_LATITUDE_DEGREE: 42.6983
EVENT_LONGITUDE_DEGREE: 13.2335
EVENT_DEPTH_KM: 8.1
HYPOCENTER_REFERENCE: INGV-CNT_Seismic_Bulletin
MAGNITUDE_W: 6.0
MAGNITUDE_W_REFERENCE: INGV-webservice
MAGNITUDE_L: 6.0
MAGNITUDE_L_REFERENCE: INGV-CNT_Seismic_Bulletin
FOCAL_MECHANISM: NF
NETWORK: IT
STATION_CODE: MTR
STATION_NAME: MONTEREALE
STATION_LATITUDE_DEGREE: 42.524021
STATION_LONGITUDE_DEGREE: 13.244796
STATION_ELEVATION_M: 975
LOCATION: 
SENSOR_DEPTH_M: 0.0
VS30_M/S: 
SITE_CLASSIFICATION_EC8: B*
MORPHOLOGIC_CLASSIFICATION: R
EPICENTRAL_DISTANCE_KM: 19.4
EARTHQUAKE_BACKAZIMUTH_DEGREE: 357.3
DATE_TIME_FIRST_SAMPLE_YYYYMMDD_HHMMSS: 20160824_013630.795
DATE_TIME_FIRST_SAMPLE_PRECISION: milliseconds
SAMPLING_INTERVAL_S: 0.005000
NDATA: 21300
DURATION_S: 106.500
STREAM: HGE
UNITS: cm/s^2
INSTRUMENT: sensor = Unknown [Unknown] | digitizer = Unknown [Unknown]
INSTRUMENT_ANALOG/DIGITAL: D
INSTRUMENTAL_FREQUENCY_HZ: 
INSTRUMENTAL_DAMPING: 
FULL_SCALE_G: 
N_BIT_DIGITAL_CONVERTER: 
PGA_CM/S^2: 79.884666
TIME_PGA_S: 10.375000
BASELINE_CORRECTION: BASELINE NOT REMOVED
FILTER_TYPE: 
FILTER_ORDER: 
LOW_CUT_FREQUENCY_HZ: 
HIGH_CUT_FREQUENCY_HZ: 
LATE/NORMAL_TRIGGERED: NT
DATABASE_VERSION: DYNA 1.0
HEADER_FORMAT: DYNA 1.2
DATA_TYPE: ACCELERATION
PROCESSING: converted to cm/s^2
DATA_TIMESTAMP_YYYYMMDD_HHMMSS: 20161202_135721.987
DATA_LICENSE: CC-BY3_0-IT (http://creativecommons.org/licenses/by/3.0/deed.en)
DATA_CITATION: Luzi L, Puglia R, Russo E & ORFEUS WG5 (2016). Engineering Strong Motion Database. Istituto Nazionale di Geofisica e Vulcanologia, Observatories & Research Facilities for European Seismology. doi: 10.13127/ESM
DATA_CREATOR: ESM working group
ORIGINAL_DATA_MEDIATOR_CITATION: Ufficio Rischio Sismico e Vulcanico del Dipartimento della Protezione Civile (http://www.protezionecivile.gov.it/)
ORIGINAL_DATA_MEDIATOR: http://www.mot1.it/randownload/
ORIGINAL_DATA_CREATOR_CITATION: Italian Strong Motion Network, Italian Civil Protection Department http://www.protezionecivile.gov.it
ORIGINAL_DATA_CREATOR: network: IT (Italian Strong Motion Network); owner: Dipartimento Della Protezione Civile
USER1: MEAN REMOVED (2.34474325117 cm/s^2)
USER2: 
USER3: 
USER4: 
USER5: 
[...]
-0.004501
0.002511
-0.004501
-0.010812
-0.003332
0.004147
-0.005436
-0.017591
-0.002865
0.004849
-0.011513
-0.015721
-0.003099
0.003680
-0.010578
-0.015253
-0.005903
0.006719
-0.003566
-0.021798
-0.002398
0.004147
-0.008007
-0.010812
-0.008007
0.002511
-0.008708
-0.023668
-0.003800
0.009290
-0.004969
-0.018993
-0.009176
0.004381
-0.007773
-0.014318
-0.005903
0.006719
-0.002865
-0.019928
-0.006137
0.002745
-0.006137
-0.019461
-0.007540
0.008121
-0.004969
-0.018292
-0.008007
0.010458
-0.006605
-0.018759
-0.005202
0.004849
-0.005436
-0.019694
-0.006137
-0.000527
-0.008241
-0.012916
-0.008475
0.002278
-0.007773
-0.018759
-0.004501
0.004147
-0.008475
-0.016889
-0.001229
0.007887
-0.009410
-0.016422
-0.011747
0.001810
-0.001462
-0.020162
-0.009643
0.001109
-0.007306
-0.019227
-0.009877
0.007420
-0.004735
-0.017357
-0.006371
0.000875
-0.008708
-0.014552
-0.004501
0.002745
-0.005670
-0.015253
-0.009877
0.003914
-0.002164
-0.017591
-0.006838
0.007887
-0.003332
-0.019694
-0.009410
0.006485
-0.004969
-0.017824
-0.005202
0.004381
-0.008708
-0.018292
-0.005436
0.001109
-0.008942
-0.010578
-0.002164
0.005784
-0.004969
-0.018292
-0.007072
0.003680
-0.001462
-0.016188
-0.008708
0.007653
-0.007072
-0.015954
-0.004969
0.004849
-0.003332
-0.016656
-0.008241
0.003914
-0.008475
-0.017357
-0.003566
0.000174
0.000174
-0.011981
-0.010345
0.005082
-0.005202
-0.012448
-0.007540
0.006719
-0.003800
-0.017357
-0.003332
0.000641
-0.008708
-0.017123
-0.006838
0.001343
-0.005436
-0.010812
-0.009643
0.003680
0.002278
-0.015487
-0.007540
0.005316
-0.007072
-0.014318
-0.005903
0.000407
-0.005670
-0.013150
-0.008942
0.002745
-0.000995
-0.014318
-0.008942
0.003446
-0.005202
-0.018993
-0.006605
0.002979
-0.008241
-0.012215
-0.005436
-0.001930
-0.005436
-0.011513
-0.004501
0.008121
-0.003332
-0.016188
-0.007072
0.000407
-0.006371
-0.012448
-0.003800
0.003446
-0.004969
-0.015019
-0.009643
0.002745
-0.005903
-0.015487
-0.006371
0.001109
-0.003800
-0.011981
0.000875
0.004381
-0.009176
-0.009410
-0.004969
0.000641
-0.006605
-0.017123
-0.002631
0.008589
-0.003566
-0.012448
-0.002398
0.009056
-0.004501
-0.018526
-0.007773
0.003213
-0.004267
-0.014085
-0.008241
0.002745
-0.002631
-0.017123
-0.007072
0.007186
-0.004267
-0.016656
-0.006605
0.001810
-0.008942
-0.013851
-0.007540
0.001343
-0.004034
-0.015721
-0.009877
0.001576
-0.003800
-0.018292
-0.006605
0.004849
-0.004267
-0.015721
-0.011280
0.001109
-0.006838
-0.015253
-0.005903
0.005316
-0.003099
-0.014552
-0.010111
0.001109
-0.002398
-0.015253
-0.007773
0.005082
-0.002164
-0.013617
-0.005202
0.003446
-0.008942
-0.019694
-0.005202
0.000875
-0.009176
-0.007072
0.000407
0.002278
-0.009877
-0.018759
-0.008007
0.003680
-0.004735
-0.023434
-0.011981
0.007887
-0.002398
-0.015019
-0.012448
0.005784
-0.007540
-0.025304
-0.002631
0.000875
-0.003800
-0.013851
-0.008475
0.010926
-0.007072
-0.018058
-0.006838
0.002979
-0.009176
-0.019227
-0.002865
0.008589
-0.003332
-0.019227
-0.009643
0.006485
-0.001229
-0.017591
-0.009410
0.004147
-0.005202
-0.014786
-0.007773
0.001810
-0.006137
-0.016422
-0.002164
0.012562
-0.004969
-0.017824
-0.001930
0.001343
-0.005903
-0.017357
-0.012916
0.010458
-0.004969
-0.020162
-0.004501
0.007420
-0.000761
-0.020396
-0.005202
0.012095
-0.003566
-0.012682
-0.007072
0.005784
-0.000761
-0.019227
-0.010111
0.000407
-0.004969
-0.011747
-0.007306
0.007186
-0.002398
-0.017591
-0.005903
0.006017
-0.005903
-0.024837
-0.011280
0.003213
-0.008942
-0.017357
-0.004034
0.012562
0.002044
-0.014786
-0.002865
0.020042
0.011160
-0.000995
0.008121
0.017938
0.009056
-0.005670
-0.000060
-0.001696
-0.018526
-0.047744
-0.051951
-0.037459
-0.044237
-0.043069
-0.022499
0.015601
0.031729
0.035469
0.064219
0.074738
0.060246
0.041313
0.021211
0.005316
-0.016889
-0.050549
-0.061768
-0.057093
-0.080935
-0.097531
-0.080935
-0.056392
-0.034888
-0.018058
0.012329
0.046689
0.066323
0.088763
0.120084
0.151874
0.141355
0.099515
0.063986
0.013263
-0.053353
-0.127450
-0.180043
-0.226324
-0.283825
-0.297148
-0.239647
-0.117165
0.029859
0.171742
0.307781
0.404784
0.430964
0.403382
0.328350
0.196051
0.016302
-0.193132
-0.375686
-0.479001
-0.505414
-0.471287
-0.376154
-0.215104
-0.024837
0.145796
0.271317
0.324376
0.306846
0.264304
0.231112
0.178520
0.091801
0.020042
0.005082
0.028691
0.033599
-0.003566
-0.061534
-0.105245
-0.140774
-0.178406
-0.206222
-0.222818
-0.198041
-0.132359
-0.036991
0.048325
0.073102
0.092970
0.128499
0.185766
0.238826
0.209374
0.115877
-0.016656
-0.115062
-0.117399
-0.047977
0.064219
0.153977
0.223633
0.268745
0.234619
0.145095
0.031963
-0.101972
-0.275176
-0.508452
-0.712043
-0.712511
-0.479936
-0.137969
0.191610
0.471635
0.700938
0.819679
0.780410
0.581027
0.289782
-0.010111
-0.288500
-0.531827
-0.740560
-0.834291
-0.697551
-0.288266
0.239294
0.590143
0.698834
0.724779
0.757036
0.716365
0.535914
0.265707
-0.016889
-0.230999
-0.395087
-0.645426
-0.996743
-1.246849
-1.173220
-0.747572
-0.123944
0.507164
1.029114
1.397260
1.551998
1.379963
0.837444
0.103722
-0.561279
-0.985757
-1.084397
-0.857432
-0.393684
0.179222
0.788591
1.317554
1.484680
1.092458
0.259863
-0.590263
-1.057984
-1.144002
-0.976174
-0.595639
-0.080701
0.439145
0.818978
0.995455
0.929773
0.618192
0.224100
-0.048913
-0.277747
-0.606391
-0.859536
-0.707135
-0.046809
0.723844
1.129624
1.073759
0.757504
0.433768
0.196285
-0.044939
-0.439031
-0.849952
-0.933632
-0.597509
-0.149189
-0.000527
-0.131190
-0.086779
0.434703
1.198578
1.716321
1.744370
1.341863
0.694159
-0.033018
-0.765337
-1.476853
-2.053265
-2.216885
-1.755943
-0.736353
0.541291
1.716554
2.602443
3.051231
2.755078
1.583788
-0.087246
-1.408132
-1.775344
-1.397380
-0.791750
-0.607794
-1.133717
-1.688858
-1.386394
-0.060833
1.537974
2.407033
2.094284
1.066513
0.158418
-0.323795
-0.526918
-0.816059
-1.280041
-1.493449
-1.336607
-1.006093
-0.216273
1.531896
3.741710
5.044597
4.672009
2.898363
0.505294
-1.540431
-2.403413
-2.333757
-2.465121
-2.978890
-2.858746
-1.417716
0.717533
2.160901
2.012240
0.581962
-1.088137
-2.155177
-2.269711
-1.968650
-1.878892
-1.625981
-0.402333
1.843009
3.903694
4.876535
5.010939
4.799400
4.161280
2.696875
0.778073
-0.987627
-2.290748
-3.136199
-4.152284
-5.523424
-6.508420
-6.116199
-4.062058
-1.324452
1.116768
2.831044
3.427324
3.045855
2.440926
2.017148
1.673078
1.264728
0.631516
-0.112958
-0.239180
1.005506
2.969654
3.631850
1.847684
-1.058452
-3.127317
-3.263122
-1.544872
0.293756
0.725481
-0.500739
-1.763423
-1.650524
-0.676514
0.143926
-0.203417
-1.369331
-2.610977
-2.785116
-1.520329
-0.265359
0.362243
0.297729
0.310352
1.393520
3.446725
5.455753
6.060214
5.596700
5.274835
4.679022
2.548682
-0.971733
-3.760295
-4.771938
-5.198988
-5.594249
-6.271872
-7.634598
-8.317596
-6.180478
-1.182102
4.269970
7.451924
7.250204
5.188116
2.986718
0.839548
-0.755987
-1.724621
-3.334882
-5.296459
-5.163225
-2.205666
1.253742
2.810709
2.357245
1.396325
0.794669
0.373930
0.616322
1.644094
2.043328
1.113028
-0.831486
-2.800544
-3.778527
-3.156769
-0.575069
2.254165
3.175349
1.366640
-2.168267
-4.354004
-3.615842
-1.217397
1.357991
3.737503
5.503670
5.175026
1.949831
-2.125024
-4.126338
-3.152328
-1.169246
-1.079255
-2.537816
-2.605367
-0.724665
1.380197
2.877091
3.671587
4.842175
7.289939
9.638596
9.901091
7.311911
2.788970
-2.793298
-9.077965
-14.192511
-15.069517
-10.774010
-3.434456
2.974095
5.736245
6.607875
7.429250
7.020667
5.509981
4.859940
4.775558
4.109622
3.535314
3.345747
3.036271
1.993307
-0.072988
-1.818820
-1.897591
-0.151292
2.468741
3.181894
0.812433
-2.651181
-5.204130
-5.863054
-5.272384
-4.261675
-1.897358
2.562706
7.400033
9.672724
8.281013
4.962086
2.389970
1.012518
-0.639115
-3.291405
-5.520152
-5.479714
-3.268732
0.018406
2.666255
3.104057
1.974373
1.835997
3.770460
5.745828
6.031463
5.272029
4.245427
3.052166
2.383425
1.968062
0.169404
-2.792830
-5.080012
-5.474104
-3.961782
-2.136711
-0.634440
1.228497
2.455184
2.717679
3.730022
5.601375
6.795571
6.720072
5.155626
1.793923
-2.462316
-4.312398
-1.698909
2.766765
5.969287
6.498483
4.396192
0.424419
-4.078421
-7.157293
-8.296326
-7.431241
-4.498458
-0.637713
3.020376
5.799121
5.327427
0.948940
-3.041300
-3.259149
-0.158071
4.638584
8.603111
8.156193
2.839225
-2.877679
-4.266117
-2.489664
-2.197485
-3.032651
-2.897313
-2.605134
-3.012315
-3.789279
-3.211932
-1.464231
-0.225623
0.548770
0.268745
-1.014741
-1.385926
0.235086
3.160623
5.222242
4.400634
1.813558
-0.540475
-4.090342
-8.481918
-9.962452
-7.826034
-4.172853
-0.867249
0.186935
-1.559832
-3.777592
-2.909935
3.416806
12.265175
18.393467
19.483416
14.435953
5.719883
-1.632760
-6.179309
-9.797428
-13.004158
-14.230145
-13.190920
-11.313023
-8.384682
-2.204263
6.735499
15.271585
19.930565
17.951225
9.877716
0.789293
-3.322026
-2.015398
0.579625
1.565556
1.024906
0.766620
2.014344
3.442751
2.330131
-2.031760
-7.144437
-10.176093
-10.008733
-7.319044
-4.656936
-3.245592
-2.491067
-1.685820
-0.619948
-0.647530
-1.044661
0.467194
3.160389
4.532699
3.008923
-0.522477
-3.818731
-5.634219
-6.390380
-7.142567
-8.592245
-10.232191
-9.905886
-6.571297
-1.439687
3.530405
6.176151
5.907813
5.064933
5.923474
7.603156
8.362589
7.214206
4.064509
0.693691
-2.472134
-5.717665
-7.908311
-8.467660
-7.702617
-6.333113
-3.847949
-0.794087
0.301236
-1.154754
-2.943828
-3.271771
-3.168690
-2.964632
-1.995998
-1.050738
-0.456561
1.342564
4.027812
4.270905
1.971802
-0.115296
-0.892727
-0.419630
0.189974
0.514176
1.663961
2.979939
2.839926
1.051553
-0.947190
-0.412150
4.395491
10.707741
13.500277
10.394991
2.658073
-4.235262
-5.777738
-2.934479
0.570508
1.936975
2.822396
5.714039
9.077145
10.127121
6.950309
1.660689
0.311287
4.755456
10.525654
11.200472
4.991070
-3.801668
-10.192923
-11.799677
-9.996111
-6.843609
-3.284393
-0.414488
1.381599
1.584255
0.033365
-1.863231
-3.658149
-5.084454
-4.687557
-1.766695
2.113451
4.808282
5.859194
5.895191
6.376936
7.458001
8.112017
8.262781
8.041426
7.210934
5.041091
1.621888
-2.322304
-6.873528
-10.255566
-9.912664
-6.230266
-0.900675
3.048192
3.928004
3.763448
4.568227
5.275536
3.237291
-1.481761
-7.035980
-11.557985
-14.209106
-13.814314
-9.376222
-4.339278
-2.580357
-4.126805
-5.694758
-5.119749
-3.380462
-1.338944
-0.022032
-0.853926
-4.548713
-8.967171
-10.012939
-6.037661
1.981620
11.750004
18.550310
17.326895
9.007488
-1.128107
-8.977222
-13.192789
-15.231737
-15.260719
-11.509602
-4.154387
5.169182
13.383171
17.067905
15.971415
11.976034
7.461274
4.102376
2.571823
2.744325
3.115510
2.415448
-0.024135
-4.323150
-8.814068
-11.517782
-12.066845
-10.456352
-6.742631
-2.251480
2.010370
6.596890
10.868790
12.426226
9.567772
1.554102
-9.391649
-17.974720
-20.549873
-16.723490
-9.195772
-1.199399
6.381845
12.962433
16.532166
15.032232
9.111973
2.565278
-0.983887
-3.194869
-7.108440
-10.933657
-11.980827
-8.196985
-0.631402
5.937030
7.992340
5.355242
2.302316
2.111815
2.963810
1.718424
-2.239559
-6.396691
-9.188526
-11.014297
-12.366272
-13.145105
-12.410683
-10.312132
-9.130558
-11.001442
-14.906364
-17.289148
-16.027866
-12.861341
-10.043326
-7.722251
-5.253217
-1.337542
3.687949
6.843489
6.418543
4.097234
1.502445
-2.169202
-7.219001
-11.741474
-13.459492
-12.280489
-10.334572
-9.572802
-9.801168
-9.656481
-7.930050
-3.463675
1.768211
4.151463
4.231871
4.017060
3.412599
1.373418
-3.686198
-12.624559
-23.384718
-32.117619
-36.172134
-35.121223
-30.351919
-23.098850
-13.673599
-4.499159
0.469064
-0.270735
-5.940423
-13.482164
-18.543184
-20.048727
-19.801428
-18.812925
-16.406298
-12.151463
-7.497156
-5.055002
-6.729308
-11.733061
-17.732794
-22.524307
-24.861979
-25.250694
-24.262894
-22.170420
-20.061350
-18.959015
-18.874165
-18.607931
-16.508911
-12.099102
-6.418195
-1.852245
-0.401398
-2.544360
-7.523102
-13.314804
-18.898476
-24.374155
-28.750072
-30.282961
-29.567240
-29.590145
-31.523441
-33.856670
-34.637371
-33.757561
-32.310688
-31.012245
-29.653023
-27.094231
-23.149103
-18.041336
-12.751949
-9.926455
-10.827770
-14.268713
-19.024462
-24.654415
-29.847265
-32.717869
-32.278431
-28.905745
-23.666145
-18.824377
-17.843588
-21.711580
-28.128548
-32.431534
-31.770975
-29.203535
-28.641380
-31.213730
-35.780148
-40.124504
-43.036953
-44.209179
-43.986423
-43.261814
-42.038166
-39.085751
-34.104439
-29.039913
-25.390942
-23.328386
-22.722054
-21.528324
-18.748878
-15.160210
-11.130936
-8.021912
-4.690596
1.072122
8.917263
17.547783
24.736338
29.680487
33.726589
37.991714
41.922112
46.044884
52.190006
58.805191
64.293961
69.671936
75.083801
79.003448
79.884666
76.621605
70.729156
66.403961
65.055962
66.190086
68.315285
69.614204
71.065750
73.157051
74.109795
71.807419
67.325851
64.345848
64.372963
65.466652
64.491005
61.100788
56.835430
52.962528
49.781277
46.919788
44.652008
43.221260
42.697906
42.053474
41.152863
41.698887
43.719368
45.570385
45.420322
42.240940
36.930515
31.820173
28.350950
27.282974
29.399292
34.364010
40.009388
44.383904
46.869534
45.963306
43.036369
40.239628
37.418808
34.324272
28.739666
21.038511
14.013578
9.967474
9.636726
11.775013
16.600653
23.165346
30.233290
36.091610
38.400063
37.491268
34.740803
32.277145
30.176954
28.164656
26.666361
23.634003
20.625486
21.161226
24.201298
27.186203
27.793470
24.568741
19.487154
16.096001
14.250828
10.801939
5.581273
-0.090051
-5.089596
-7.596498
-7.830475
-7.669893
-9.977879
-15.163483
-19.259375
-20.004784
-19.383026
-19.631495
-22.676006
-28.424467
-34.511852
-39.575443
-42.063179
-42.248302
-38.686047
-29.462290
-19.025633
-11.370756
-7.746327
-7.891015
-9.346069
-11.386887
-13.599035
-15.335985
-15.881077
-15.414991
-18.143248
-25.056219
-31.946049
-34.538734
-33.086018
-30.799305
-28.499731
-25.992830
-23.419779
-22.168081
-21.426880
-19.628689
-18.736023
-19.459459
-20.661604
-22.867910
-26.517351
-30.811224
-32.815109
-29.498287
-21.680025
-12.127853
-4.129143
2.098725
7.811656
13.120911
18.450735
21.322275
20.128078
17.162340
12.267513
5.459492
0.144160
-0.702694
4.045343
12.179157
20.948988
25.928898
25.269272
21.137619
11.086639
-2.751224
-14.906599
-23.508135
-25.606453
-23.033401
-19.971125
-19.439123
-20.942097
-19.253531
-15.009914
-9.414789
-3.234372
1.897939
5.042027
2.759051
-3.452689
-10.388567
-16.843866
-21.521547
-22.633699
-19.850981
-14.544062
-7.652596
-2.710786
-0.509621
0.983534
2.192690
3.977791
7.761401
13.162516
18.313293
23.316111
27.306585
29.023899
26.996872
18.847164
7.078868
-4.256533
-11.629044
-13.771540
-14.292553
-14.563463
-15.289003
-16.316307
-17.372828
-20.210478
-21.078135
-18.416494
-14.057175
-8.246538
-3.297716
0.695561
4.563553
8.930820
14.637440
20.209423
24.739609
26.085974
23.220509
18.268648
11.062798
4.213872
-0.413319
-5.037471
-8.441948
-9.587994
-7.211989
-2.177149
2.870780
7.443041
9.485260
8.113651
1.128688
-9.265661
-16.049839
-18.399666
-15.700159
-9.201148
-2.725278
3.418910
6.195318
3.085591
-4.867539
-14.544062
-20.618128
-22.723925
-22.703356
-23.445724
-26.415205
-30.102982
-35.758644
-41.766788
-45.221291
-46.457325
-44.401314
-38.323509
-31.193861
-24.591772
-21.353485
-23.966272
-27.959551
-30.883451
-33.133232
-35.417141
-36.151566
-31.482069
-24.566994
-16.899965
-7.374908
1.752317
7.147823
3.900422
-4.274531
-12.143280
-18.738827
-20.697834
-16.852749
-7.268788
4.007710
12.313091
15.222500
11.011374
4.778831
1.537039
2.435316
7.475065
13.928495
20.305256
25.540415
28.700630
30.565439
29.126978
23.594500
16.133865
8.563843
3.770927
1.268701
-0.144514
2.252295
10.159378
21.489405
30.521261
34.533474
32.454090
24.025755
14.356712
6.589176
3.903226
6.594785
10.332582
15.600229
20.880501
24.143564
26.697212
28.081442
28.379000
25.624329
18.192682
9.537151
-0.144280
-10.170483
-18.610970
-28.248924
-38.348755
-45.633614
-48.467758
-46.511555
-40.516964
-32.518021
-25.722389
-22.923307
-25.931824
-32.349022
-37.476192
-39.948498
-39.200050
-34.906178
-29.649052
-23.326984
-15.514332
-8.741608
-4.723320
-4.852580
-7.146774
-9.380196
-12.512829
-14.462719
-16.105471
-18.055128
-16.073214
-10.512451
-3.070751
0.495477
-0.894130
-1.427767
-0.387139
2.662749
5.054181
6.768457
7.536773
6.618160
8.169518
8.621109
5.709598
3.939691
6.169372
10.275549
13.609901
16.653479
18.615992
19.745674
19.643528
16.995213
13.064344
8.417519
2.710199
-1.923303
-4.367328
-6.922146
-9.876200
-11.568270
-9.216576
-1.835649
8.606150
19.870026
27.852373
32.247459
34.491634
33.658337
30.143999
23.816555
15.366018
7.955408
3.052400
-1.369798
-5.720938
-6.655211
-2.778805
2.292732
5.143470
5.650929
5.091580
4.409282
2.927346
1.100172
-0.263723
-1.696338
-2.544360
-1.907876
-0.381997
0.099281
-0.408644
-0.354182
0.199090
-0.280319
-3.455260
-9.456630
-16.251093
-20.982065
-23.224369
-23.505564
-22.325626
-18.968597
-14.284140
-10.602209
-7.235831
-4.901899
-4.964543
-9.057630
-15.500542
-19.077757
-19.053680
-17.223232
-15.750414
-15.312378
-14.943531
-13.953392
-11.299231
-6.149624
0.853105
6.746719
9.663374
11.177097
12.850704
12.833172
8.899265
1.972036
-5.240828
-10.062962
-12.706135
-14.433969
-15.253475
-14.808661
-13.613762
-12.441771
-8.902658
-2.763612
2.312367
3.381978
0.847495
-0.854627
-0.008475
1.859839
3.095876
2.776582
2.039588
2.558032
5.424665
10.188829
14.685358
17.730337
20.471214
24.537186
29.522472
30.341280
25.668509
19.248501
13.532066
12.190844
14.046768
16.369247
19.344337
20.479864
19.039068
16.870628
15.559326
17.426235
23.873121
32.917137
42.073112
49.763283
53.519073
52.858047
49.276859
44.769344
39.951885
34.921490
30.846399
27.814976
26.118696
24.367256
22.059971
20.443165
20.750307
23.801128
28.097336
32.632904
36.356678
40.494873
44.460804
44.517372
41.515167
37.311985
33.087532
30.369093
29.853922
31.108191
32.463673
33.885071
36.020550
39.419186
44.047775
46.926334
46.926567
43.832966
38.180576
32.228760
26.059093
20.381691
16.163319
14.720884
16.239052
19.036497
22.034260
23.402596
22.869192
21.347988
19.316286
17.614632
16.515570
