EVENT_NAME: CENTRAL_ITALY
EVENT_ID: EMSC-20160824_0000006
EVENT_DATE_YYYYMMDD: 20160824
EVENT_TIME_HHMMSS: 013632
EVENT_LATITUDE_DEGREE: 42.6983
EVENT_LONGITUDE_DEGREE: 13.2335
EVENT_DEPTH_KM: 8.1
HYPOCENTER_REFERENCE: INGV-CNT_Seismic_Bulletin
MAGNITUDE_W: 6.0
MAGNITUDE_W_REFERENCE: INGV-webservice
MAGNITUDE_L: 6.0
MAGNITUDE_L_REFERENCE: INGV-CNT_Seismic_Bulletin
FOCAL_MECHANISM: NF
NETWORK: IT
STATION_CODE: MTR
STATION_NAME: MONTEREALE
STATION_LATITUDE_DEGREE: 42.524021
STATION_LONGITUDE_DEGREE: 13.244796
STATION_ELEVATION_M: 975
LOCATION: 
SENSOR_DEPTH_M: 0.0
VS30_M/S: 
SITE_CLASSIFICATION_EC8: B*
MORPHOLOGIC_CLASSIFICATION: R
EPICENTRAL_DISTANCE_KM: 19.4
EARTHQUAKE_BACKAZIMUTH_DEGREE: 357.3
DATE_TIME_FIRST_SAMPLE_YYYYMMDD_HHMMSS: 20160824_013630.795
DATE_TIME_FIRST_SAMPLE_PRECISION: milliseconds
SAMPLING_INTERVAL_S: 0.005000
NDATA: 21233
DURATION_S: 106.165
STREAM: HGZ
UNITS: cm/s^2
INSTRUMENT: sensor = Unknown [Unknown] | digitizer = Unknown [Unknown]
INSTRUMENT_ANALOG/DIGITAL: D
INSTRUMENTAL_FREQUENCY_HZ: 
INSTRUMENTAL_DAMPING: 
FULL_SCALE_G: 
N_BIT_DIGITAL_CONVERTER: 
PGA_CM/S^2: 42.213379
TIME_PGA_S: 9.845000
BASELINE_CORRECTION: BASELINE NOT REMOVED
FILTER_TYPE: 
FILTER_ORDER: 
LOW_CUT_FREQUENCY_HZ: 
HIGH_CUT_FREQUENCY_HZ: 
LATE/NORMAL_TRIGGERED: NT
DATABASE_VERSION: DYNA 1.0
HEADER_FORMAT: DYNA 1.2
DATA_TYPE: ACCELERATION
PROCESSING: converted to cm/s^2
DATA_TIMESTAMP_YYYYMMDD_HHMMSS: 20161202_135707.586
DATA_LICENSE: CC-BY3_0-IT (http://creativecommons.org/licenses/by/3.0/deed.en)
DATA_CITATION: Luzi L, Puglia R, Russo E & ORFEUS WG5 (2016). Engineering Strong Motion Database. Istituto Nazionale di Geofisica e Vulcanologia, Observatories & Research Facilities for European Seismology. doi: 10.13127/ESM
DATA_CREATOR: ESM working group
ORIGINAL_DATA_MEDIATOR_CITATION: Ufficio Rischio Sismico e Vulcanico del Dipartimento della Protezione Civile (http://www.protezionecivile.gov.it/)
ORIGINAL_DATA_MEDIATOR: http://www.mot1.it/randownload/
ORIGINAL_DATA_CREATOR_CITATION: Italian Strong Motion Network, Italian Civil Protection Department http://www.protezionecivile.gov.it
ORIGINAL_DATA_CREATOR: network: IT (Italian Strong Motion Network); owner: Dipartimento Della Protezione Civile
USER1: MEAN REMOVED (-1.48283240563 cm/s^2)
USER2: 
USER3: 
USER4: 
USER5: 
[...]
0.004403
0.007676
0.001365
-0.008453
-0.002609
0.013052
0.003468
-0.010556
-0.001207
0.010948
0.000897
-0.009621
-0.005414
0.008143
0.003702
-0.014062
-0.002375
0.011883
0.005572
-0.009154
-0.003544
0.012584
0.003936
-0.011258
-0.004946
0.007442
-0.000038
-0.005648
-0.004946
0.002300
0.001832
-0.012660
-0.003310
0.010714
0.005338
-0.005881
-0.005414
0.008377
0.007910
-0.012660
-0.002609
0.018662
0.000430
-0.010790
0.003001
0.010013
0.003235
-0.009154
-0.006816
0.010013
0.002767
-0.012660
-0.002843
0.005338
0.003001
-0.008686
-0.007050
0.005806
0.001131
-0.007518
-0.005648
0.006741
0.000897
-0.009855
-0.002609
0.005105
0.003702
-0.012660
-0.003310
0.006974
0.000663
-0.001908
-0.015465
0.006273
0.008611
-0.016634
-0.002609
0.003468
0.002533
-0.006349
-0.003076
0.010013
0.001598
-0.007985
-0.011258
0.005105
0.006507
-0.007284
-0.006816
0.006273
0.008844
-0.012660
-0.006349
0.012351
0.003936
-0.009154
-0.007985
0.004637
0.005105
-0.006349
-0.008920
0.000897
0.001598
-0.011491
-0.007050
0.007676
0.004403
-0.007751
-0.004479
0.008844
0.006273
-0.010790
-0.007518
0.008844
0.000897
-0.011258
-0.004479
0.008377
0.000897
-0.013829
-0.004011
0.004871
-0.002375
-0.005881
-0.003310
0.006507
0.004871
-0.008453
-0.004011
0.006507
0.007208
-0.008453
-0.007518
0.008611
0.001832
-0.005648
-0.004245
0.004170
0.003702
-0.005180
-0.004011
0.004637
0.000897
-0.013127
0.002533
0.011649
-0.001207
-0.004011
-0.004479
0.006741
0.000430
-0.009855
0.002300
0.001832
0.000897
-0.005180
-0.004946
0.003702
0.002300
-0.000739
-0.004713
0.007208
0.004170
-0.013127
-0.007751
0.004403
0.004637
-0.007985
-0.001908
0.012117
0.000897
-0.009154
-0.003544
0.001131
0.002767
-0.004946
-0.006349
0.007676
-0.002843
-0.009621
0.006273
0.008377
0.001131
-0.007284
-0.005881
0.006273
0.003001
-0.008453
-0.000505
0.008611
0.002300
-0.005180
-0.001674
0.007910
0.003702
-0.007284
-0.003544
0.004403
0.004403
-0.004011
-0.004713
0.006273
0.000897
-0.006816
-0.002141
0.007910
0.004871
-0.009154
-0.003310
0.009779
0.000196
-0.012192
-0.002141
0.006040
-0.000739
-0.006583
-0.000038
0.007208
0.003702
-0.007518
-0.005648
0.007442
-0.001207
-0.007518
0.000196
0.005572
0.000897
-0.010322
-0.000973
0.008611
0.000430
-0.003778
0.002533
0.007442
-0.000271
-0.006349
-0.005414
0.005338
0.005338
-0.012192
-0.001908
0.009078
0.000897
-0.008920
-0.011024
0.007442
0.002533
-0.013361
-0.000038
0.006974
0.000430
-0.002141
-0.005648
0.006974
0.007442
-0.013361
-0.004245
0.006974
0.003702
-0.008920
-0.006349
0.009312
-0.002375
-0.007751
-0.001440
0.008611
0.005572
-0.010790
-0.003778
0.006974
0.000196
-0.010322
-0.004245
0.014688
0.009078
-0.009855
0.000897
0.010247
-0.000973
-0.011725
-0.007284
0.008611
0.002066
-0.014530
-0.001908
0.009312
0.000897
-0.003310
-0.006583
0.009546
0.011182
-0.011959
-0.004011
0.008844
0.003468
-0.011725
-0.004011
0.012351
-0.000505
-0.009855
-0.004479
0.007910
0.006040
-0.003778
0.000196
0.004871
0.002533
-0.007050
0.000430
0.010714
0.002066
-0.005648
-0.001207
0.009779
0.003235
-0.008686
-0.001440
0.008377
0.004403
-0.010322
-0.007518
0.009779
0.004170
-0.007284
-0.004713
0.002767
0.001365
-0.008219
-0.005180
0.004637
0.006040
-0.008686
-0.008219
0.008143
0.000196
-0.008453
-0.001674
0.006273
0.004170
-0.008920
-0.007284
0.010013
0.005338
-0.008219
-0.003544
0.010013
0.005572
-0.010790
-0.000505
0.006507
0.001131
-0.006816
-0.006583
0.006273
0.005338
-0.004479
-0.009855
0.014688
0.010948
-0.010322
-0.000038
0.005338
0.007208
-0.008219
-0.006115
0.008377
0.002767
-0.007284
-0.008453
0.008143
0.007208
-0.006816
-0.007518
0.002300
0.003001
-0.006583
-0.004713
0.009078
0.008611
-0.005648
-0.001908
0.009546
0.005572
-0.005648
-0.007751
0.007442
0.006974
-0.012192
-0.000739
0.011182
0.003936
-0.005881
-0.006583
0.010013
0.007910
-0.008453
-0.008686
0.007910
0.008377
-0.005648
-0.004011
0.006040
0.005105
-0.004245
-0.002609
0.006507
0.005338
-0.008219
-0.005414
0.004871
0.004871
-0.003544
-0.007284
0.001365
0.002300
-0.005648
-0.006115
0.006273
0.002066
-0.004479
-0.005881
0.000663
0.010247
-0.004946
-0.006816
0.002300
0.001832
-0.006583
-0.009154
0.006273
0.001598
-0.008686
-0.004713
0.003702
0.007910
-0.008219
-0.006349
0.010714
0.003702
-0.005414
0.002300
0.006507
0.000196
-0.002609
-0.004479
0.005572
0.005572
-0.013361
-0.004011
0.009779
0.003702
-0.003310
-0.006349
0.004170
0.003936
-0.009154
-0.011024
-0.003076
-0.003310
-0.014530
-0.011258
-0.009154
-0.016166
-0.029022
-0.031359
-0.016867
-0.018971
-0.022243
-0.006816
0.016324
0.023103
0.021700
0.033388
0.043906
0.038530
0.021934
0.004871
-0.012894
-0.036268
-0.065720
-0.074602
-0.068525
-0.072966
-0.072966
-0.058474
-0.018270
0.007676
0.018662
0.058398
0.087149
0.093693
0.100706
0.123145
0.137871
0.127820
0.092525
0.047646
0.014221
-0.055201
-0.124156
-0.147998
-0.146829
-0.123688
-0.071797
0.015623
0.106082
0.181347
0.230667
0.265729
0.289571
0.273442
0.230667
0.163583
0.069618
-0.059876
-0.215316
-0.331954
-0.392961
-0.402077
-0.352290
-0.258325
-0.149166
-0.060110
0.020532
0.107952
0.204021
0.279520
0.310608
0.328840
0.294012
0.200514
0.085045
-0.036969
-0.129766
-0.212978
-0.280998
-0.287543
-0.250144
-0.219056
-0.212745
-0.218121
-0.216017
-0.199421
-0.147998
-0.043514
0.104446
0.258249
0.381666
0.459502
0.441037
0.304296
0.086681
-0.101950
-0.161321
-0.101950
0.047412
0.200281
0.253574
0.165686
-0.025282
-0.200356
-0.325175
-0.421244
-0.495808
-0.543726
-0.533441
-0.490432
-0.411427
-0.254585
-0.047488
0.141143
0.239082
0.247497
0.197008
0.114497
0.048347
0.004403
-0.024581
-0.060110
-0.125091
-0.195681
-0.238456
-0.250845
-0.258091
-0.277492
-0.343174
-0.449293
-0.453734
-0.236353
0.141143
0.495499
0.681325
0.657717
0.415559
-0.036268
-0.573177
-0.967971
-1.110087
-1.025004
-0.761809
-0.424750
-0.138414
0.039465
0.164752
0.318789
0.524951
0.723165
0.825545
0.792120
0.628733
0.397560
0.190931
0.089954
0.064709
0.037127
-0.047254
-0.165061
-0.196149
-0.094938
0.152129
0.513731
0.873696
1.089442
1.037083
0.795158
0.560947
0.487785
0.639719
0.889123
1.007398
0.836064
0.472358
0.126651
-0.035333
0.102809
0.495499
1.043628
1.465068
1.430240
0.962051
0.369745
-0.024347
-0.099145
0.091590
0.326035
0.290506
-0.120650
-0.592812
-0.681401
-0.326344
0.219681
0.786042
1.263113
1.485170
1.320381
0.808014
0.279286
-0.012660
-0.111767
-0.027152
0.233940
0.521912
0.698856
0.704232
0.575673
0.358291
0.146753
0.248198
0.846816
1.743223
2.472737
2.651083
2.301637
1.726861
1.132918
0.597411
0.227862
0.008143
-0.038372
0.292142
1.040589
1.840694
2.158352
1.857290
1.286955
0.986828
1.244180
1.807269
2.142925
1.826669
0.834427
-0.254351
-0.554478
0.267599
1.664919
2.711623
2.721207
1.545709
-0.339667
-1.840536
-1.948058
-0.634886
0.977011
1.356611
-0.067590
-2.430037
-4.221917
-4.439532
-3.204898
-1.394085
0.018194
0.545286
0.380731
0.215240
0.891461
2.496813
4.181871
5.287012
5.751461
5.516782
4.700081
3.955841
3.755055
3.793857
3.261622
1.685488
-0.423815
-2.237666
-3.375297
-3.742275
-3.410593
-2.658405
-1.788177
-0.822816
0.325100
1.218235
1.366896
1.384426
2.438844
4.574795
6.536606
7.251394
6.531697
4.721118
2.692924
1.323185
0.647666
0.107017
-0.629042
-1.432887
-2.037582
-2.079188
-1.420265
-0.601460
-0.583462
-1.681824
-2.726658
-2.295635
-0.365847
1.993796
3.618549
3.759263
2.547068
0.912731
-0.145426
-0.049358
1.350767
3.739862
6.226194
7.856089
8.211380
7.491916
6.264995
5.135312
4.640476
4.719014
4.444833
3.391818
2.426690
2.413132
2.954483
2.880386
1.436084
-1.121073
-3.395633
-3.679398
-1.319755
2.168403
3.980852
2.353995
-1.960446
-5.561035
-5.643079
-2.574024
0.929795
1.768000
-1.046742
-6.265305
-11.386162
-14.044996
-13.911530
-12.223198
-10.210665
-8.389334
-7.353849
-7.912964
-9.741074
-11.370735
-11.171820
-8.898193
-6.117813
-3.815203
-2.123132
-1.801734
-3.129399
-5.494418
-8.293732
-10.878939
-11.741686
-9.110901
-3.952644
0.674079
2.830365
1.750703
-1.911361
-5.357444
-5.365625
-0.948570
5.471202
9.413991
7.772643
1.341885
-6.157548
-10.666231
-9.530704
-2.495252
7.147144
14.060583
15.185825
11.058378
4.676239
-0.731656
-3.918985
-4.716986
-3.475339
-1.620583
-1.044405
-2.669859
-5.201537
-6.869532
-7.418128
-6.827693
-4.425040
0.458100
6.759597
11.318068
12.009949
9.153601
4.126708
-1.392449
-5.332667
-6.034132
-3.802814
-0.724643
1.163305
0.983790
-1.127618
-3.530035
-4.506383
-4.786642
-5.593992
-5.853448
-3.512271
1.232493
5.735800
7.713037
6.935139
4.334272
0.146286
-4.728206
-6.993884
-4.971533
-0.757367
2.944198
4.140966
3.073692
2.116745
1.591991
0.118470
-2.599502
-5.631158
-7.037126
-5.210653
-0.316761
5.417675
9.061505
8.971748
5.018440
-0.950674
-5.559399
-6.178118
-2.964610
1.048770
3.260220
3.088886
0.483578
-4.004302
-9.084721
-13.019096
-12.667078
-6.714560
0.868086
6.091558
8.718369
8.669518
5.358537
0.916238
-1.323261
-0.675323
0.833259
0.575907
-2.903135
-8.703018
-13.298185
-14.115353
-11.602842
-7.019128
-2.550182
-1.455092
-4.808847
-10.021099
-13.513229
-12.610979
-7.237913
0.012584
7.133587
12.120977
12.497538
8.039811
1.041057
-4.474828
-4.982285
-0.056370
7.921303
14.910707
16.321350
9.302963
-2.605345
-11.592325
-13.182716
-6.626672
5.193280
15.510262
19.061062
15.699360
8.153879
0.754487
-1.639984
1.888378
8.201096
12.756994
11.575186
5.294725
0.056996
0.389613
3.359561
4.159666
2.167000
-2.238835
-8.328093
-11.517759
-8.204443
-0.124156
8.855577
14.886866
16.061195
12.056931
3.942050
-3.921322
-7.576140
-6.190741
-2.132482
-0.193110
-2.280909
-6.663603
-11.729532
-14.612293
-11.286354
-3.118413
4.354842
8.521791
8.362378
3.926623
-0.501418
-0.253883
4.277472
9.966795
13.799492
12.237381
4.395747
-5.622743
-12.833971
-15.410295
-13.984224
-9.972948
-5.406063
-2.812442
-3.246037
-4.928057
-5.876589
-4.886217
-1.776256
2.102721
6.113997
10.062864
12.208397
11.146734
7.521835
2.338335
-3.261230
-7.869956
-9.534912
-6.530137
-0.109664
5.896849
7.722855
4.608921
-1.619648
-7.888188
-10.644493
-8.803061
-3.433733
3.930830
11.249348
15.993408
16.257072
12.541014
7.092682
2.000107
-1.888687
-4.453323
-5.622977
-6.201259
-7.661456
-10.568995
-13.614208
-15.538620
-16.866518
-17.763626
-16.524317
-11.744492
-4.023703
4.339882
10.054682
11.222700
8.694294
4.931253
1.792543
-0.234249
-1.030848
-1.124579
-0.647975
1.423462
5.404819
8.045889
4.879363
-2.889812
-9.957287
-12.325579
-8.530983
0.067748
8.756470
12.173569
9.269772
2.695261
-3.825955
-6.707080
-4.179142
1.970656
6.972771
7.530016
4.236100
-0.169736
-3.766117
-5.782156
-5.536492
-3.436305
-1.297549
-2.180399
-8.095751
-16.814394
-24.082188
-26.318880
-20.606419
-7.271103
7.138496
13.808840
9.271641
-2.808235
-14.796249
-19.567661
-15.506363
-6.944798
1.242778
5.977490
4.563808
-2.090174
-9.353292
-13.722429
-13.023069
-7.473993
0.140442
6.840239
9.911865
9.127889
6.085480
2.934381
2.111837
2.868933
2.340438
-0.336161
-3.210041
-3.508064
-0.818842
2.634722
4.261110
2.826158
-0.125091
-2.355240
-3.830163
-5.061758
-5.563606
-5.068069
-4.501474
-4.243187
-4.128186
-4.466880
-5.158061
-6.149134
-6.603064
-4.508955
0.304530
4.905541
6.251204
3.833593
-1.112658
-6.577352
-9.606438
-7.414155
0.038062
9.011250
14.876114
14.709923
8.515715
0.153298
-5.662246
-5.948114
-0.125324
8.653856
14.050064
11.898687
4.656605
-2.572621
-6.639295
-7.043437
-4.571364
-0.453968
3.486016
6.138774
7.256302
7.068139
5.215954
1.408034
-2.924172
-6.788189
-9.616955
-9.648512
-5.289893
2.609945
10.723188
15.927961
16.539902
12.830156
7.147144
2.121654
-0.390857
0.255912
2.129134
1.328562
-3.201158
-8.738781
-13.150694
-15.678865
-15.905130
-14.193424
-11.482231
-7.689739
-2.069605
3.836164
7.043829
6.290707
1.714472
-6.049559
-13.549929
-15.806255
-11.515423
-3.658595
2.498215
3.446747
0.568427
-2.135287
-2.116587
0.367641
2.978792
3.123012
1.645986
0.635278
-0.228172
-1.762465
-4.244357
-8.310095
-13.998014
-18.906633
-19.933235
-15.930841
-8.885105
-2.441257
1.198834
2.606906
3.320526
3.330810
3.294814
4.572223
6.777829
8.726785
9.733986
10.497158
12.085917
15.215042
19.793848
24.169998
26.695366
26.575220
24.433661
22.632666
23.353998
26.085060
28.656473
30.044445
28.719116
23.318235
15.402037
6.584523
-3.360104
-13.490089
-20.094751
-20.420591
-15.428761
-8.583809
-3.735497
-3.150435
-6.950174
-12.753330
-17.735111
-21.054972
-21.878218
-19.560648
-15.361675
-10.488352
-5.974528
-4.328738
-7.059098
-11.873985
-14.694805
-13.424875
-9.477411
-5.607550
-3.099947
-1.350843
-0.072966
-0.000038
0.454126
3.799934
9.680458
16.381424
23.031433
29.873812
36.757568
41.623177
42.213379
37.876732
29.107834
18.353519
9.627867
5.103990
3.914469
4.476388
6.057899
7.898864
9.256915
10.047903
10.549519
10.548817
9.764841
9.231905
10.014011
12.575142
17.113977
21.990805
23.904467
20.564268
13.120466
5.024517
-0.720436
-2.070540
0.971167
5.848932
9.135368
8.904898
6.303096
2.876412
-1.270435
-5.086068
-6.000240
-1.977042
6.228298
15.412790
22.038021
22.820829
16.624517
6.710744
-1.058196
-2.250756
3.061538
10.111248
14.036274
13.751574
10.432646
6.367141
4.277940
5.152142
8.168371
11.986107
15.276518
16.683187
14.927071
10.316008
5.565401
2.771695
0.949429
-1.525683
-4.638215
-8.674501
-14.484201
-20.006630
-21.398575
-17.833282
-11.586246
-5.404894
-1.615674
-1.207792
-3.012060
-5.155256
-6.707781
-7.756356
-8.047132
-6.976120
-5.171151
-4.255342
-6.424016
-12.158920
-18.555084
-23.136927
-26.066673
-27.087431
-24.982334
-21.292456
-18.942162
-18.067961
-16.354385
-11.806200
-5.691463
-1.733949
-0.637691
0.443140
2.379240
3.784039
3.715085
2.039143
-0.113170
-0.901821
0.847049
4.910918
9.702196
12.981855
13.123970
9.867922
5.021011
2.657161
5.776938
12.928328
19.644487
22.411310
21.486622
19.911888
19.411676
20.075975
21.877907
23.676798
23.330624
18.531399
9.339192
-0.624367
-7.168490
-8.698109
-7.500407
-6.367451
-6.328883
-7.907588
-10.339224
-11.431509
-9.471802
-4.307234
3.049383
10.280012
14.512644
14.493710
10.512119
3.396726
-5.054045
-12.045553
-15.661337
-15.666946
-13.098803
-9.498917
-5.283348
-1.648399
-0.845021
-2.234394
-3.803750
-5.177461
-5.832645
-4.162313
0.508355
7.266587
14.317701
19.431078
20.801050
17.498018
10.042528
0.781601
-7.501341
-12.329084
-11.924942
-6.767854
0.478202
5.553012
5.797975
2.009457
-4.805341
-12.486393
-18.441250
-20.828007
-18.536150
-12.643471
-4.589596
0.638316
-1.281655
-6.944563
-10.759027
-9.627708
-3.742041
5.403182
14.170675
17.827362
14.961197
6.859873
-2.168244
-6.813901
-5.785896
-2.160531
-0.242898
-1.680188
-3.913843
-4.216775
-2.708192
-0.539051
2.404250
6.483312
8.381311
4.811110
-2.108874
-7.834660
-9.616255
-9.784550
-11.875622
-15.376402
-18.804722
-21.767656
-23.680849
-22.218782
-15.062952
-4.606659
2.579558
1.525841
-7.864813
-20.145243
-28.717325
-30.397943
-24.457346
-13.721964
-4.530225
-2.871112
-9.242966
-18.656059
-24.014168
-20.868444
-10.387842
2.900722
12.011351
12.057165
2.172610
-13.578911
-26.817223
-32.456055
-29.744394
-21.254122
-11.542068
-5.444163
-6.735597
-13.469053
-20.322887
-22.225094
-16.798264
-6.118748
5.680636
12.464346
11.064455
4.041625
-3.977655
-7.833725
-4.405640
5.255690
17.854710
27.918547
29.215124
21.229269
9.515436
0.707738
-4.627228
-8.643414
-11.242411
-12.853138
-12.487797
-10.561749
-9.055737
-9.523926
-13.722429
-20.958670
-28.028250
-31.603827
-30.099688
-23.727596
-15.271217
-8.090843
-4.055491
-3.704409
-6.319066
-9.944664
-11.133718
-8.959435
-4.570195
0.193502
2.521356
0.960883
-4.839234
-10.967293
-11.717144
-5.904405
2.439546
7.483969
8.258596
6.117503
2.647110
0.347305
-0.526429
-0.939921
-2.395677
-5.301112
-7.452256
-6.571042
-1.239347
8.264907
18.527191
25.029474
24.214876
17.114210
8.614353
2.328284
1.502467
5.847295
12.534470
19.553793
23.945370
24.242693
20.472406
13.960073
6.518373
0.451321
-1.017758
3.558944
12.429987
20.212482
20.825592
13.468275
3.362366
-4.644759
-8.145306
-8.051575
-6.237489
-3.693422
-1.667332
0.678520
3.946258
10.020790
18.325937
23.887169
23.335066
15.360432
4.033678
-5.202238
-8.074247
-3.169603
2.926667
4.583443
1.157227
-5.735641
-12.545298
-16.236345
-14.799990
-8.872248
-2.923470
-0.268609
0.730645
2.383914
5.216655
8.327550
10.807104
11.797709
9.630203
4.379619
-4.587025
-14.864269
-20.657139
-19.936508
-13.230165
-5.014074
0.123613
0.228330
-5.086535
-11.368164
-12.868565
-6.492270
5.162894
15.240053
18.386711
12.912199
1.016046
-12.757303
-22.887289
-25.044275
-18.846092
-8.682915
-0.255286
1.967149
-3.086156
-11.395746
-17.643482
-17.923040
-12.180191
-2.832778
7.611359
15.267635
17.345150
14.424288
8.906300
3.351146
-0.421244
-2.898226
-4.149924
-2.664483
1.758183
7.518563
12.523483
15.642326
15.899445
14.905098
15.450190
19.268158
26.441521
33.843716
38.604141
38.217766
33.161419
26.456947
21.680628
22.085939
24.640993
25.522205
23.572550
18.736626
13.659712
10.139999
8.168839
6.140644
2.817976
-1.525917
-6.394799
-10.548658
-13.326935
-15.295761
-15.767689
-13.007643
-9.740841
-8.523970
-9.203465
-11.251993
-13.268034
-15.437174
-15.743145
-13.795828
-11.093281
-8.257269
-8.207949
-11.820457
-19.257950
-27.516582
-32.564278
-35.532356
-35.753242
-32.255501
-26.377783
-20.751339
-17.758017
-15.405619
-12.930740
-10.600550
-6.797539
-2.441024
0.708439
0.767109
-2.015142
-4.133796
-3.620261
0.298920
5.836309
9.300625
8.771896
4.991325
2.128666
2.996089
7.132419
12.359161
15.577347
14.963768
8.682840
-1.537604
-8.865236
-9.747385
-6.424484
-3.517881
-4.406107
-8.998938
-15.559656
-21.316765
-24.084526
-23.466272
-19.936274
-15.227741
-9.791563
-5.076251
-3.771025
-5.802493
-10.367741
-15.263271
-18.568874
-19.756994
-18.694393
-16.669239
-15.000309
-14.994932
-15.533243
-14.130547
-11.160833
-9.387653
-9.858414
-10.223288
-8.599470
-5.690061
-3.633818
-1.935903
0.487552
3.200849
5.219460
4.707327
2.285742
-0.983164
-3.841616
-4.323829
-1.346869
4.927514
10.713606
12.372719
9.763437
6.093661
5.172945
7.457790
10.893354
12.215876
9.277250
2.442818
