EVENT_NAME: CENTRAL_ITALY
EVENT_ID: EMSC-20160824_0000006
EVENT_DATE_YYYYMMDD: 20160824
EVENT_TIME_HHMMSS: 013632
EVENT_LATITUDE_DEGREE: 42.6983
EVENT_LONGITUDE_DEGREE: 13.2335
EVENT_DEPTH_KM: 8.1
HYPOCENTER_REFERENCE: INGV-CNT_Seismic_Bulletin
MAGNITUDE_W: 6.0
MAGNITUDE_W_REFERENCE: INGV-webservice
MAGNITUDE_L: 6.0
MAGNITUDE_L_REFERENCE: INGV-CNT_Seismic_Bulletin
FOCAL_MECHANISM: NF
NETWORK: IT
STATION_CODE: MTR
STATION_NAME: MONTEREALE
STATION_LATITUDE_DEGREE: 42.524021
STATION_LONGITUDE_DEGREE: 13.244796
STATION_ELEVATION_M: 975
LOCATION: 
SENSOR_DEPTH_M: 0.0
VS30_M/S: 
SITE_CLASSIFICATION_EC8: B*
MORPHOLOGIC_CLASSIFICATION: R
EPICENTRAL_DISTANCE_KM: 19.4
EARTHQUAKE_BACKAZIMUTH_DEGREE: 357.3
DATE_TIME_FIRST_SAMPLE_YYYYMMDD_HHMMSS: 20160824_013630.795
DATE_TIME_FIRST_SAMPLE_PRECISION: milliseconds
SAMPLING_INTERVAL_S: 0.020000
NDATA: 105
DURATION_S: 
STREAM: HGZ
UNITS: cm/s^2
INSTRUMENT: sensor = Unknown [Unknown] | digitizer = Unknown [Unknown]
INSTRUMENT_ANALOG/DIGITAL: D
INSTRUMENTAL_FREQUENCY_HZ: 
INSTRUMENTAL_DAMPING: 
FULL_SCALE_G: 
N_BIT_DIGITAL_CONVERTER: 
PGA_CM/S^2: 33.383650
TIME_PGA_S: 9.900000
BASELINE_CORRECTION: BASELINE REMOVED
FILTER_TYPE: BUTTERWORTH
FILTER_ORDER: 2
LOW_CUT_FREQUENCY_HZ: 0.050
HIGH_CUT_FREQUENCY_HZ: 15.000
LATE/NORMAL_TRIGGERED: NT
DATABASE_VERSION: DYNA 1.0
HEADER_FORMAT: DYNA 1.2
DATA_TYPE: ACCELERATION RESPONSE SPECTRUM
PROCESSING: manual (Paolucci et al., 2011)
DATA_TIMESTAMP_YYYYMMDD_HHMMSS: 20191119_160111.228
DATA_LICENSE: CC-BY3_0-IT (http://creativecommons.org/licenses/by/3.0/deed.en)
DATA_CITATION: Luzi L, Puglia R, Russo E & ORFEUS WG5 (2016). Engineering Strong Motion Database. Istituto Nazionale di Geofisica e Vulcanologia, Observatories & Research Facilities for European Seismology. doi: 10.13127/ESM
DATA_CREATOR: ESM working group
ORIGINAL_DATA_MEDIATOR_CITATION: Ufficio Rischio Sismico e Vulcanico del Dipartimento della Protezione Civile (http://www.protezionecivile.gov.it/)
ORIGINAL_DATA_MEDIATOR: http://www.mot1.it/randownload/
ORIGINAL_DATA_CREATOR_CITATION: Italian Strong Motion Network, Italian Civil Protection Department http://www.protezionecivile.gov.it
ORIGINAL_DATA_CREATOR: network: IT (Italian Strong Motion Network); owner: Dipartimento Della Protezione Civile
USER1: /home/dyna/processing-itaca/processing.py /var/www/processing//tmp/rodolfo//IT.MTR..HGE.D.20160824.013632.X.ACC.ASC /var/www/processing//tmp/rodolfo//IT.MTR..HGN.D.20160824.013632.X.ACC.ASC /var/www/processing//tmp/rodolfo//IT.MTR..HGZ.D.20160824.013632.X.ACC.ASC --tmp /var/www/processing//tmp/rodolfo/ --le 0.050 --he 15 --ln 0.050 --hn 15 --lz 0.050 --hz 15 --fo 2 --ca 0 --cz 58.2 --ta 5 --tz 5 --mf 1 --rf 0.020 --tr NT
USER2: 
USER3: 
USER4: 
USER5: 
    0.010000    33.867821
    0.020000    34.027943
    0.022000    35.355980
    0.025000    37.165703
    0.029000    35.188972
    0.030000    34.778893
    0.032000    34.248894
    0.035000    33.844078
    0.036000    33.830612
    0.040000    34.119461
    0.042000    34.369236
    0.044000    34.817093
    0.045000    35.063400
    0.046000    35.326675
    0.048000    35.916981
    0.050000    36.558636
    0.055000    38.820362
    0.060000    40.372707
    0.065000    40.799915
    0.067000    39.217548
    0.070000    44.943310
    0.075000    47.869884
    0.080000    56.506508
    0.085000    75.317200
    0.090000    82.724350
    0.095000    78.567619
    0.100000    70.834175
    0.110000    62.029900
    0.120000    67.828682
    0.130000    58.268173
    0.133000    59.740166
    0.140000    59.543827
    0.150000    71.196388
    0.160000    74.508614
    0.170000    69.668427
    0.180000    75.815514
    0.190000    76.828934
    0.200000    79.620552
    0.220000    92.253471
    0.240000    76.426407
    0.250000    76.841286
    0.260000    92.387009
    0.280000    82.193459
    0.290000    83.867935
    0.300000    74.645073
    0.320000    60.516014
    0.340000    58.608562
    0.350000    58.292923
    0.360000    69.808205
    0.380000    83.447929
    0.400000    69.650116
    0.420000    59.311790
    0.440000    66.078384
    0.450000    69.372002
    0.460000    69.128479
    0.480000    62.145214
    0.500000    61.875656
    0.550000    69.834679
    0.600000    84.112511
    0.650000    91.446762
    0.667000    87.495102
    0.700000    70.624695
    0.750000    53.380451
    0.800000    45.063210
    0.850000    45.823925
    0.900000    55.000469
    0.950000    64.469513
    1.000000    69.405678
    1.100000    66.319641
    1.200000    50.074841
    1.300000    37.523727
    1.400000    28.788076
    1.500000    30.515406
    1.600000    40.173687
    1.700000    44.003414
    1.800000    40.881737
    1.900000    39.299110
    2.000000    35.881451
    2.200000    28.179260
    2.400000    25.207672
    2.500000    25.552101
    2.600000    26.332422
    2.800000    26.729019
    3.000000    25.210291
    3.200000    22.587317
    3.400000    20.491531
    3.500000    19.089977
    3.600000    17.578377
    3.800000    14.357208
    4.000000    11.868655
    4.200000    10.249758
    4.400000     8.750796
    4.600000     7.443375
    4.800000     6.359140
    5.000000     5.481831
    5.500000     3.998787
    6.000000     3.158476
    6.500000     2.637325
    7.000000     2.274888
    7.500000     1.994184
    8.000000     1.762295
    8.500000     1.565114
    9.000000     1.396126
    9.500000     1.251318
   10.000000     1.126240
