EVENT_NAME: CENTRAL_ITALY
EVENT_ID: EMSC-20160824_0000006
EVENT_DATE_YYYYMMDD: 20160824
EVENT_TIME_HHMMSS: 013632
EVENT_LATITUDE_DEGREE: 42.6983
EVENT_LONGITUDE_DEGREE: 13.2335
EVENT_DEPTH_KM: 8.1
HYPOCENTER_REFERENCE: INGV-CNT_Seismic_Bulletin
MAGNITUDE_W: 6.0
MAGNITUDE_W_REFERENCE: INGV-webservice
MAGNITUDE_L: 6.0
MAGNITUDE_L_REFERENCE: INGV-CNT_Seismic_Bulletin
FOCAL_MECHANISM: NF
NETWORK: IT
STATION_CODE: MTR
STATION_NAME: MONTEREALE
STATION_LATITUDE_DEGREE: 42.524021
STATION_LONGITUDE_DEGREE: 13.244796
STATION_ELEVATION_M: 975
LOCATION: 
SENSOR_DEPTH_M: 0.0
VS30_M/S: 
SITE_CLASSIFICATION_EC8: B*
MORPHOLOGIC_CLASSIFICATION: R
EPICENTRAL_DISTANCE_KM: 19.4
EARTHQUAKE_BACKAZIMUTH_DEGREE: 357.3
DATE_TIME_FIRST_SAMPLE_YYYYMMDD_HHMMSS: 20160824_013630.795
DATE_TIME_FIRST_SAMPLE_PRECISION: milliseconds
SAMPLING_INTERVAL_S: 0.020000
NDATA: 105
DURATION_S: 
STREAM: HGE
UNITS: cm/s
INSTRUMENT: sensor = Unknown [Unknown] | digitizer = Unknown [Unknown]
INSTRUMENT_ANALOG/DIGITAL: D
INSTRUMENTAL_FREQUENCY_HZ: 
INSTRUMENTAL_DAMPING: 
FULL_SCALE_G: 
N_BIT_DIGITAL_CONVERTER: 
PGV_CM/S: -11.422233
TIME_PGV_S: 10.340000
BASELINE_CORRECTION: BASELINE REMOVED
FILTER_TYPE: BUTTERWORTH
FILTER_ORDER: 2
LOW_CUT_FREQUENCY_HZ: 0.050
HIGH_CUT_FREQUENCY_HZ: 15.000
LATE/NORMAL_TRIGGERED: NT
DATABASE_VERSION: DYNA 1.0
HEADER_FORMAT: DYNA 1.2
DATA_TYPE: PSEUDO-VELOCITY RESPONSE SPECTRUM
PROCESSING: manual (Paolucci et al., 2011)
DATA_TIMESTAMP_YYYYMMDD_HHMMSS: 20191119_160111.228
DATA_LICENSE: CC-BY3_0-IT (http://creativecommons.org/licenses/by/3.0/deed.en)
DATA_CITATION: Luzi L, Puglia R, Russo E & ORFEUS WG5 (2016). Engineering Strong Motion Database. Istituto Nazionale di Geofisica e Vulcanologia, Observatories & Research Facilities for European Seismology. doi: 10.13127/ESM
DATA_CREATOR: ESM working group
ORIGINAL_DATA_MEDIATOR_CITATION: Ufficio Rischio Sismico e Vulcanico del Dipartimento della Protezione Civile (http://www.protezionecivile.gov.it/)
ORIGINAL_DATA_MEDIATOR: http://www.mot1.it/randownload/
ORIGINAL_DATA_CREATOR_CITATION: Italian Strong Motion Network, Italian Civil Protection Department http://www.protezionecivile.gov.it
ORIGINAL_DATA_CREATOR: network: IT (Italian Strong Motion Network); owner: Dipartimento Della Protezione Civile
USER1: /home/dyna/processing-itaca/processing.py /var/www/processing//tmp/rodolfo//IT.MTR..HGE.D.20160824.013632.X.ACC.ASC /var/www/processing//tmp/rodolfo//IT.MTR..HGN.D.20160824.013632.X.ACC.ASC /var/www/processing//tmp/rodolfo//IT.MTR..HGZ.D.20160824.013632.X.ACC.ASC --tmp /var/www/processing//tmp/rodolfo/ --le 0.050 --he 15 --ln 0.050 --hn 15 --lz 0.050 --hz 15 --fo 2 --ca 0 --cz 58.2 --ta 5 --tz 5 --mf 1 --rf 0.020 --tr NT
USER2: 
USER3: 
USER4: 
USER5: 
    0.010000     0.120265
    0.020000     0.243117
    0.022000     0.269340
    0.025000     0.300704
    0.029000     0.346745
    0.030000     0.356295
    0.032000     0.380916
    0.035000     0.417923
    0.036000     0.430178
    0.040000     0.479315
    0.042000     0.504243
    0.044000     0.529307
    0.045000     0.541895
    0.046000     0.554520
    0.048000     0.579867
    0.050000     0.605292
    0.055000     0.670495
    0.060000     0.752272
    0.065000     0.795022
    0.067000     0.856838
    0.070000     0.902682
    0.075000     1.016050
    0.080000     1.309442
    0.085000     1.301216
    0.090000     1.465349
    0.095000     1.521329
    0.100000     1.424073
    0.110000     1.766976
    0.120000     2.207386
    0.130000     1.927992
    0.133000     1.790673
    0.140000     1.718893
    0.150000     2.319286
    0.160000     2.719943
    0.170000     3.044321
    0.180000     3.565639
    0.190000     4.172270
    0.200000     4.848708
    0.220000     4.880418
    0.240000     5.248375
    0.250000     5.513125
    0.260000     5.854859
    0.280000     6.498388
    0.290000     6.776873
    0.300000     7.115073
    0.320000     7.837442
    0.340000     8.194617
    0.350000     8.384151
    0.360000     8.572805
    0.380000     8.882934
    0.400000     9.226521
    0.420000     9.568915
    0.440000    10.078474
    0.450000    10.443784
    0.460000    10.770339
    0.480000    11.204410
    0.500000    11.563489
    0.550000    11.781901
    0.600000    12.316104
    0.650000    13.268079
    0.667000    13.574288
    0.700000    14.765794
    0.750000    16.239779
    0.800000    17.088909
    0.850000    17.726690
    0.900000    17.658285
    0.950000    17.738001
    1.000000    17.815889
    1.100000    19.981552
    1.200000    19.880638
    1.300000    18.154726
    1.400000    17.630299
    1.500000    16.885698
    1.600000    16.330257
    1.700000    15.810878
    1.800000    19.243893
    1.900000    20.497595
    2.000000    21.317501
    2.200000    23.329037
    2.400000    19.754110
    2.500000    17.308416
    2.600000    15.394402
    2.800000    11.110497
    3.000000     8.883559
    3.200000     7.841395
    3.400000     7.203182
    3.500000     6.869045
    3.600000     6.536337
    3.800000     6.258717
    4.000000     6.046487
    4.200000     6.534884
    4.400000     6.767767
    4.600000     6.767119
    4.800000     6.578444
    5.000000     6.250847
    5.500000     5.105044
    6.000000     4.162892
    6.500000     3.817387
    7.000000     3.515949
    7.500000     3.253252
    8.000000     3.023611
    8.500000     2.821677
    9.000000     2.643549
    9.500000     2.485046
   10.000000     2.342806
