EVENT_NAME: CENTRAL_ITALY
EVENT_ID: EMSC-20160824_0000006
EVENT_DATE_YYYYMMDD: 20160824
EVENT_TIME_HHMMSS: 013632
EVENT_LATITUDE_DEGREE: 42.6983
EVENT_LONGITUDE_DEGREE: 13.2335
EVENT_DEPTH_KM: 8.1
HYPOCENTER_REFERENCE: INGV-CNT_Seismic_Bulletin
MAGNITUDE_W: 6.0
MAGNITUDE_W_REFERENCE: INGV-webservice
MAGNITUDE_L: 6.0
MAGNITUDE_L_REFERENCE: INGV-CNT_Seismic_Bulletin
FOCAL_MECHANISM: NF
NETWORK: IT
STATION_CODE: MTR
STATION_NAME: MONTEREALE
STATION_LATITUDE_DEGREE: 42.524021
STATION_LONGITUDE_DEGREE: 13.244796
STATION_ELEVATION_M: 975
LOCATION: 
SENSOR_DEPTH_M: 0.0
VS30_M/S: 
SITE_CLASSIFICATION_EC8: B*
MORPHOLOGIC_CLASSIFICATION: R
EPICENTRAL_DISTANCE_KM: 19.4
EARTHQUAKE_BACKAZIMUTH_DEGREE: 357.3
DATE_TIME_FIRST_SAMPLE_YYYYMMDD_HHMMSS: 20160824_013630.795
DATE_TIME_FIRST_SAMPLE_PRECISION: milliseconds
SAMPLING_INTERVAL_S: 0.020000
NDATA: 2250
DURATION_S: 45.000
STREAM: HGN
UNITS: cm/s^2
INSTRUMENT: sensor = Unknown [Unknown] | digitizer = Unknown [Unknown]
INSTRUMENT_ANALOG/DIGITAL: D
INSTRUMENTAL_FREQUENCY_HZ: 
INSTRUMENTAL_DAMPING: 
FULL_SCALE_G: 
N_BIT_DIGITAL_CONVERTER: 
PGA_CM/S^2: -68.260331
TIME_PGA_S: 11.760000
BASELINE_CORRECTION: BASELINE REMOVED
FILTER_TYPE: BUTTERWORTH
FILTER_ORDER: 2
LOW_CUT_FREQUENCY_HZ: 0.050
HIGH_CUT_FREQUENCY_HZ: 15.000
LATE/NORMAL_TRIGGERED: NT
DATABASE_VERSION: DYNA 1.0
HEADER_FORMAT: DYNA 1.2
DATA_TYPE: ACCELERATION
PROCESSING: manual (Paolucci et al., 2011)
DATA_TIMESTAMP_YYYYMMDD_HHMMSS: 20191119_160111.228
DATA_LICENSE: CC-BY3_0-IT (http://creativecommons.org/licenses/by/3.0/deed.en)
DATA_CITATION: Luzi L, Puglia R, Russo E & ORFEUS WG5 (2016). Engineering Strong Motion Database. Istituto Nazionale di Geofisica e Vulcanologia, Observatories & Research Facilities for European Seismology. doi: 10.13127/ESM
DATA_CREATOR: ESM working group
ORIGINAL_DATA_MEDIATOR_CITATION: Ufficio Rischio Sismico e Vulcanico del Dipartimento della Protezione Civile (http://www.protezionecivile.gov.it/)
ORIGINAL_DATA_MEDIATOR: http://www.mot1.it/randownload/
ORIGINAL_DATA_CREATOR_CITATION: Italian Strong Motion Network, Italian Civil Protection Department http://www.protezionecivile.gov.it
ORIGINAL_DATA_CREATOR: network: IT (Italian Strong Motion Network); owner: Dipartimento Della Protezione Civile
USER1: /home/dyna/processing-itaca/processing.py /var/www/processing//tmp/rodolfo//IT.MTR..HGE.D.20160824.013632.X.ACC.ASC /var/www/processing//tmp/rodolfo//IT.MTR..HGN.D.20160824.013632.X.ACC.ASC /var/www/processing//tmp/rodolfo//IT.MTR..HGZ.D.20160824.013632.X.ACC.ASC --tmp /var/www/processing//tmp/rodolfo/ --le 0.050 --he 15 --ln 0.050 --hn 15 --lz 0.050 --hz 15 --fo 2 --ca 0 --cz 58.2 --ta 5 --tz 5 --mf 1 --rf 0.020 --tr NT
USER2: 
USER3: 
USER4: 
USER5: 
# -------- CONVERTED TO g (MULTIPLIER FACTOR 0.0010197) ----------
 0.00000
 0.00001
 0.00002
 0.00002
 0.00002
 0.00002
 0.00002
 0.00002
 0.00002
 0.00002
 0.00002
 0.00002
 0.00002
 0.00002
 0.00002
 0.00002
 0.00002
 0.00002
 0.00002
 0.00002
 0.00002
 0.00002
 0.00002
 0.00002
 0.00002
 0.00002
 0.00002
 0.00002
 0.00002
 0.00002
 0.00002
 0.00002
 0.00002
 0.00002
 0.00002
 0.00002
 0.00002
 0.00002
 0.00002
 0.00002
 0.00002
 0.00002
 0.00002
 0.00002
 0.00002
 0.00003
 0.00003
 0.00003
 0.00003
 0.00003
 0.00003
 0.00003
 0.00003
 0.00003
 0.00003
 0.00003
 0.00003
 0.00003
 0.00003
 0.00003
 0.00003
 0.00003
 0.00003
 0.00003
 0.00003
 0.00004
 0.00004
 0.00004
 0.00004
 0.00004
 0.00003
 0.00003
 0.00003
 0.00003
 0.00003
 0.00003
 0.00003
 0.00003
 0.00003
 0.00003
 0.00003
 0.00003
 0.00003
 0.00003
 0.00003
 0.00002
 0.00002
 0.00002
 0.00002
 0.00002
 0.00001
 0.00001
 0.00001
 0.00001
 0.00001
 0.00000
 0.00000
 0.00000
-0.00000
-0.00001
-0.00001
-0.00001
-0.00001
-0.00002
-0.00002
-0.00002
-0.00002
-0.00003
-0.00003
-0.00004
-0.00004
-0.00004
-0.00004
-0.00002
 0.00001
 0.00001
 0.00001
 0.00001
 0.00001
 0.00001
 0.00001
 0.00001
 0.00001
 0.00001
 0.00001
 0.00001
 0.00001
 0.00001
 0.00001
 0.00001
 0.00001
 0.00001
 0.00001
 0.00001
 0.00001
 0.00001
 0.00001
 0.00001
 0.00001
 0.00001
 0.00001
 0.00001
 0.00001
 0.00001
 0.00001
 0.00001
 0.00001
 0.00001
 0.00001
 0.00001
 0.00001
 0.00001
 0.00001
 0.00001
 0.00001
 0.00001
 0.00001
 0.00001
 0.00001
 0.00001
 0.00001
 0.00001
 0.00001
 0.00001
 0.00001
 0.00001
 0.00001
 0.00001
 0.00001
 0.00001
 0.00001
 0.00001
 0.00001
 0.00001
 0.00001
 0.00001
 0.00001
 0.00001
 0.00001
 0.00001
 0.00001
 0.00001
 0.00001
 0.00001
 0.00001
 0.00001
 0.00001
 0.00001
 0.00001
 0.00001
 0.00001
 0.00001
 0.00001
 0.00001
 0.00001
 0.00001
 0.00001
 0.00001
 0.00001
 0.00001
 0.00001
 0.00001
 0.00001
 0.00001
 0.00001
 0.00001
 0.00001
 0.00001
 0.00001
 0.00001
 0.00001
 0.00001
 0.00001
 0.00001
 0.00001
 0.00001
 0.00001
 0.00001
 0.00001
 0.00001
 0.00001
 0.00001
 0.00001
 0.00001
 0.00001
 0.00001
 0.00001
 0.00001
 0.00001
 0.00001
 0.00001
 0.00001
 0.00001
 0.00001
 0.00001
 0.00001
 0.00001
 0.00001
 0.00001
 0.00001
 0.00001
 0.00001
 0.00001
 0.00001
 0.00001
 0.00001
 0.00001
 0.00001
 0.00001
 0.00001
 0.00001
 0.00001
 0.00001
 0.00001
 0.00001
 0.00001
 0.00001
 0.00001
 0.00001
 0.00001
 0.00001
 0.00001
 0.00000
 0.00001
 0.00001
 0.00000
 0.00000
 0.00000
 0.00001
 0.00001
 0.00001
 0.00001
 0.00000
 0.00001
 0.00001
 0.00000
 0.00000
 0.00001
 0.00001
 0.00001
 0.00001
 0.00001
 0.00001
 0.00000
 0.00000
 0.00000
 0.00000
 0.00000
 0.00001
 0.00002
 0.00001
-0.00001
-0.00001
 0.00004
 0.00006
-0.00001
-0.00009
-0.00006
 0.00007
 0.00007
-0.00012
-0.00019
 0.00009
 0.00028
-0.00001
-0.00030
-0.00010
 0.00022
 0.00024
 0.00004
-0.00019
-0.00025
-0.00002
 0.00019
 0.00020
 0.00020
 0.00003
-0.00025
-0.00011
 0.00026
 0.00025
 0.00009
 0.00021
 0.00034
-0.00017
-0.00075
-0.00017
 0.00054
-0.00003
-0.00065
-0.00050
-0.00047
-0.00051
-0.00039
-0.00030
 0.00000
-0.00002
-0.00077
-0.00093
-0.00031
-0.00044
-0.00112
-0.00098
-0.00061
-0.00115
-0.00172
-0.00129
-0.00100
-0.00093
 0.00034
 0.00100
-0.00088
-0.00302
-0.00380
-0.00257
 0.00149
 0.00351
-0.00130
-0.00676
-0.00580
-0.00159
 0.00101
 0.00175
 0.00049
-0.00274
-0.00610
-0.00744
-0.00476
 0.00057
 0.00280
-0.00041
-0.00425
-0.00371
 0.00087
 0.00524
 0.00597
 0.00382
 0.00211
 0.00216
 0.00138
-0.00113
-0.00094
 0.00094
-0.00187
-0.00314
 0.00290
 0.00274
-0.00571
-0.00476
 0.00331
 0.00471
 0.00370
 0.00313
-0.00047
-0.00084
 0.00104
-0.00246
-0.00344
 0.00218
 0.00289
-0.00168
-0.00300
-0.00231
-0.00068
 0.00510
 0.00997
 0.00611
-0.00181
-0.00425
-0.00165
 0.00066
-0.00015
-0.00340
-0.00366
-0.00081
-0.00219
-0.00588
-0.00398
 0.00233
 0.00773
 0.00558
-0.00560
-0.00917
 0.00288
 0.00982
 0.00160
-0.00729
-0.00872
-0.00444
 0.00102
 0.00033
-0.00484
-0.00587
-0.00055
 0.00762
 0.01009
 0.00018
-0.01096
-0.00767
 0.00379
 0.00611
-0.00082
-0.00180
 0.00493
 0.00233
-0.00743
-0.00007
 0.01550
 0.00963
-0.00149
 0.00544
 0.00723
-0.00233
 0.00149
 0.00536
-0.00861
-0.01221
 0.00193
-0.00048
-0.01371
-0.00225
 0.01302
-0.00107
-0.01136
 0.00345
 0.00558
-0.00608
-0.00019
 0.00557
-0.00286
 0.00431
 0.01977
 0.00777
-0.00806
 0.00408
 0.01107
-0.00354
-0.00308
 0.00967
 0.00233
-0.00919
-0.00542
-0.00725
-0.01722
-0.01170
 0.00045
-0.00292
-0.00609
 0.00419
 0.00528
-0.00212
 0.00787
 0.02243
 0.02158
 0.01993
 0.02341
 0.02577
 0.03208
 0.03686
 0.03114
 0.02279
 0.02004
 0.02552
 0.03478
 0.03774
 0.03966
 0.04544
 0.03634
 0.00615
-0.02187
-0.03526
-0.04211
-0.04489
-0.04388
-0.04827
-0.05248
-0.03766
-0.01804
-0.02369
-0.03568
-0.01872
 0.00893
 0.01637
 0.01608
 0.01855
 0.00491
-0.02153
-0.03737
-0.04134
-0.02773
 0.00910
 0.02433
-0.00428
-0.01530
 0.01172
 0.01688
-0.00193
 0.00400
 0.01857
 0.01212
 0.01337
 0.03548
 0.04771
 0.04215
 0.03044
 0.01038
-0.00826
-0.00686
 0.00315
 0.00230
-0.00144
-0.00133
-0.01243
-0.03307
-0.03756
-0.02832
-0.03597
-0.05836
-0.05853
-0.02555
 0.00468
 0.00094
-0.01434
-0.00442
 0.01442
 0.00958
 0.00226
 0.02024
 0.03462
 0.02383
 0.01617
 0.01238
-0.00968
-0.01361
 0.02289
 0.03784
 0.00692
-0.01585
-0.01264
-0.00486
 0.00719
 0.02336
 0.02712
 0.01171
 0.00119
 0.01378
 0.00910
-0.03803
-0.06961
-0.05517
-0.04114
-0.04346
-0.03248
-0.00612
 0.01348
 0.02184
 0.02475
 0.01553
 0.00103
 0.00261
 0.00089
-0.02295
-0.02798
-0.00767
-0.00838
-0.01413
 0.00581
 0.01362
-0.00126
 0.00102
 0.01242
-0.00131
-0.02811
-0.03515
-0.02417
-0.02900
-0.05010
-0.04144
-0.00695
-0.00618
-0.03076
-0.02304
-0.00127
-0.00985
-0.01709
 0.00966
 0.03062
 0.01253
-0.01735
-0.02465
-0.01003
 0.00587
 0.01184
 0.01625
 0.03055
 0.04866
 0.05328
 0.04419
 0.03740
 0.03289
 0.02357
 0.02275
 0.03679
 0.04496
 0.03580
 0.02344
 0.02082
 0.02112
 0.01126
-0.00055
 0.00284
 0.00922
 0.00051
-0.00726
-0.00297
-0.00482
-0.00980
-0.00045
 0.00513
-0.00465
-0.00196
 0.01437
 0.01334
-0.00109
-0.00681
-0.00803
-0.00881
-0.00023
 0.00864
 0.00185
-0.00622
 0.00334
 0.01142
-0.00218
-0.01649
-0.00996
 0.00006
-0.01034
-0.02803
-0.02375
-0.00781
-0.00602
-0.00202
 0.01412
 0.01207
-0.00293
 0.00345
 0.01584
 0.00787
-0.00187
 0.00552
 0.01700
 0.01551
 0.00696
 0.00965
 0.01717
 0.01037
 0.00212
 0.00772
 0.00786
-0.00360
-0.00360
 0.00652
 0.00568
-0.00278
-0.00644
-0.00859
-0.00883
-0.00131
 0.00323
-0.00341
-0.00622
-0.00013
-0.00249
-0.01479
-0.01877
-0.00869
 0.00498
 0.01386
 0.01930
 0.02508
 0.02762
 0.02117
 0.01003
 0.00558
 0.01104
 0.01622
 0.01220
 0.00500
 0.00443
 0.00540
-0.00209
-0.01077
-0.00878
-0.00329
-0.00302
-0.00214
-0.00182
-0.00828
-0.01193
-0.00955
-0.01326
-0.01779
-0.01513
-0.02003
-0.03095
-0.02593
-0.01337
-0.01454
-0.02133
-0.02247
-0.01981
-0.01126
-0.00438
-0.00944
-0.00889
 0.00557
 0.00650
-0.01010
-0.01427
-0.00580
-0.01017
-0.02167
-0.01524
 0.00033
-0.00036
-0.00610
 0.00348
 0.01099
 0.00262
-0.00264
-0.00015
-0.00402
-0.00772
-0.00396
-0.00753
-0.01800
-0.01449
-0.00367
-0.00879
-0.01763
-0.00926
-0.00133
-0.00881
-0.01268
-0.00887
-0.01063
-0.00494
 0.01241
 0.01322
 0.00183
 0.00876
 0.02050
 0.01671
 0.01919
 0.03337
 0.03187
 0.01725
 0.01119
 0.00909
 0.00626
 0.01113
 0.01519
 0.00910
 0.00578
 0.01078
 0.01062
 0.00174
-0.00264
 0.00308
 0.00731
 0.00284
-0.00352
-0.00941
-0.01544
-0.01182
 0.00098
 0.00302
-0.00897
-0.01386
-0.00483
 0.00332
 0.00313
-0.00013
-0.00355
-0.00657
-0.00456
 0.00427
 0.01243
 0.01235
 0.00735
 0.00648
 0.01040
 0.01151
 0.00851
 0.00513
 0.00231
 0.00668
 0.02079
 0.02650
 0.01625
 0.00991
 0.01054
 0.00138
-0.00875
-0.00094
 0.01354
 0.01574
 0.00914
 0.00395
 0.00052
-0.00424
-0.00785
-0.00545
-0.00098
-0.00012
 0.00230
 0.00562
 0.00025
-0.00692
-0.00545
-0.00241
 0.00023
 0.00486
-0.00071
-0.01586
-0.01927
-0.00899
-0.00345
-0.00742
-0.00786
 0.00168
 0.00357
-0.01562
-0.02883
-0.01193
 0.00697
-0.00032
-0.01612
-0.01799
-0.00916
-0.00441
-0.01125
-0.01536
-0.00372
 0.00469
-0.00388
-0.01098
-0.01051
-0.01344
-0.01296
-0.00662
-0.00879
-0.01471
-0.00838
 0.00323
 0.00097
-0.01521
-0.02108
-0.00705
 0.00151
-0.00509
-0.00681
-0.00234
-0.00164
 0.00025
 0.00336
 0.00614
 0.01586
 0.02635
 0.02566
 0.01844
 0.00928
-0.00207
-0.00410
 0.00577
 0.00997
 0.00829
 0.01207
 0.01032
 0.00252
 0.00907
 0.01739
 0.00514
-0.00285
 0.01273
 0.01898
 0.00023
-0.00853
 0.00511
 0.01014
 0.00108
 0.00468
 0.01823
 0.01598
 0.00245
 0.00123
 0.01090
 0.01123
-0.00101
-0.00810
-0.00197
 0.00278
-0.00303
-0.00633
-0.00087
-0.00169
-0.01124
-0.01257
-0.00653
-0.00595
-0.00539
-0.00168
-0.00582
-0.01225
-0.00668
 0.00239
 0.00153
-0.00329
-0.00387
-0.00218
 0.00104
 0.00674
 0.01126
 0.01084
 0.00558
 0.00012
-0.00113
-0.00115
-0.00231
-0.00151
-0.00097
-0.00310
-0.00195
 0.00251
 0.00132
-0.00521
-0.00715
-0.00135
 0.00388
 0.00125
-0.00382
-0.00528
-0.00808
-0.00919
 0.00012
 0.00687
 0.00120
-0.00035
 0.00404
 0.00032
-0.00215
 0.00359
 0.00242
-0.00370
 0.00048
 0.00859
 0.00812
 0.00264
 0.00023
 0.00254
 0.00443
-0.00118
-0.00930
-0.00666
 0.00354
 0.00657
 0.00270
 0.00067
 0.00066
 0.00094
 0.00358
 0.00904
 0.01228
 0.00869
 0.00553
 0.01084
 0.01391
 0.00538
-0.00062
 0.00587
 0.01018
 0.00338
-0.00238
-0.00184
-0.00333
-0.00714
-0.00678
-0.00212
 0.00256
 0.00341
 0.00045
-0.00285
-0.00683
-0.01194
-0.01259
-0.00712
-0.00319
-0.00591
-0.01003
-0.00914
-0.00704
-0.00851
-0.00821
-0.00633
-0.01165
-0.01735
-0.01116
-0.00343
-0.00533
-0.00581
-0.00031
-0.00243
-0.01037
-0.00703
 0.00266
 0.00024
-0.00884
-0.00737
 0.00097
 0.00286
-0.00125
-0.00506
-0.00725
-0.00584
-0.00078
 0.00106
-0.00073
 0.00159
 0.00530
 0.00404
 0.00439
 0.00886
 0.00844
 0.00424
 0.00469
 0.00748
 0.00706
 0.00525
 0.00494
 0.00374
 0.00002
 0.00022
 0.00593
 0.00593
 0.00041
 0.00146
 0.00244
-0.00427
-0.00251
 0.00869
 0.00586
-0.00667
-0.00466
 0.00506
 0.00383
-0.00160
-0.00150
-0.00078
-0.00103
 0.00050
 0.00164
 0.00169
 0.00236
 0.00265
 0.00180
 0.00083
 0.00089
 0.00255
 0.00393
 0.00196
-0.00310
-0.00589
-0.00140
 0.00517
 0.00338
-0.00363
-0.00320
 0.00282
 0.00203
-0.00302
-0.00094
 0.00397
 0.00327
 0.00296
 0.00514
 0.00198
-0.00150
 0.00215
 0.00231
-0.00527
-0.00576
 0.00211
 0.00114
-0.00812
-0.00710
 0.00270
 0.00283
-0.00398
-0.00183
 0.00401
 0.00241
 0.00100
 0.00359
 0.00123
-0.00219
 0.00156
 0.00331
-0.00154
-0.00132
 0.00338
 0.00046
-0.00388
 0.00131
 0.00443
-0.00308
-0.00622
-0.00013
 0.00094
-0.00205
 0.00268
 0.00849
 0.00514
 0.00108
 0.00388
 0.00529
 0.00165
 0.00092
 0.00365
 0.00326
 0.00160
 0.00398
 0.00619
 0.00190
-0.00324
-0.00022
 0.00525
 0.00303
-0.00203
-0.00183
 0.00072
 0.00270
 0.00432
 0.00284
-0.00041
-0.00165
-0.00399
-0.00728
-0.00503
-0.00016
-0.00053
-0.00373
-0.00421
-0.00248
-0.00050
 0.00037
-0.00101
-0.00307
-0.00337
-0.00209
-0.00118
-0.00212
-0.00392
-0.00443
-0.00433
-0.00538
-0.00581
-0.00381
-0.00218
-0.00316
-0.00433
-0.00426
-0.00378
-0.00182
-0.00040
-0.00443
-0.00874
-0.00467
 0.00155
 0.00004
-0.00327
 0.00048
 0.00524
 0.00266
-0.00050
 0.00385
 0.00815
 0.00576
 0.00343
 0.00458
 0.00487
 0.00379
 0.00330
 0.00393
 0.00439
 0.00196
 0.00013
 0.00391
 0.00632
 0.00142
-0.00249
-0.00126
-0.00129
-0.00234
-0.00051
 0.00048
-0.00079
 0.00002
 0.00130
 0.00003
 0.00056
 0.00304
 0.00141
-0.00143
 0.00037
 0.00163
-0.00126
-0.00206
 0.00022
-0.00059
-0.00437
-0.00606
-0.00528
-0.00479
-0.00454
-0.00334
-0.00193
-0.00013
 0.00239
 0.00225
-0.00048
 0.00050
 0.00375
 0.00157
-0.00251
-0.00093
 0.00149
-0.00126
-0.00365
-0.00104
 0.00160
 0.00078
-0.00039
-0.00044
-0.00037
 0.00027
-0.00010
-0.00351
-0.00568
-0.00322
-0.00116
-0.00184
-0.00026
 0.00276
 0.00202
 0.00086
 0.00321
 0.00401
 0.00194
 0.00322
 0.00676
 0.00682
 0.00602
 0.00718
 0.00555
 0.00125
 0.00105
 0.00381
 0.00353
 0.00249
 0.00460
 0.00623
 0.00534
 0.00514
 0.00489
 0.00293
 0.00309
 0.00457
 0.00133
-0.00293
-0.00221
-0.00223
-0.00610
-0.00679
-0.00450
-0.00584
-0.00829
-0.00727
-0.00638
-0.00744
-0.00651
-0.00378
-0.00212
-0.00065
-0.00028
-0.00335
-0.00602
-0.00486
-0.00305
-0.00232
-0.00245
-0.00460
-0.00594
-0.00348
-0.00089
-0.00031
 0.00034
 0.00002
-0.00183
-0.00173
 0.00022
 0.00084
 0.00170
 0.00412
 0.00414
 0.00167
 0.00159
 0.00328
 0.00293
 0.00134
 0.00036
-0.00001
 0.00116
 0.00352
 0.00392
 0.00209
 0.00153
 0.00300
 0.00405
 0.00395
 0.00330
 0.00289
 0.00379
 0.00420
 0.00151
-0.00121
-0.00038
 0.00103
 0.00009
-0.00106
-0.00078
 0.00064
 0.00269
 0.00258
-0.00063
-0.00190
 0.00052
 0.00131
-0.00063
-0.00145
-0.00193
-0.00454
-0.00651
-0.00588
-0.00539
-0.00532
-0.00373
-0.00263
-0.00328
-0.00299
-0.00210
-0.00299
-0.00382
-0.00253
-0.00079
-0.00004
 0.00037
 0.00100
 0.00102
-0.00025
-0.00104
 0.00013
 0.00110
 0.00059
 0.00067
 0.00119
-0.00002
-0.00147
-0.00065
 0.00065
 0.00038
 0.00049
 0.00219
 0.00294
 0.00182
 0.00128
 0.00178
 0.00162
 0.00077
-0.00023
-0.00079
 0.00029
 0.00160
 0.00092
 0.00028
 0.00173
 0.00311
 0.00327
 0.00364
 0.00401
 0.00391
 0.00417
 0.00388
 0.00226
 0.00174
 0.00291
 0.00271
 0.00081
-0.00027
-0.00035
-0.00019
 0.00077
 0.00195
 0.00208
 0.00235
 0.00443
 0.00617
 0.00430
 0.00093
 0.00084
 0.00318
 0.00361
 0.00224
 0.00204
 0.00321
 0.00377
 0.00274
 0.00123
 0.00042
-0.00049
-0.00149
-0.00079
 0.00091
 0.00099
-0.00008
-0.00041
-0.00082
-0.00206
-0.00163
 0.00085
 0.00099
-0.00197
-0.00334
-0.00238
-0.00186
-0.00141
-0.00091
-0.00203
-0.00297
-0.00226
-0.00306
-0.00545
-0.00491
-0.00220
-0.00217
-0.00399
-0.00381
-0.00199
-0.00046
 0.00009
-0.00104
-0.00344
-0.00536
-0.00560
-0.00441
-0.00394
-0.00516
-0.00492
-0.00219
-0.00139
-0.00408
-0.00593
-0.00464
-0.00303
-0.00284
-0.00184
 0.00061
 0.00150
 0.00013
-0.00064
-0.00015
-0.00004
-0.00039
-0.00084
-0.00202
-0.00296
-0.00173
 0.00059
 0.00115
 0.00009
-0.00042
-0.00005
 0.00091
 0.00361
 0.00676
 0.00681
 0.00450
 0.00329
 0.00320
 0.00284
 0.00227
 0.00191
 0.00206
 0.00189
 0.00096
 0.00099
 0.00160
 0.00101
 0.00051
 0.00060
-0.00024
-0.00116
-0.00159
-0.00219
-0.00181
-0.00072
-0.00048
 0.00031
 0.00157
 0.00085
 0.00018
 0.00131
 0.00050
-0.00190
-0.00108
 0.00106
 0.00062
 0.00036
 0.00170
 0.00096
-0.00119
-0.00046
 0.00167
 0.00090
-0.00113
-0.00009
 0.00221
 0.00164
 0.00036
 0.00115
 0.00107
-0.00028
 0.00053
 0.00165
 0.00080
 0.00136
 0.00342
 0.00259
-0.00002
-0.00041
 0.00058
 0.00074
 0.00061
 0.00086
 0.00097
 0.00040
-0.00083
-0.00123
 0.00060
 0.00223
 0.00110
-0.00004
 0.00069
 0.00002
-0.00246
-0.00312
-0.00185
-0.00062
 0.00087
 0.00186
 0.00069
-0.00084
-0.00062
-0.00037
-0.00141
-0.00193
-0.00114
-0.00060
-0.00096
-0.00142
-0.00139
-0.00071
 0.00015
 0.00021
-0.00041
-0.00054
 0.00009
 0.00107
 0.00212
 0.00232
 0.00137
 0.00103
 0.00119
-0.00036
-0.00186
-0.00041
 0.00087
-0.00142
-0.00390
-0.00310
-0.00139
-0.00088
-0.00008
 0.00112
 0.00130
 0.00118
 0.00132
 0.00056
-0.00002
 0.00169
 0.00337
 0.00213
 0.00056
 0.00130
 0.00162
-0.00017
-0.00145
-0.00135
-0.00109
-0.00028
 0.00045
-0.00045
-0.00187
-0.00269
-0.00288
-0.00174
-0.00049
-0.00111
-0.00186
-0.00128
-0.00102
-0.00174
-0.00237
-0.00224
-0.00127
-0.00010
 0.00057
 0.00077
 0.00106
 0.00197
 0.00277
 0.00264
 0.00318
 0.00467
 0.00349
-0.00035
-0.00092
 0.00250
 0.00332
 0.00108
 0.00181
 0.00357
 0.00066
-0.00216
 0.00018
 0.00141
-0.00103
-0.00085
 0.00038
-0.00254
-0.00411
-0.00099
-0.00053
-0.00311
-0.00149
 0.00126
-0.00108
-0.00336
-0.00129
-0.00036
-0.00202
-0.00140
 0.00066
 0.00061
 0.00060
 0.00223
 0.00229
 0.00080
 0.00151
 0.00333
 0.00225
-0.00048
-0.00105
 0.00008
-0.00020
-0.00213
-0.00279
-0.00152
-0.00093
-0.00134
-0.00077
 0.00010
-0.00017
-0.00047
 0.00035
 0.00141
 0.00144
 0.00056
-0.00006
-0.00035
-0.00119
-0.00169
-0.00045
 0.00096
 0.00055
-0.00004
 0.00104
 0.00196
 0.00107
 0.00019
 0.00051
 0.00063
 0.00027
 0.00026
-0.00023
-0.00165
-0.00225
-0.00134
-0.00050
-0.00094
-0.00176
-0.00141
-0.00066
-0.00071
-0.00035
 0.00053
-0.00006
-0.00113
-0.00060
-0.00004
-0.00051
-0.00023
 0.00043
-0.00007
-0.00053
-0.00018
-0.00031
-0.00068
-0.00031
 0.00032
 0.00083
 0.00090
 0.00012
 0.00001
 0.00123
 0.00138
 0.00057
 0.00157
 0.00294
 0.00185
 0.00040
 0.00086
 0.00126
 0.00087
 0.00190
 0.00363
 0.00321
 0.00155
 0.00136
 0.00180
 0.00116
 0.00071
 0.00132
 0.00144
 0.00056
-0.00023
-0.00061
-0.00065
-0.00051
-0.00083
-0.00124
-0.00081
 0.00006
 0.00042
 0.00008
-0.00058
-0.00108
-0.00133
-0.00137
-0.00088
-0.00058
-0.00158
-0.00286
-0.00318
-0.00313
-0.00287
-0.00205
-0.00159
-0.00181
-0.00180
-0.00179
-0.00218
-0.00210
-0.00140
-0.00059
 0.00015
 0.00006
-0.00090
-0.00120
-0.00082
-0.00112
-0.00156
-0.00124
-0.00132
-0.00227
-0.00260
-0.00189
-0.00122
-0.00086
-0.00045
-0.00042
-0.00087
-0.00098
-0.00047
 0.00021
 0.00079
 0.00081
 0.00022
-0.00003
 0.00014
-0.00011
-0.00034
 0.00029
 0.00119
 0.00157
 0.00151
 0.00151
 0.00190
 0.00221
 0.00188
 0.00195
 0.00321
 0.00422
 0.00423
 0.00436
 0.00451
 0.00368
 0.00270
 0.00249
 0.00234
 0.00209
 0.00229
 0.00243
 0.00214
 0.00209
 0.00203
 0.00097
-0.00039
-0.00082
-0.00093
-0.00156
-0.00173
-0.00086
-0.00034
-0.00085
-0.00110
-0.00063
-0.00035
-0.00056
-0.00083
-0.00088
-0.00068
-0.00024
 0.00032
 0.00079
 0.00100
 0.00104
 0.00106
 0.00115
 0.00134
 0.00099
-0.00040
