EVENT_NAME: CENTRAL_ITALY
EVENT_ID: EMSC-20160824_0000006
EVENT_DATE_YYYYMMDD: 20160824
EVENT_TIME_HHMMSS: 013632
EVENT_LATITUDE_DEGREE: 42.6983
EVENT_LONGITUDE_DEGREE: 13.2335
EVENT_DEPTH_KM: 8.1
HYPOCENTER_REFERENCE: INGV-CNT_Seismic_Bulletin
MAGNITUDE_W: 6.0
MAGNITUDE_W_REFERENCE: INGV-webservice
MAGNITUDE_L: 6.0
MAGNITUDE_L_REFERENCE: INGV-CNT_Seismic_Bulletin
FOCAL_MECHANISM: NF
NETWORK: IT
STATION_CODE: MTR
STATION_NAME: MONTEREALE
STATION_LATITUDE_DEGREE: 42.524021
STATION_LONGITUDE_DEGREE: 13.244796
STATION_ELEVATION_M: 975
LOCATION: 
SENSOR_DEPTH_M: 0.0
VS30_M/S: 
SITE_CLASSIFICATION_EC8: B*
MORPHOLOGIC_CLASSIFICATION: R
EPICENTRAL_DISTANCE_KM: 19.4
EARTHQUAKE_BACKAZIMUTH_DEGREE: 357.3
DATE_TIME_FIRST_SAMPLE_YYYYMMDD_HHMMSS: 20160824_013630.795
DATE_TIME_FIRST_SAMPLE_PRECISION: milliseconds
SAMPLING_INTERVAL_S: 0.020000
NDATA: 2250
DURATION_S: 45.000
STREAM: HGZ
UNITS: cm/s^2
INSTRUMENT: sensor = Unknown [Unknown] | digitizer = Unknown [Unknown]
INSTRUMENT_ANALOG/DIGITAL: D
INSTRUMENTAL_FREQUENCY_HZ: 
INSTRUMENTAL_DAMPING: 
FULL_SCALE_G: 
N_BIT_DIGITAL_CONVERTER: 
PGA_CM/S^2: 33.383650
TIME_PGA_S: 9.900000
BASELINE_CORRECTION: BASELINE REMOVED
FILTER_TYPE: BUTTERWORTH
FILTER_ORDER: 2
LOW_CUT_FREQUENCY_HZ: 0.050
HIGH_CUT_FREQUENCY_HZ: 15.000
LATE/NORMAL_TRIGGERED: NT
DATABASE_VERSION: DYNA 1.0
HEADER_FORMAT: DYNA 1.2
DATA_TYPE: ACCELERATION
PROCESSING: manual (Paolucci et al., 2011)
DATA_TIMESTAMP_YYYYMMDD_HHMMSS: 20191119_160111.228
DATA_LICENSE: CC-BY3_0-IT (http://creativecommons.org/licenses/by/3.0/deed.en)
DATA_CITATION: Luzi L, Puglia R, Russo E & ORFEUS WG5 (2016). Engineering Strong Motion Database. Istituto Nazionale di Geofisica e Vulcanologia, Observatories & Research Facilities for European Seismology. doi: 10.13127/ESM
DATA_CREATOR: ESM working group
ORIGINAL_DATA_MEDIATOR_CITATION: Ufficio Rischio Sismico e Vulcanico del Dipartimento della Protezione Civile (http://www.protezionecivile.gov.it/)
ORIGINAL_DATA_MEDIATOR: http://www.mot1.it/randownload/
ORIGINAL_DATA_CREATOR_CITATION: Italian Strong Motion Network, Italian Civil Protection Department http://www.protezionecivile.gov.it
ORIGINAL_DATA_CREATOR: network: IT (Italian Strong Motion Network); owner: Dipartimento Della Protezione Civile
USER1: /home/dyna/processing-itaca/processing.py /var/www/processing//tmp/rodolfo//IT.MTR..HGE.D.20160824.013632.X.ACC.ASC /var/www/processing//tmp/rodolfo//IT.MTR..HGN.D.20160824.013632.X.ACC.ASC /var/www/processing//tmp/rodolfo//IT.MTR..HGZ.D.20160824.013632.X.ACC.ASC --tmp /var/www/processing//tmp/rodolfo/ --le 0.050 --he 15 --ln 0.050 --hn 15 --lz 0.050 --hz 15 --fo 2 --ca 0 --cz 58.2 --ta 5 --tz 5 --mf 1 --rf 0.020 --tr NT
USER2: 
USER3: 
USER4: 
USER5: 
# -------- CONVERTED TO g (MULTIPLIER FACTOR 0.0010197) ----------
 0.00000
-0.00001
-0.00002
-0.00002
-0.00002
-0.00002
-0.00002
-0.00002
-0.00002
-0.00002
-0.00002
-0.00002
-0.00002
-0.00002
-0.00002
-0.00002
-0.00002
-0.00002
-0.00002
-0.00002
-0.00002
-0.00002
-0.00002
-0.00002
-0.00002
-0.00002
-0.00002
-0.00002
-0.00002
-0.00002
-0.00002
-0.00002
-0.00002
-0.00002
-0.00002
-0.00001
-0.00001
-0.00001
-0.00001
-0.00001
-0.00001
-0.00001
-0.00001
-0.00001
-0.00001
-0.00001
-0.00001
-0.00001
-0.00001
-0.00001
-0.00001
-0.00001
-0.00001
-0.00001
-0.00001
-0.00001
-0.00000
-0.00000
-0.00000
-0.00000
-0.00000
-0.00000
-0.00000
 0.00000
 0.00000
 0.00000
 0.00000
 0.00000
 0.00000
 0.00000
 0.00000
 0.00000
 0.00001
 0.00001
 0.00001
 0.00001
 0.00001
 0.00001
 0.00001
 0.00001
 0.00001
 0.00001
 0.00001
 0.00001
 0.00002
 0.00002
 0.00002
 0.00002
 0.00002
 0.00002
 0.00002
 0.00002
 0.00002
 0.00002
 0.00002
 0.00002
 0.00002
 0.00002
 0.00002
 0.00002
 0.00002
 0.00002
 0.00002
 0.00002
 0.00003
 0.00003
 0.00003
 0.00003
 0.00003
 0.00003
 0.00003
 0.00003
 0.00003
 0.00001
 0.00000
 0.00000
 0.00000
 0.00000
 0.00000
 0.00000
 0.00000
 0.00000
 0.00000
 0.00000
-0.00000
 0.00000
 0.00000
 0.00000
 0.00000
 0.00000
 0.00000
 0.00000
 0.00000
 0.00000
 0.00000
 0.00000
 0.00001
 0.00000
 0.00000
-0.00000
 0.00000
 0.00000
 0.00000
 0.00000
 0.00000
 0.00000
 0.00000
 0.00000
 0.00000
 0.00000
 0.00000
 0.00000
 0.00000
 0.00000
 0.00000
 0.00000
 0.00000
 0.00000
 0.00000
 0.00000
 0.00000
 0.00000
 0.00000
-0.00000
 0.00000
 0.00000
 0.00000
 0.00000
 0.00000
 0.00000
 0.00000
 0.00000
 0.00000
 0.00000
 0.00000
 0.00000
 0.00000
 0.00000
 0.00000
 0.00000
-0.00000
 0.00000
 0.00000
 0.00000
 0.00000
 0.00000
-0.00000
-0.00000
-0.00000
-0.00000
-0.00000
-0.00000
-0.00000
 0.00000
 0.00000
 0.00000
 0.00000
-0.00000
-0.00000
-0.00000
 0.00000
 0.00000
-0.00000
-0.00000
 0.00000
 0.00000
 0.00000
 0.00000
 0.00000
 0.00000
 0.00000
 0.00000
 0.00000
 0.00000
 0.00000
-0.00000
 0.00000
 0.00000
 0.00000
 0.00000
 0.00000
 0.00000
 0.00000
 0.00000
 0.00000
 0.00000
-0.00000
-0.00000
 0.00000
 0.00000
 0.00000
 0.00000
 0.00000
-0.00000
-0.00000
-0.00000
 0.00000
 0.00000
-0.00000
-0.00000
 0.00000
 0.00000
 0.00000
-0.00000
-0.00000
 0.00000
 0.00000
-0.00000
 0.00000
 0.00000
 0.00000
 0.00000
 0.00000
-0.00000
-0.00000
-0.00000
-0.00000
-0.00000
 0.00000
 0.00000
 0.00000
 0.00000
 0.00000
 0.00000
 0.00000
-0.00000
-0.00000
 0.00000
 0.00000
 0.00000
 0.00000
 0.00000
 0.00000
 0.00000
 0.00000
-0.00000
-0.00000
-0.00000
-0.00000
-0.00000
-0.00000
-0.00000
 0.00000
 0.00000
 0.00000
-0.00000
-0.00000
-0.00001
-0.00002
-0.00002
 0.00000
 0.00002
-0.00001
-0.00006
-0.00004
 0.00007
 0.00012
 0.00001
-0.00008
 0.00004
 0.00022
 0.00009
-0.00026
-0.00026
 0.00014
 0.00029
-0.00003
-0.00032
-0.00021
 0.00011
 0.00027
 0.00016
-0.00006
-0.00026
-0.00038
-0.00022
 0.00014
 0.00012
-0.00027
-0.00032
 0.00005
 0.00007
-0.00042
-0.00049
 0.00032
 0.00079
 0.00021
-0.00012
 0.00050
 0.00096
 0.00070
 0.00048
 0.00065
 0.00056
 0.00002
-0.00004
 0.00064
 0.00080
 0.00027
 0.00047
 0.00145
 0.00165
 0.00092
 0.00080
 0.00150
 0.00154
 0.00085
 0.00048
-0.00023
-0.00175
-0.00187
 0.00092
 0.00438
 0.00482
 0.00130
-0.00252
-0.00193
 0.00258
 0.00538
 0.00310
-0.00114
-0.00240
-0.00037
 0.00175
 0.00312
 0.00510
 0.00635
 0.00430
 0.00069
-0.00088
-0.00086
-0.00225
-0.00640
-0.01089
-0.01114
-0.00721
-0.00486
-0.00574
-0.00461
-0.00022
 0.00176
 0.00073
 0.00245
 0.00406
-0.00152
-0.00628
-0.00034
 0.00592
 0.00153
-0.00466
-0.00343
 0.00061
 0.00177
 0.00050
-0.00081
-0.00072
 0.00037
 0.00140
 0.00039
-0.00352
-0.00472
 0.00057
 0.00342
-0.00337
-0.01062
-0.00873
-0.00178
 0.00380
 0.00595
 0.00377
 0.00156
 0.00477
 0.00880
 0.00658
 0.00072
-0.00174
 0.00165
 0.00462
-0.00110
-0.00847
-0.00353
 0.00686
 0.00601
-0.00424
-0.00992
-0.00448
 0.00501
 0.00621
-0.00065
-0.00398
-0.00037
 0.00499
 0.00648
-0.00189
-0.01435
-0.01309
 0.00114
 0.00778
 0.00211
-0.00243
-0.00087
 0.00162
 0.00234
 0.00084
-0.00401
-0.01052
-0.01187
-0.00576
-0.00202
-0.00524
-0.00471
 0.00242
 0.00513
 0.00124
-0.00161
-0.00232
-0.00435
-0.00518
-0.00201
 0.00091
 0.00178
 0.00405
 0.00521
 0.00199
-0.00013
 0.00117
 0.00054
 0.00016
 0.00561
 0.00707
-0.00451
-0.01350
-0.00684
 0.00014
-0.00346
-0.00431
 0.00162
-0.00042
-0.01050
-0.01119
 0.00043
 0.01050
 0.01516
 0.02205
 0.02839
 0.02160
 0.00156
-0.01495
-0.01666
-0.01267
-0.01233
-0.01023
-0.00382
 0.00564
 0.02205
 0.03404
 0.02292
 0.00390
 0.00456
 0.01606
 0.01643
 0.00817
 0.00219
 0.00154
 0.00642
 0.01144
 0.00996
 0.00697
 0.00967
 0.01115
 0.00162
-0.01204
-0.01465
-0.00641
-0.00318
-0.01191
-0.02185
-0.02109
-0.00928
 0.00272
 0.00567
 0.00522
 0.00972
 0.01650
 0.02075
 0.01733
 0.00213
-0.01142
-0.00634
 0.00556
 0.00215
-0.01006
-0.00992
 0.00192
 0.00978
 0.00760
-0.00071
-0.00773
-0.00971
-0.00953
-0.00475
 0.00520
 0.00649
-0.00236
-0.00368
 0.00126
-0.00502
-0.01721
-0.01755
-0.01193
-0.01458
-0.01637
-0.00799
-0.00535
-0.01599
-0.01994
-0.00842
 0.00329
 0.00884
 0.01171
 0.00485
-0.01214
-0.02256
-0.02026
-0.01307
-0.00543
-0.00184
-0.00246
-0.00004
 0.00221
 0.00083
 0.00632
 0.01599
 0.01580
 0.01157
 0.01145
 0.00749
-0.00030
-0.00024
 0.00855
 0.01163
 0.00013
-0.01107
-0.00600
 0.00502
 0.00438
-0.00688
-0.01224
-0.00312
 0.00426
-0.00466
-0.01456
-0.00891
 0.00323
 0.00779
 0.00501
 0.00660
 0.01996
 0.03285
 0.03059
 0.01888
 0.00707
-0.00534
-0.01436
-0.01415
-0.01135
-0.01592
-0.02583
-0.02823
-0.01582
-0.00063
 0.00364
 0.00399
 0.00805
 0.00618
-0.00587
-0.01659
-0.01744
-0.01257
-0.01185
-0.01617
-0.01487
-0.00587
 0.00058
 0.00170
 0.00326
 0.00702
 0.00759
 0.00006
-0.00695
-0.00122
 0.00971
 0.01280
 0.01173
 0.01291
 0.01408
 0.01330
 0.01203
 0.01310
 0.01764
 0.02128
 0.01961
 0.01513
 0.01139
 0.00697
-0.00010
-0.00737
-0.00915
-0.00481
-0.00339
-0.01028
-0.01677
-0.01530
-0.01276
-0.01657
-0.02077
-0.01547
-0.00125
 0.00990
 0.00949
 0.00496
 0.00598
 0.00870
 0.00816
 0.00957
 0.01440
 0.01284
 0.00457
 0.00400
 0.01025
 0.00826
 0.00210
 0.00446
 0.01139
 0.01619
 0.01949
 0.02077
 0.01793
 0.00859
-0.00323
-0.00466
 0.00389
 0.00639
 0.00348
 0.00782
 0.01263
 0.00579
-0.00333
-0.00008
 0.01194
 0.01714
 0.01011
 0.00391
 0.00886
 0.01594
 0.01664
 0.01688
 0.01766
 0.01271
 0.00889
 0.01448
 0.01756
 0.00595
-0.01244
-0.02362
-0.02229
-0.01408
-0.01066
-0.01527
-0.02009
-0.02147
-0.02295
-0.02533
-0.02717
-0.02905
-0.03075
-0.03006
-0.02642
-0.02259
-0.02212
-0.02420
-0.02241
-0.01402
-0.00614
-0.00324
-0.00106
 0.00037
-0.00214
-0.00366
 0.00036
 0.00607
 0.00886
 0.00685
 0.00251
 0.00250
 0.00577
 0.00477
 0.00159
 0.00192
 0.00332
 0.00416
 0.00481
 0.00109
-0.00609
-0.00846
-0.00582
-0.00587
-0.01098
-0.01700
-0.01757
-0.01105
-0.00652
-0.00950
-0.01138
-0.00642
 0.00066
 0.00527
 0.00528
 0.00190
 0.00032
 0.00046
-0.00337
-0.00923
-0.00734
 0.00300
 0.00950
 0.00601
 0.00142
 0.00235
 0.00464
 0.00566
 0.00656
 0.00709
 0.00802
 0.00911
 0.00791
 0.00598
 0.00607
 0.00827
 0.01332
 0.01749
 0.01348
 0.00561
 0.00509
 0.01036
 0.01167
 0.00956
 0.01178
 0.01643
 0.01471
 0.00739
 0.00356
 0.00519
 0.00580
 0.00338
 0.00225
 0.00292
 0.00248
 0.00118
 0.00025
 0.00033
 0.00176
 0.00234
 0.00143
 0.00249
 0.00412
 0.00081
-0.00333
-0.00020
 0.00459
 0.00160
-0.00413
-0.00503
-0.00461
-0.00689
-0.00944
-0.01019
-0.01014
-0.01021
-0.00923
-0.00500
 0.00111
 0.00402
 0.00298
 0.00177
 0.00017
-0.00223
-0.00057
 0.00481
 0.00713
 0.00671
 0.00823
 0.00918
 0.00550
 0.00062
-0.00088
-0.00140
-0.00423
-0.00658
-0.00548
-0.00151
 0.00349
 0.00484
 0.00062
-0.00157
 0.00197
 0.00227
-0.00377
-0.00606
-0.00227
-0.00188
-0.00689
-0.01088
-0.01159
-0.01006
-0.00766
-0.00660
-0.00644
-0.00563
-0.00515
-0.00582
-0.00759
-0.00899
-0.00543
 0.00241
 0.00562
 0.00286
 0.00292
 0.00660
 0.00608
 0.00121
-0.00044
 0.00345
 0.00730
 0.00714
 0.00583
 0.00524
 0.00260
-0.00005
 0.00232
 0.00461
 0.00079
-0.00206
 0.00068
 0.00120
-0.00247
-0.00314
-0.00136
-0.00364
-0.00838
-0.00907
-0.00732
-0.00932
-0.01227
-0.00952
-0.00395
-0.00211
-0.00363
-0.00438
-0.00304
-0.00214
-0.00357
-0.00511
-0.00442
-0.00272
-0.00204
-0.00214
-0.00169
-0.00013
 0.00188
 0.00288
 0.00269
 0.00276
 0.00398
 0.00651
 0.00816
 0.00520
 0.00130
 0.00431
 0.01070
 0.01138
 0.00912
 0.01030
 0.01097
 0.00783
 0.00700
 0.01092
 0.01230
 0.00758
 0.00281
 0.00260
 0.00421
 0.00474
 0.00457
 0.00471
 0.00583
 0.00729
 0.00712
 0.00465
 0.00124
-0.00186
-0.00426
-0.00469
-0.00269
-0.00195
-0.00454
-0.00650
-0.00678
-0.00866
-0.00929
-0.00478
-0.00040
-0.00032
-0.00050
 0.00112
 0.00236
 0.00152
-0.00201
-0.00423
-0.00115
 0.00282
 0.00397
 0.00399
 0.00198
-0.00084
-0.00013
 0.00122
-0.00028
-0.00076
 0.00056
 0.00029
 0.00012
 0.00193
 0.00281
 0.00183
 0.00064
-0.00095
-0.00302
-0.00339
-0.00050
 0.00241
 0.00042
-0.00394
-0.00497
-0.00552
-0.00913
-0.01130
-0.00937
-0.00668
-0.00590
-0.00702
-0.00721
-0.00429
-0.00192
-0.00248
-0.00144
 0.00250
 0.00486
 0.00626
 0.00888
 0.00831
 0.00402
 0.00288
 0.00593
 0.00826
 0.00743
 0.00408
 0.00179
 0.00297
 0.00394
 0.00230
 0.00157
 0.00263
 0.00280
 0.00270
 0.00215
-0.00188
-0.00545
-0.00229
 0.00225
 0.00100
-0.00169
-0.00121
-0.00125
-0.00387
-0.00556
-0.00452
-0.00231
-0.00109
-0.00246
-0.00602
-0.00899
-0.00831
-0.00410
-0.00090
-0.00265
-0.00787
-0.01233
-0.01279
-0.00909
-0.00580
-0.00713
-0.01027
-0.00985
-0.00605
-0.00264
-0.00117
-0.00100
-0.00155
-0.00256
-0.00321
-0.00208
 0.00045
 0.00212
 0.00215
 0.00142
 0.00024
-0.00021
 0.00197
 0.00518
 0.00568
 0.00342
 0.00178
 0.00234
 0.00314
 0.00278
 0.00267
 0.00314
 0.00247
 0.00132
 0.00161
 0.00299
 0.00420
 0.00468
 0.00420
 0.00329
 0.00347
 0.00570
 0.00869
 0.00991
 0.00850
 0.00585
 0.00406
 0.00434
 0.00504
 0.00405
 0.00276
 0.00268
 0.00289
 0.00381
 0.00534
 0.00426
 0.00088
-0.00029
 0.00054
 0.00008
-0.00047
-0.00001
-0.00112
-0.00341
-0.00297
 0.00024
 0.00268
 0.00289
 0.00217
 0.00191
 0.00227
 0.00263
 0.00223
 0.00061
-0.00161
-0.00264
-0.00151
 0.00004
-0.00060
-0.00323
-0.00497
-0.00446
-0.00292
-0.00150
-0.00055
-0.00011
 0.00008
 0.00009
 0.00031
 0.00148
 0.00278
 0.00280
 0.00255
 0.00326
 0.00309
 0.00086
-0.00120
-0.00155
-0.00109
-0.00065
-0.00072
-0.00132
-0.00171
-0.00190
-0.00220
-0.00161
-0.00014
-0.00038
-0.00328
-0.00571
-0.00590
-0.00565
-0.00494
-0.00214
 0.00049
 0.00004
-0.00116
-0.00034
 0.00035
-0.00116
-0.00270
-0.00236
-0.00120
-0.00038
 0.00012
-0.00001
-0.00074
-0.00038
 0.00186
 0.00354
 0.00269
 0.00098
 0.00040
 0.00042
 0.00002
-0.00037
 0.00021
 0.00137
 0.00131
-0.00026
-0.00098
 0.00003
 0.00084
 0.00082
 0.00061
 0.00000
 0.00008
 0.00185
 0.00250
-0.00021
-0.00277
-0.00155
 0.00104
 0.00118
-0.00041
-0.00102
-0.00098
-0.00195
-0.00289
-0.00208
-0.00050
 0.00034
 0.00010
-0.00100
-0.00157
-0.00078
-0.00028
-0.00089
-0.00161
-0.00189
-0.00132
-0.00042
-0.00126
-0.00366
-0.00496
-0.00412
-0.00260
-0.00227
-0.00333
-0.00385
-0.00278
-0.00124
 0.00015
 0.00191
 0.00379
 0.00440
 0.00310
 0.00167
 0.00262
 0.00503
 0.00531
 0.00351
 0.00311
 0.00394
 0.00269
 0.00026
 0.00020
 0.00171
 0.00211
 0.00209
 0.00267
 0.00240
 0.00060
-0.00105
-0.00104
 0.00032
 0.00155
 0.00142
 0.00010
-0.00130
-0.00164
-0.00072
 0.00007
-0.00078
-0.00231
-0.00262
-0.00223
-0.00287
-0.00368
-0.00267
-0.00105
-0.00135
-0.00249
-0.00169
-0.00007
-0.00080
-0.00286
-0.00238
 0.00015
 0.00069
-0.00120
-0.00242
-0.00172
-0.00028
 0.00089
 0.00147
 0.00166
 0.00182
 0.00188
 0.00171
 0.00137
 0.00085
 0.00070
 0.00142
 0.00199
 0.00161
 0.00121
 0.00127
 0.00149
 0.00224
 0.00343
 0.00404
 0.00355
 0.00207
 0.00050
 0.00012
 0.00054
 0.00048
 0.00009
-0.00027
-0.00114
-0.00195
-0.00165
-0.00139
-0.00267
-0.00397
-0.00287
-0.00072
-0.00089
-0.00282
-0.00339
-0.00301
-0.00393
-0.00504
-0.00423
-0.00228
-0.00100
-0.00051
 0.00018
 0.00108
 0.00134
 0.00135
 0.00189
 0.00232
 0.00246
 0.00315
 0.00413
 0.00484
 0.00553
 0.00577
 0.00503
 0.00446
 0.00520
 0.00661
 0.00722
 0.00647
 0.00513
 0.00441
 0.00431
 0.00400
 0.00391
 0.00486
 0.00565
 0.00470
 0.00270
 0.00124
 0.00098
 0.00167
 0.00207
 0.00083
-0.00126
-0.00210
-0.00176
-0.00221
-0.00349
-0.00377
-0.00297
-0.00266
-0.00316
-0.00341
-0.00293
-0.00255
-0.00313
-0.00412
-0.00437
-0.00417
-0.00445
-0.00483
-0.00443
-0.00337
-0.00245
-0.00231
-0.00272
-0.00249
-0.00135
-0.00095
-0.00231
-0.00385
-0.00389
-0.00342
-0.00407
-0.00488
-0.00453
-0.00421
-0.00487
-0.00507
-0.00410
-0.00320
-0.00277
-0.00219
-0.00204
-0.00282
-0.00323
-0.00206
-0.00029
 0.00034
-0.00013
-0.00025
 0.00007
-0.00009
-0.00006
 0.00104
 0.00194
 0.00163
 0.00105
 0.00108
 0.00200
 0.00382
 0.00540
 0.00552
 0.00463
 0.00370
 0.00309
 0.00296
 0.00298
 0.00266
 0.00242
 0.00260
 0.00262
 0.00221
 0.00167
 0.00129
 0.00126
 0.00140
 0.00120
 0.00082
 0.00092
 0.00145
 0.00211
 0.00285
 0.00290
 0.00167
 0.00054
 0.00092
 0.00187
 0.00196
 0.00162
 0.00183
 0.00225
 0.00195
 0.00127
 0.00117
 0.00121
 0.00048
-0.00043
-0.00068
-0.00082
-0.00149
-0.00226
-0.00277
-0.00299
-0.00249
-0.00132
-0.00096
-0.00200
-0.00270
-0.00223
-0.00222
-0.00341
-0.00408
-0.00296
-0.00096
 0.00015
-0.00020
-0.00083
-0.00038
 0.00065
 0.00074
-0.00016
-0.00058
 0.00009
 0.00117
 0.00192
 0.00170
 0.00050
-0.00053
-0.00062
-0.00032
-0.00002
 0.00022
-0.00013
-0.00094
-0.00104
-0.00055
-0.00096
-0.00241
-0.00318
-0.00251
-0.00179
-0.00201
-0.00216
-0.00171
-0.00164
-0.00204
-0.00177
-0.00090
-0.00057
-0.00066
-0.00016
 0.00083
 0.00125
 0.00114
 0.00132
 0.00148
 0.00095
 0.00069
 0.00151
 0.00230
 0.00217
 0.00202
 0.00270
 0.00360
 0.00367
 0.00300
 0.00287
 0.00378
 0.00462
 0.00458
 0.00421
 0.00397
 0.00378
 0.00349
 0.00264
 0.00094
-0.00069
-0.00102
-0.00031
-0.00009
-0.00091
-0.00164
-0.00167
-0.00186
-0.00249
-0.00299
-0.00325
-0.00303
-0.00209
-0.00133
-0.00164
-0.00263
-0.00319
-0.00286
-0.00255
-0.00302
-0.00340
-0.00308
-0.00283
-0.00292
-0.00282
-0.00243
-0.00195
-0.00125
-0.00017
 0.00070
 0.00047
-0.00020
 0.00012
 0.00077
 0.00028
-0.00045
-0.00006
 0.00096
 0.00180
 0.00212
 0.00188
 0.00181
 0.00216
 0.00238
 0.00258
 0.00322
 0.00385
 0.00391
 0.00331
 0.00237
 0.00187
 0.00168
 0.00095
 0.00061
 0.00158
 0.00198
 0.00087
 0.00010
 0.00006
-0.00044
-0.00084
-0.00025
 0.00031
-0.00004
-0.00066
-0.00093
-0.00102
-0.00120
-0.00098
 0.00007
 0.00108
 0.00099
 0.00001
-0.00124
-0.00222
-0.00222
-0.00138
-0.00069
-0.00028
 0.00014
 0.00009
-0.00037
-0.00042
-0.00051
-0.00148
-0.00223
-0.00149
-0.00016
 0.00043
 0.00021
-0.00061
-0.00186
-0.00274
-0.00261
-0.00199
-0.00157
-0.00123
-0.00078
-0.00079
-0.00170
-0.00266
-0.00235
-0.00104
-0.00024
-0.00030
-0.00022
 0.00033
 0.00081
 0.00120
 0.00147
 0.00107
 0.00029
 0.00028
 0.00105
 0.00149
 0.00130
 0.00109
 0.00101
 0.00067
 0.00030
 0.00038
 0.00068
 0.00080
 0.00108
 0.00161
 0.00160
 0.00088
 0.00049
 0.00100
 0.00178
 0.00227
 0.00241
 0.00212
 0.00173
 0.00182
 0.00205
 0.00192
 0.00193
 0.00205
 0.00145
 0.00056
 0.00039
 0.00042
-0.00020
-0.00082
-0.00035
 0.00077
 0.00117
 0.00068
 0.00036
 0.00053
 0.00057
 0.00027
-0.00017
-0.00085
-0.00153
-0.00136
-0.00058
-0.00065
-0.00151
-0.00153
-0.00090
-0.00125
-0.00249
-0.00312
-0.00286
-0.00238
-0.00204
-0.00188
-0.00217
-0.00281
-0.00290
-0.00188
-0.00029
 0.00096
 0.00138
 0.00100
 0.00030
-0.00024
-0.00046
-0.00029
 0.00010
 0.00052
 0.00101
 0.00133
 0.00106
 0.00038
-0.00025
-0.00069
-0.00072
-0.00012
 0.00070
 0.00115
 0.00129
 0.00140
 0.00144
 0.00136
 0.00150
 0.00176
 0.00149
 0.00063
 0.00008
 0.00021
 0.00031
 0.00016
 0.00022
 0.00042
 0.00038
 0.00035
 0.00053
 0.00051
 0.00015
-0.00023
-0.00053
-0.00089
-0.00100
-0.00063
-0.00047
-0.00109
-0.00171
-0.00166
-0.00161
-0.00199
-0.00213
-0.00165
-0.00114
-0.00109
-0.00124
-0.00120
-0.00087
-0.00039
 0.00004
 0.00021
-0.00003
-0.00071
-0.00127
-0.00105
-0.00053
-0.00052
-0.00067
-0.00037
 0.00025
 0.00082
 0.00105
 0.00088
 0.00080
 0.00108
 0.00114
 0.00075
 0.00045
 0.00060
 0.00099
 0.00122
 0.00120
 0.00117
 0.00122
 0.00117
 0.00106
 0.00105
 0.00083
 0.00027
-0.00021
-0.00047
-0.00076
-0.00116
-0.00155
-0.00178
-0.00164
-0.00117
-0.00075
-0.00046
 0.00004
 0.00061
 0.00062
-0.00008
-0.00077
-0.00067
 0.00009
 0.00078
 0.00116
 0.00156
 0.00190
 0.00184
 0.00143
 0.00101
 0.00079
 0.00076
 0.00077
 0.00076
 0.00083
 0.00089
 0.00072
 0.00027
-0.00038
-0.00088
-0.00088
-0.00055
-0.00029
-0.00025
-0.00038
-0.00048
-0.00064
-0.00102
-0.00116
-0.00076
-0.00048
-0.00061
-0.00065
-0.00052
-0.00048
-0.00036
-0.00013
 0.00001
 0.00013
 0.00035
 0.00056
 0.00053
 0.00023
 0.00017
 0.00063
 0.00105
 0.00111
 0.00116
 0.00103
 0.00054
 0.00022
 0.00036
 0.00046
 0.00037
 0.00036
 0.00038
 0.00031
 0.00028
 0.00039
 0.00063
 0.00086
 0.00095
 0.00072
 0.00012
-0.00053
-0.00081
-0.00065
-0.00036
-0.00032
-0.00060
-0.00095
-0.00120
-0.00139
-0.00141
-0.00106
-0.00043
 0.00006
 0.00014
 0.00001
 0.00004
 0.00021
 0.00013
-0.00031
-0.00063
-0.00036
 0.00017
 0.00029
-0.00010
-0.00054
-0.00062
-0.00037
-0.00006
 0.00013
 0.00019
 0.00013
-0.00006
-0.00023
-0.00026
-0.00038
-0.00074
-0.00091
-0.00061
-0.00012
 0.00017
 0.00029
 0.00035
 0.00019
-0.00029
-0.00064
-0.00029
 0.00052
 0.00107
 0.00128
 0.00140
 0.00138
 0.00106
 0.00047
-0.00014
